{
"type": "FeatureCollection",
"name": "cafe_location_data",
"crs": { "type": "name", "properties": { "name": "urn:ogc:def:crs:EPSG::4269" } },
"features": [
{ "type": "Feature", "properties": { "@id": "way/210318212", "amenity": "cafe", "building": "yes", "name": "Countryside Cafe", "shop": null, "GEOID": "17031071200" }, "geometry": { "type": "Polygon", "coordinates": [ [ [ -87.6458033, 41.9231356 ], [ -87.6458217, 41.9231343 ], [ -87.6459254, 41.9230531 ], [ -87.6459558, 41.9230715 ], [ -87.6459754, 41.9230861 ], [ -87.6458109, 41.9232155 ], [ -87.6457498, 41.923172 ], [ -87.6458033, 41.9231356 ] ] ] } },
{ "type": "Feature", "properties": { "@id": "way/210322882", "amenity": "cafe", "building": "yes", "name": "Bourgeois Pig Cafe", "shop": null, "GEOID": "17031070200" }, "geometry": { "type": "Polygon", "coordinates": [ [ [ -87.6479377, 41.9257595 ], [ -87.6479319, 41.9257855 ], [ -87.6478827, 41.9257874 ], [ -87.6478796, 41.9256249 ], [ -87.6478859, 41.9256247 ], [ -87.6478825, 41.9256 ], [ -87.6479266, 41.9255989 ], [ -87.6479365, 41.9257046 ], [ -87.6479272, 41.9257114 ], [ -87.6479267, 41.9257553 ], [ -87.6479377, 41.9257595 ] ] ] } },
{ "type": "Feature", "properties": { "@id": "way/210331436", "amenity": "cafe", "building": "yes", "name": "Clock Tower Cafe", "shop": null, "GEOID": "17031060900" }, "geometry": { "type": "Polygon", "coordinates": [ [ [ -87.6416191, 41.9521128 ], [ -87.6416504, 41.9521249 ], [ -87.6416529, 41.9521212 ], [ -87.6416669, 41.952127 ], [ -87.6417778, 41.9521741 ], [ -87.6417868, 41.952178 ], [ -87.6417849, 41.9521803 ], [ -87.6418245, 41.9521969 ], [ -87.6417881, 41.9522412 ], [ -87.6417507, 41.9522238 ], [ -87.6417378, 41.9522409 ], [ -87.6417323, 41.9522386 ], [ -87.6416079, 41.9521858 ], [ -87.6416025, 41.9521835 ], [ -87.6416122, 41.9521705 ], [ -87.641584, 41.9521578 ], [ -87.6416191, 41.9521128 ] ] ] } }
]
}
