{
"type": "FeatureCollection",
"name": "fast_food_location_data",
"crs": { "type": "name", "properties": { "name": "urn:ogc:def:crs:EPSG::4269" } },
"features": [
{ "type": "Feature", "properties": { "@id": "way/210321026", "amenity": "fast_food", "building": "retail", "name": "Sarpino's Pizzeria", "shop": null, "GEOID": "17031070400" }, "geometry": { "type": "Polygon", "coordinates": [ [ [ -87.65775, 41.9323008 ], [ -87.6577555, 41.932471 ], [ -87.6576673, 41.9324732 ], [ -87.6576617, 41.9323031 ], [ -87.65775, 41.9323008 ] ] ] } },
{ "type": "Feature", "properties": { "@id": "way/210321512", "amenity": "fast_food", "building": "commercial", "name": "Dog Haus", "shop": null, "GEOID": "17031070300" }, "geometry": { "type": "Polygon", "coordinates": [ [ [ -87.6510855, 41.9267206 ], [ -87.6509051, 41.9268562 ], [ -87.6507687, 41.9267607 ], [ -87.6510158, 41.9265747 ], [ -87.6510468, 41.9265971 ], [ -87.6509837, 41.9266489 ], [ -87.6510855, 41.9267206 ] ] ] } },
{ "type": "Feature", "properties": { "@id": "way/210321765", "amenity": "fast_food", "building": "retail", "name": "The Wiener Circle;The Wiener’s Circle", "shop": null, "GEOID": "17031070200" }, "geometry": { "type": "Polygon", "coordinates": [ [ [ -87.643954, 41.9300632 ], [ -87.6440102, 41.9301826 ], [ -87.6437937, 41.9302371 ], [ -87.6437801, 41.9302083 ], [ -87.6437691, 41.9302111 ], [ -87.6437273, 41.9301223 ], [ -87.643954, 41.9300632 ] ] ] } },
{ "type": "Feature", "properties": { "@id": "way/210321882", "amenity": "fast_food", "building": "retail", "name": "McDonald's", "shop": null, "GEOID": "17031070102" }, "geometry": { "type": "Polygon", "coordinates": [ [ [ -87.643578, 41.9306442 ], [ -87.6436307, 41.9307325 ], [ -87.6432832, 41.9308472 ], [ -87.6432371, 41.9307698 ], [ -87.6433217, 41.9307418 ], [ -87.6433217, 41.9307288 ], [ -87.643578, 41.9306442 ] ] ] } },
{ "type": "Feature", "properties": { "@id": "way/210329577", "amenity": "fast_food", "building": "retail", "name": "Einstein Bros. Bagels", "shop": "bakery", "GEOID": "17031832000" }, "geometry": { "type": "Polygon", "coordinates": [ [ [ -87.654404, 41.9447549 ], [ -87.6544982, 41.9448831 ], [ -87.6545307, 41.9449409 ], [ -87.654411, 41.9449677 ], [ -87.6543805, 41.9448948 ], [ -87.6543745, 41.9447616 ], [ -87.654404, 41.9447549 ] ] ] } },
{ "type": "Feature", "properties": { "@id": "way/774526685", "amenity": "fast_food", "building": "retail", "name": "Roti Modern Mediterranean", "shop": null, "GEOID": "17031832600" }, "geometry": { "type": "Polygon", "coordinates": [ [ [ -87.6534531, 41.9116021 ], [ -87.6532664, 41.9116035 ], [ -87.6532686, 41.9117738 ], [ -87.6534554, 41.9117725 ], [ -87.6534531, 41.9116021 ] ] ] } },
{ "type": "Feature", "properties": { "@id": "way/1002191522", "amenity": "fast_food", "building": "yes", "name": "Chick-fil-A", "shop": null, "GEOID": "17031832000" }, "geometry": { "type": "Polygon", "coordinates": [ [ [ -87.6556023, 41.9455438 ], [ -87.6553943, 41.9456359 ], [ -87.6554973, 41.9457586 ], [ -87.6556993, 41.9456685 ], [ -87.6556023, 41.9455438 ] ] ] } },
{ "type": "Feature", "properties": { "@id": "way/1330305638", "amenity": "fast_food", "building": "yes", "name": "Dunkin'", "shop": null, "GEOID": "17031071100" }, "geometry": { "type": "Polygon", "coordinates": [ [ [ -87.6529401, 41.9252175 ], [ -87.6529731, 41.9252168 ], [ -87.6529734, 41.9252266 ], [ -87.6529752, 41.9252773 ], [ -87.6529421, 41.9252779 ], [ -87.6529411, 41.9252472 ], [ -87.6529401, 41.9252175 ] ] ] } }
]
}
