{
"type": "FeatureCollection",
"name": "restaurant_location_data",
"crs": { "type": "name", "properties": { "name": "urn:ogc:def:crs:EPSG::4269" } },
"features": [
{ "type": "Feature", "properties": { "@id": "way/158977040", "amenity": "restaurant", "building": "yes", "name": "Broken English", "shop": null, "GEOID": "17031070300" }, "geometry": { "type": "Polygon", "coordinates": [ [ [ -87.6535883, 41.9286198 ], [ -87.6535901, 41.9287461 ], [ -87.6535758, 41.9287621 ], [ -87.6533929, 41.928635 ], [ -87.6534387, 41.9285968 ], [ -87.6535329, 41.9286614 ], [ -87.6535883, 41.9286198 ] ] ] } },
{ "type": "Feature", "properties": { "@id": "way/210314921", "amenity": "restaurant", "building": "yes", "name": "The Butcher & the Burger", "shop": null, "GEOID": "17031832600" }, "geometry": { "type": "Polygon", "coordinates": [ [ [ -87.6542708, 41.9178169 ], [ -87.6542761, 41.9180035 ], [ -87.6542008, 41.9180045 ], [ -87.6541936, 41.9178192 ], [ -87.6542708, 41.9178169 ] ] ] } },
{ "type": "Feature", "properties": { "@id": "way/210314958", "amenity": "restaurant", "building": "yes", "name": "Tarantino's", "shop": null, "GEOID": "17031071000" }, "geometry": { "type": "Polygon", "coordinates": [ [ [ -87.6560137, 41.9183154 ], [ -87.6559262, 41.9183165 ], [ -87.6559185, 41.9181806 ], [ -87.6559112, 41.9181737 ], [ -87.6559095, 41.91816 ], [ -87.6559206, 41.9181518 ], [ -87.6559335, 41.9181519 ], [ -87.6559481, 41.9181602 ], [ -87.6560087, 41.9181606 ], [ -87.6560137, 41.9183154 ] ] ] } },
{ "type": "Feature", "properties": { "@id": "way/210314960", "amenity": "restaurant", "building": "yes", "name": "Dee's", "shop": null, "GEOID": "17031071000" }, "geometry": { "type": "Polygon", "coordinates": [ [ [ -87.6560875, 41.91816 ], [ -87.6560913, 41.9183359 ], [ -87.6560204, 41.9183368 ], [ -87.6560166, 41.9181608 ], [ -87.6560875, 41.91816 ] ] ] } },
{ "type": "Feature", "properties": { "@id": "way/210316907", "amenity": "restaurant", "building": "yes", "name": null, "shop": null, "GEOID": "17031071100" }, "geometry": { "type": "Polygon", "coordinates": [ [ [ -87.6490179, 41.9185983 ], [ -87.6486503, 41.9186051 ], [ -87.6486479, 41.9185361 ], [ -87.6486585, 41.9185353 ], [ -87.6490156, 41.9185296 ], [ -87.6490179, 41.9185983 ] ] ] } },
{ "type": "Feature", "properties": { "@id": "way/210317387", "amenity": "restaurant", "building": "commercial", "name": "Chez Moi", "shop": null, "GEOID": "17031071100" }, "geometry": { "type": "Polygon", "coordinates": [ [ [ -87.6491571, 41.9200758 ], [ -87.6491589, 41.9201452 ], [ -87.6486996, 41.9201521 ], [ -87.6486982, 41.9201013 ], [ -87.6487242, 41.9200822 ], [ -87.6491571, 41.9200758 ] ] ] } },
{ "type": "Feature", "properties": { "@id": "way/210318198", "amenity": "restaurant", "building": "commercial", "name": "Moretti's Pizzeria & Bar", "shop": null, "GEOID": "17031071200" }, "geometry": { "type": "Polygon", "coordinates": [ [ [ -87.6453576, 41.9231381 ], [ -87.6451019, 41.9233377 ], [ -87.6450957, 41.923333 ], [ -87.6449702, 41.923242 ], [ -87.6452252, 41.9230418 ], [ -87.6453576, 41.9231381 ] ] ] } },
{ "type": "Feature", "properties": { "@id": "way/210318223", "amenity": "restaurant", "building": "yes", "name": "Simply it", "shop": null, "GEOID": "17031071200" }, "geometry": { "type": "Polygon", "coordinates": [ [ [ -87.645674, 41.9233681 ], [ -87.6455203, 41.9234865 ], [ -87.6455002, 41.9234782 ], [ -87.6454853, 41.9234904 ], [ -87.6454999, 41.9235015 ], [ -87.6454314, 41.9235532 ], [ -87.6453767, 41.9235131 ], [ -87.6456194, 41.9233282 ], [ -87.645674, 41.9233681 ] ] ] } },
{ "type": "Feature", "properties": { "@id": "way/210321521", "amenity": "restaurant", "building": "commercial", "name": "Hop sand Curds", "shop": null, "GEOID": "17031070300" }, "geometry": { "type": "Polygon", "coordinates": [ [ [ -87.6512026, 41.9267998 ], [ -87.6510785, 41.9268978 ], [ -87.6510985, 41.9269117 ], [ -87.651043, 41.9269528 ], [ -87.6509051, 41.9268562 ], [ -87.6510855, 41.9267206 ], [ -87.6511315, 41.9267527 ], [ -87.6511407, 41.9267445 ], [ -87.6511645, 41.9267611 ], [ -87.651157, 41.9267679 ], [ -87.6512026, 41.9267998 ] ] ] } },
{ "type": "Feature", "properties": { "@id": "way/210321659", "amenity": "restaurant", "building": "commercial", "name": "Las Fuentes", "shop": null, "GEOID": "17031070300" }, "geometry": { "type": "Polygon", "coordinates": [ [ [ -87.6490094, 41.9289447 ], [ -87.6493119, 41.928941 ], [ -87.6493135, 41.9289992 ], [ -87.6490103, 41.9290029 ], [ -87.6490094, 41.9289447 ] ] ] } },
{ "type": "Feature", "properties": { "@id": "way/210325560", "amenity": "restaurant", "building": "yes", "name": "Select Cut Steak House", "shop": null, "GEOID": "17031063000" }, "geometry": { "type": "Polygon", "coordinates": [ [ [ -87.6491428, 41.9330372 ], [ -87.649374, 41.9330306 ], [ -87.6493757, 41.9330402 ], [ -87.6494015, 41.9330404 ], [ -87.6494027, 41.9330994 ], [ -87.649331, 41.9331017 ], [ -87.6493308, 41.9331168 ], [ -87.6493694, 41.9331157 ], [ -87.6493709, 41.9331472 ], [ -87.6493158, 41.9331483 ], [ -87.6493174, 41.9331661 ], [ -87.6492292, 41.9331683 ], [ -87.6492276, 41.9331519 ], [ -87.6491945, 41.933153 ], [ -87.6492035, 41.9331725 ], [ -87.6491594, 41.9331722 ], [ -87.6491521, 41.9331722 ], [ -87.6491428, 41.9330372 ] ] ] } },
{ "type": "Feature", "properties": { "@id": "way/210326253", "amenity": "restaurant", "building": "yes", "name": "Wilde Bar & Restaurant", "shop": null, "GEOID": "17031063100" }, "geometry": { "type": "Polygon", "coordinates": [ [ [ -87.6451678, 41.9386737 ], [ -87.6449344, 41.938675 ], [ -87.6449358, 41.9387461 ], [ -87.6444705, 41.9387521 ], [ -87.6444681, 41.9385956 ], [ -87.6449831, 41.9385878 ], [ -87.6449831, 41.9385889 ], [ -87.6451669, 41.9385872 ], [ -87.6451678, 41.9386737 ] ] ] } },
{ "type": "Feature", "properties": { "@id": "way/210329583", "amenity": "restaurant", "building": "commercial", "name": "Zam Zam", "shop": null, "GEOID": "17031832000" }, "geometry": { "type": "Polygon", "coordinates": [ [ [ -87.6547256, 41.9451573 ], [ -87.6545703, 41.9452261 ], [ -87.6545486, 41.9451619 ], [ -87.6546797, 41.945101 ], [ -87.6547256, 41.9451573 ] ] ] } },
{ "type": "Feature", "properties": { "@id": "way/210329586", "amenity": "restaurant", "building": "commercial", "name": "Dimo's", "shop": null, "GEOID": "17031832000" }, "geometry": { "type": "Polygon", "coordinates": [ [ [ -87.6545703, 41.9452261 ], [ -87.6547256, 41.9451573 ], [ -87.6547741, 41.9452169 ], [ -87.6545939, 41.9452957 ], [ -87.6545703, 41.9452261 ] ] ] } },
{ "type": "Feature", "properties": { "@id": "way/210687002", "amenity": "restaurant", "building": "gazebo", "name": "Bacino's", "shop": null, "GEOID": "17031063303" }, "geometry": { "type": "Polygon", "coordinates": [ [ [ -87.6354529, 41.9335094 ], [ -87.6355025, 41.9335179 ], [ -87.6355315, 41.933551 ], [ -87.6355201, 41.9335894 ], [ -87.6354739, 41.9336097 ], [ -87.6354335, 41.9336053 ], [ -87.6353971, 41.9335777 ], [ -87.6354105, 41.9335284 ], [ -87.6354529, 41.9335094 ] ] ] } },
{ "type": "Feature", "properties": { "@id": "way/760586254", "amenity": "restaurant", "building": "yes", "name": "Bird's Eye Bar & Grill", "shop": null, "GEOID": "17031071400" }, "geometry": { "type": "Polygon", "coordinates": [ [ [ -87.6336727, 41.9221549 ], [ -87.6336845, 41.9220552 ], [ -87.6336374, 41.9220375 ], [ -87.6336084, 41.9220101 ], [ -87.6335977, 41.9219937 ], [ -87.633589, 41.9219774 ], [ -87.6332298, 41.9219557 ], [ -87.6332081, 41.9219876 ], [ -87.6332485, 41.9220196 ], [ -87.6332787, 41.9220248 ], [ -87.6333875, 41.9220322 ], [ -87.6333773, 41.9221379 ], [ -87.6334918, 41.9221445 ], [ -87.6335062, 41.9221453 ], [ -87.6336727, 41.9221549 ] ] ] } }
]
}
