{
"type": "FeatureCollection",
"crs": { "type": "name", "properties": { "name": "urn:ogc:def:crs:EPSG::4269" } },
"features": [
{ "type": "Feature", "properties": { "@id": "way/167152094", "amenity": "cafe", "building": "yes", "name": "Starbucks", "GEOID": "39049007830" }, "geometry": { "type": "Polygon", "coordinates": [ [ [ -83.0253807, 39.9925203 ], [ -83.0251837, 39.9925081 ], [ -83.0251746, 39.9925945 ], [ -83.0252547, 39.9925995 ], [ -83.0252517, 39.9926285 ], [ -83.0253685, 39.9926358 ], [ -83.0253807, 39.9925203 ] ] ] } },
{ "type": "Feature", "properties": { "@id": "way/373552732", "amenity": "cafe", "building": "commercial", "name": "Hang Over Easy", "GEOID": "39049001121" }, "geometry": { "type": "Polygon", "coordinates": [ [ [ -83.0142471, 39.9951307 ], [ -83.0142076, 39.9951353 ], [ -83.0141843, 39.9950182 ], [ -83.0144251, 39.99499 ], [ -83.0144372, 39.9949885 ], [ -83.0144603, 39.9951043 ], [ -83.0142471, 39.9951307 ] ] ] } },
{ "type": "Feature", "properties": { "@id": "way/598516502", "amenity": "cafe", "building": "commercial", "name": "Starbucks", "GEOID": "39049001901" }, "geometry": { "type": "Polygon", "coordinates": [ [ [ -83.0352735, 39.988005 ], [ -83.0352675, 39.9881078 ], [ -83.0352761, 39.9881081 ], [ -83.0352745, 39.9881353 ], [ -83.035266, 39.988135 ], [ -83.0352648, 39.9881561 ], [ -83.0352132, 39.9881543 ], [ -83.0352146, 39.9881304 ], [ -83.0352062, 39.9881301 ], [ -83.0352081, 39.9880977 ], [ -83.0352165, 39.988098 ], [ -83.0352219, 39.9880033 ], [ -83.0352735, 39.988005 ] ] ] } },
{ "type": "Feature", "properties": { "@id": "way/624427282", "amenity": "cafe", "building": "commercial", "name": "Katalina's", "GEOID": "39049002000" }, "geometry": { "type": "Polygon", "coordinates": [ [ [ -83.0158713, 39.9837603 ], [ -83.0158216, 39.9837589 ], [ -83.0157971, 39.9837485 ], [ -83.0157526, 39.9837297 ], [ -83.0157545, 39.9836875 ], [ -83.0158737, 39.9836899 ], [ -83.0158713, 39.9837603 ] ] ] } },
{ "type": "Feature", "properties": { "@id": "way/631023328", "amenity": "cafe", "building": "yes", "name": "Tim Hortons", "GEOID": "39049001901" }, "geometry": { "type": "Polygon", "coordinates": [ [ [ -83.0265377, 39.9907653 ], [ -83.0265444, 39.9906603 ], [ -83.0263957, 39.9906547 ], [ -83.0263817, 39.9906619 ], [ -83.0263289, 39.9906619 ], [ -83.0263055, 39.9906736 ], [ -83.0263008, 39.9907329 ], [ -83.0263125, 39.9907418 ], [ -83.0263324, 39.9907445 ], [ -83.0263441, 39.990758 ], [ -83.0265377, 39.9907653 ] ] ] } },
{ "type": "Feature", "properties": { "@id": "way/916523949", "amenity": "cafe", "building": "yes", "name": "Starbucks", "GEOID": "39049001300" }, "geometry": { "type": "Polygon", "coordinates": [ [ [ -83.0071165, 39.998796 ], [ -83.0075107, 39.9988149 ], [ -83.0075148, 39.9987644 ], [ -83.0071198, 39.9987456 ], [ -83.0071165, 39.998796 ] ] ] } },
{ "type": "Feature", "properties": { "@id": "way/1172567441", "amenity": "cafe", "building": "yes", "name": "Starbucks", "GEOID": "39049001901" }, "geometry": { "type": "Polygon", "coordinates": [ [ [ -83.0241208, 39.9848422 ], [ -83.0241088, 39.9850358 ], [ -83.0242146, 39.9850433 ], [ -83.0242371, 39.9848471 ], [ -83.0241208, 39.9848422 ] ] ] } }
]
}
