{
"type": "FeatureCollection",
"crs": { "type": "name", "properties": { "name": "urn:ogc:def:crs:EPSG::4269" } },
"features": [
{ "type": "Feature", "properties": { "@id": "way/161308420", "amenity": "fast_food", "building": "yes", "name": "Panera Bread", "GEOID": "39049001110" }, "geometry": { "type": "Polygon", "coordinates": [ [ [ -83.0178586, 40.0068097 ], [ -83.0178787, 40.0065565 ], [ -83.0177474, 40.0065504 ], [ -83.0177496, 40.0065225 ], [ -83.0176533, 40.006518 ], [ -83.0176507, 40.0065504 ], [ -83.0175973, 40.0065485 ], [ -83.0175589, 40.006505 ], [ -83.0175094, 40.0065376 ], [ -83.0175477, 40.0065736 ], [ -83.0175429, 40.0066432 ], [ -83.0174985, 40.0066399 ], [ -83.0174981, 40.0067112 ], [ -83.0176255, 40.0067191 ], [ -83.0176197, 40.0067987 ], [ -83.0178586, 40.0068097 ] ] ] } },
{ "type": "Feature", "properties": { "@id": "way/166905021", "amenity": "fast_food", "building": "commercial", "name": "McDonald's", "GEOID": "39049001901" }, "geometry": { "type": "Polygon", "coordinates": [ [ [ -83.0305024, 39.9884127 ], [ -83.0306728, 39.988422 ], [ -83.0306597, 39.9885624 ], [ -83.0306546, 39.9885621 ], [ -83.0306456, 39.9886587 ], [ -83.0306689, 39.9886599 ], [ -83.0306666, 39.9886846 ], [ -83.0306193, 39.988682 ], [ -83.0306168, 39.9887086 ], [ -83.0304927, 39.9887018 ], [ -83.0305079, 39.9885387 ], [ -83.0304907, 39.9885377 ], [ -83.0305024, 39.9884127 ] ] ] } },
{ "type": "Feature", "properties": { "@id": "way/373552742", "amenity": "fast_food", "building": "commercial", "name": "Bruegger's Bagels", "GEOID": "39049001121" }, "geometry": { "type": "Polygon", "coordinates": [ [ [ -83.0143778, 39.9946689 ], [ -83.0143614, 39.9946708 ], [ -83.014094, 39.9947022 ], [ -83.0140753, 39.9946084 ], [ -83.0143478, 39.9945765 ], [ -83.0143591, 39.9945752 ], [ -83.0143778, 39.9946689 ] ] ] } },
{ "type": "Feature", "properties": { "@id": "way/391599920", "amenity": "fast_food", "building": "commercial", "name": "McDonald's", "GEOID": "39049001200" }, "geometry": { "type": "Polygon", "coordinates": [ [ [ -83.0083149, 40.0027093 ], [ -83.0083011, 40.0026461 ], [ -83.0082875, 40.0026479 ], [ -83.0082693, 40.0025644 ], [ -83.0080992, 40.0025862 ], [ -83.0081038, 40.002607 ], [ -83.007905, 40.0026324 ], [ -83.0079324, 40.0027582 ], [ -83.0083149, 40.0027093 ] ] ] } },
{ "type": "Feature", "properties": { "@id": "way/598516501", "amenity": "fast_food", "building": "commercial", "name": "Greek Express", "GEOID": "39049001901" }, "geometry": { "type": "Polygon", "coordinates": [ [ [ -83.0359768, 39.9885365 ], [ -83.0359736, 39.9885807 ], [ -83.0359878, 39.9885812 ], [ -83.035982, 39.988663 ], [ -83.0359678, 39.9886624 ], [ -83.035962, 39.9887452 ], [ -83.035843, 39.9887403 ], [ -83.0358541, 39.9886189 ], [ -83.0358597, 39.9885317 ], [ -83.0359768, 39.9885365 ] ] ] } },
{ "type": "Feature", "properties": { "@id": "way/598516503", "amenity": "fast_food", "building": "commercial", "name": "Taco Bell", "GEOID": "39049001902" }, "geometry": { "type": "Polygon", "coordinates": [ [ [ -83.0416417, 39.9887731 ], [ -83.0416289, 39.9889801 ], [ -83.0416073, 39.9889793 ], [ -83.0416058, 39.9890038 ], [ -83.0415418, 39.9890015 ], [ -83.0415433, 39.988977 ], [ -83.0415234, 39.9889763 ], [ -83.041531, 39.9888536 ], [ -83.0415037, 39.9888526 ], [ -83.0415062, 39.9888126 ], [ -83.0415335, 39.9888136 ], [ -83.0415362, 39.9887693 ], [ -83.0415633, 39.9887703 ], [ -83.0415636, 39.9887645 ], [ -83.0416232, 39.9887667 ], [ -83.0416229, 39.9887724 ], [ -83.0416417, 39.9887731 ] ] ] } },
{ "type": "Feature", "properties": { "@id": "way/598516504", "amenity": "fast_food", "building": "commercial", "name": "Chipotle", "GEOID": "39049001902" }, "geometry": { "type": "Polygon", "coordinates": [ [ [ -83.0412743, 39.9890014 ], [ -83.0412568, 39.9890007 ], [ -83.0412547, 39.9890336 ], [ -83.0412159, 39.9890322 ], [ -83.0412179, 39.9889993 ], [ -83.0411642, 39.9889974 ], [ -83.0411673, 39.988947 ], [ -83.0411509, 39.9889464 ], [ -83.041155, 39.9888809 ], [ -83.0411714, 39.9888815 ], [ -83.041173, 39.9888558 ], [ -83.0412692, 39.9888593 ], [ -83.0412793, 39.9888634 ], [ -83.0412823, 39.9888723 ], [ -83.0412743, 39.9890014 ] ] ] } },
{ "type": "Feature", "properties": { "@id": "way/598516509", "amenity": "fast_food", "building": "commercial", "name": "DQ Grill & Chill", "GEOID": "39049001902" }, "geometry": { "type": "Polygon", "coordinates": [ [ [ -83.0469337, 39.9889981 ], [ -83.0469251, 39.9891052 ], [ -83.0468232, 39.9891004 ], [ -83.0468208, 39.9891305 ], [ -83.0467898, 39.989129 ], [ -83.0467922, 39.9890989 ], [ -83.0467788, 39.9890983 ], [ -83.0467874, 39.9889913 ], [ -83.0469337, 39.9889981 ] ] ] } },
{ "type": "Feature", "properties": { "@id": "way/598516511", "amenity": "fast_food", "building": "commercial", "name": "Subway", "GEOID": "39049001902" }, "geometry": { "type": "Polygon", "coordinates": [ [ [ -83.0487969, 39.9892753 ], [ -83.0487898, 39.9893675 ], [ -83.0486115, 39.9893594 ], [ -83.0486138, 39.9893301 ], [ -83.0485927, 39.9893292 ], [ -83.0485964, 39.9892809 ], [ -83.0486176, 39.9892819 ], [ -83.0486187, 39.9892672 ], [ -83.0487969, 39.9892753 ] ] ] } },
{ "type": "Feature", "properties": { "@id": "way/598516516", "amenity": "fast_food", "building": "commercial", "name": "Qdoba", "GEOID": "39049001902" }, "geometry": { "type": "Polygon", "coordinates": [ [ [ -83.0519991, 39.9888132 ], [ -83.0519911, 39.9889377 ], [ -83.0519059, 39.9889345 ], [ -83.0519047, 39.9889528 ], [ -83.0518416, 39.9889504 ], [ -83.0518427, 39.9889321 ], [ -83.051764, 39.9889292 ], [ -83.0517719, 39.9888047 ], [ -83.0519991, 39.9888132 ] ] ] } },
{ "type": "Feature", "properties": { "@id": "way/598516520", "amenity": "fast_food", "building": "commercial", "name": "Wendy's", "GEOID": "39049001902" }, "geometry": { "type": "Polygon", "coordinates": [ [ [ -83.0524476, 39.9894271 ], [ -83.0524421, 39.9895134 ], [ -83.0524413, 39.9895254 ], [ -83.0523023, 39.9895202 ], [ -83.0523008, 39.9895442 ], [ -83.052242, 39.989542 ], [ -83.0522425, 39.9895337 ], [ -83.0521817, 39.9895314 ], [ -83.0521812, 39.9895396 ], [ -83.0521591, 39.9895388 ], [ -83.05216, 39.9895252 ], [ -83.0521309, 39.9895242 ], [ -83.0521359, 39.9894447 ], [ -83.0521856, 39.9894466 ], [ -83.0521874, 39.9894173 ], [ -83.0524476, 39.9894271 ] ] ] } },
{ "type": "Feature", "properties": { "@id": "way/626165919", "amenity": "fast_food", "building": "commercial", "name": "Wendy's", "GEOID": "39049003600" }, "geometry": { "type": "Polygon", "coordinates": [ [ [ -82.9730851, 39.9656553 ], [ -82.9730944, 39.9657061 ], [ -82.9731029, 39.9657052 ], [ -82.9731109, 39.965749 ], [ -82.9731024, 39.9657499 ], [ -82.9731089, 39.9657859 ], [ -82.9731168, 39.9657851 ], [ -82.9731206, 39.9658064 ], [ -82.9731128, 39.9658073 ], [ -82.973118, 39.9658356 ], [ -82.9729996, 39.9658483 ], [ -82.9730039, 39.9658719 ], [ -82.9729377, 39.965879 ], [ -82.9729005, 39.965675 ], [ -82.9730851, 39.9656553 ] ] ] } },
{ "type": "Feature", "properties": { "@id": "way/631023329", "amenity": "fast_food", "building": "yes", "name": "Wendy's", "GEOID": "39049001901" }, "geometry": { "type": "Polygon", "coordinates": [ [ [ -83.0262592, 39.9904046 ], [ -83.0264438, 39.9904088 ], [ -83.0264444, 39.990394 ], [ -83.026547, 39.9903963 ], [ -83.0265494, 39.9903351 ], [ -83.0265959, 39.9903362 ], [ -83.0265971, 39.9903044 ], [ -83.0265018, 39.9903022 ], [ -83.0265023, 39.9902897 ], [ -83.0263871, 39.990287 ], [ -83.0263866, 39.9902998 ], [ -83.0262634, 39.990297 ], [ -83.0262592, 39.9904046 ] ] ] } },
{ "type": "Feature", "properties": { "@id": "way/637757621", "amenity": "fast_food", "building": "commercial", "name": "McDonald's", "GEOID": "39049001400" }, "geometry": { "type": "Polygon", "coordinates": [ [ [ -82.9859959, 40.0004472 ], [ -82.9859903, 40.000535 ], [ -82.9859289, 40.0005327 ], [ -82.9859278, 40.0005489 ], [ -82.9858558, 40.0005462 ], [ -82.9858553, 40.0005542 ], [ -82.9856642, 40.0005469 ], [ -82.9856648, 40.000539 ], [ -82.9855832, 40.0005359 ], [ -82.9855891, 40.0004451 ], [ -82.9857517, 40.0004513 ], [ -82.9857525, 40.000438 ], [ -82.9859959, 40.0004472 ] ] ] } },
{ "type": "Feature", "properties": { "@id": "way/738318162", "amenity": "fast_food", "building": "commercial", "name": "White Castle", "GEOID": "39049002300" }, "geometry": { "type": "Polygon", "coordinates": [ [ [ -82.9836179, 39.9858843 ], [ -82.9836079, 39.9860256 ], [ -82.9834722, 39.98602 ], [ -82.983482, 39.9858808 ], [ -82.9835042, 39.9858817 ], [ -82.9835065, 39.9858494 ], [ -82.9835889, 39.9858528 ], [ -82.9835868, 39.9858831 ], [ -82.9836179, 39.9858843 ] ] ] } },
{ "type": "Feature", "properties": { "@id": "way/738318170", "amenity": "fast_food", "building": "commercial", "name": "Royal Fish & Chicken", "GEOID": "39049001500" }, "geometry": { "type": "Polygon", "coordinates": [ [ [ -82.981389, 39.9864646 ], [ -82.9812487, 39.9865648 ], [ -82.9811649, 39.9864959 ], [ -82.9812172, 39.9864585 ], [ -82.9811522, 39.986405 ], [ -82.9812407, 39.9863418 ], [ -82.9812982, 39.986389 ], [ -82.9813071, 39.9863827 ], [ -82.9813598, 39.986426 ], [ -82.9813503, 39.9864328 ], [ -82.981389, 39.9864646 ] ] ] } },
{ "type": "Feature", "properties": { "@id": "way/778743467", "amenity": "fast_food", "building": "yes", "name": "Wendy's", "GEOID": "39049001500" }, "geometry": { "type": "Polygon", "coordinates": [ [ [ -82.9874657, 39.9868472 ], [ -82.9873541, 39.9868429 ], [ -82.9873698, 39.9866037 ], [ -82.9874814, 39.986608 ], [ -82.9874657, 39.9868472 ] ] ] } },
{ "type": "Feature", "properties": { "@id": "way/778743469", "amenity": "fast_food", "building": "yes", "name": "KFC", "GEOID": "39049001500" }, "geometry": { "type": "Polygon", "coordinates": [ [ [ -82.9867107, 39.9867234 ], [ -82.9865217, 39.9867118 ], [ -82.9865343, 39.986591 ], [ -82.9867232, 39.9866026 ], [ -82.9867107, 39.9867234 ] ] ] } },
{ "type": "Feature", "properties": { "@id": "way/778743471", "amenity": "fast_food", "building": "yes", "name": "Church's Chicken", "GEOID": "39049001500" }, "geometry": { "type": "Polygon", "coordinates": [ [ [ -82.9886125, 39.9867546 ], [ -82.9884895, 39.986791 ], [ -82.9884063, 39.9866262 ], [ -82.9885292, 39.9865897 ], [ -82.9886125, 39.9867546 ] ] ] } },
{ "type": "Feature", "properties": { "@id": "way/778743473", "amenity": "fast_food", "building": "yes", "name": "Burger King", "GEOID": "39049002300" }, "geometry": { "type": "Polygon", "coordinates": [ [ [ -82.9888078, 39.9861764 ], [ -82.9886936, 39.9861679 ], [ -82.9887144, 39.9860046 ], [ -82.9887784, 39.9860094 ], [ -82.988782, 39.9859811 ], [ -82.9888518, 39.9859863 ], [ -82.9888312, 39.9861485 ], [ -82.9888115, 39.9861471 ], [ -82.9888078, 39.9861764 ] ] ] } },
{ "type": "Feature", "properties": { "@id": "way/837596832", "amenity": "fast_food", "building": "yes", "name": "Penn Station", "GEOID": "39049001901" }, "geometry": { "type": "Polygon", "coordinates": [ [ [ -83.0401342, 39.9884012 ], [ -83.0400267, 39.9883965 ], [ -83.0400384, 39.9882548 ], [ -83.0401451, 39.9882596 ], [ -83.0401342, 39.9884012 ] ] ] } },
{ "type": "Feature", "properties": { "@id": "way/997075588", "amenity": "fast_food", "building": "yes", "name": "Chick-fil-A", "GEOID": "39049001901" }, "geometry": { "type": "Polygon", "coordinates": [ [ [ -83.0264181, 39.983885 ], [ -83.0264078, 39.9840401 ], [ -83.0266883, 39.984051 ], [ -83.0266895, 39.984033 ], [ -83.0267246, 39.9840343 ], [ -83.026731, 39.9839393 ], [ -83.0266933, 39.9839378 ], [ -83.0266961, 39.9838958 ], [ -83.0264181, 39.983885 ] ] ] } },
{ "type": "Feature", "properties": { "@id": "way/1083836799", "amenity": "fast_food", "building": "yes", "name": "Raising Cane's", "GEOID": "39049001901" }, "geometry": { "type": "Polygon", "coordinates": [ [ [ -83.0231692, 39.9847534 ], [ -83.023022, 39.9847778 ], [ -83.0230687, 39.9849221 ], [ -83.0231004, 39.9849156 ], [ -83.0231377, 39.9850605 ], [ -83.0232464, 39.985041 ], [ -83.0231692, 39.9847534 ] ] ] } },
{ "type": "Feature", "properties": { "@id": "way/1083836801", "amenity": "fast_food", "building": "yes", "name": "Chipotle", "GEOID": "39049001901" }, "geometry": { "type": "Polygon", "coordinates": [ [ [ -83.0242109, 39.984334 ], [ -83.0240608, 39.9843582 ], [ -83.0241231, 39.9845853 ], [ -83.0242732, 39.9845611 ], [ -83.0242109, 39.984334 ] ] ] } }
]
}
