{
"type": "FeatureCollection",
"crs": { "type": "name", "properties": { "name": "urn:ogc:def:crs:EPSG::4269" } },
"features": [
{ "type": "Feature", "properties": { "@id": "way/854444099", "amenity": "food_court", "building": "yes", "name": "Budd Dairy Food Hall", "GEOID": "39049002200" }, "geometry": { "type": "Polygon", "coordinates": [ [ [ -82.9984811, 39.9852295 ], [ -82.998477, 39.9852105 ], [ -82.9985035, 39.9852074 ], [ -82.9984922, 39.9851487 ], [ -82.9990256, 39.9850887 ], [ -82.9990521, 39.9852241 ], [ -82.9990618, 39.9852741 ], [ -82.9984985, 39.9853364 ], [ -82.99851, 39.9853989 ], [ -82.9983541, 39.9853917 ], [ -82.9983452, 39.9855245 ], [ -82.9976641, 39.9854977 ], [ -82.9976895, 39.9851191 ], [ -82.9978718, 39.9851263 ], [ -82.99785, 39.9854503 ], [ -82.9979882, 39.9854557 ], [ -82.9980099, 39.9851323 ], [ -82.998323, 39.9851447 ], [ -82.9983177, 39.9852235 ], [ -82.9984811, 39.9852295 ] ] ] } }
]
}
