{
"type": "FeatureCollection",
"crs": { "type": "name", "properties": { "name": "urn:ogc:def:crs:EPSG::4269" } },
"features": [
{ "type": "Feature", "properties": { "@id": "way/161310364", "amenity": "restaurant", "building": "yes", "name": "The O On Lane", "shop": null, "GEOID": "39049001110" }, "geometry": { "type": "Polygon", "coordinates": [ [ [ -83.0189376, 40.0068704 ], [ -83.0189496, 40.0067485 ], [ -83.0186597, 40.0067353 ], [ -83.0186504, 40.006856 ], [ -83.0189376, 40.0068704 ] ] ] } },
{ "type": "Feature", "properties": { "@id": "way/360908402", "amenity": "restaurant", "building": "commercial", "name": "Pierogi Mountain", "shop": null, "GEOID": "39049003000" }, "geometry": { "type": "Polygon", "coordinates": [ [ [ -82.9920575, 39.9655886 ], [ -82.9920397, 39.9654957 ], [ -82.9917933, 39.9655235 ], [ -82.9918111, 39.9656163 ], [ -82.9920575, 39.9655886 ] ] ] } },
{ "type": "Feature", "properties": { "@id": "way/373552739", "amenity": "restaurant", "building": "commercial", "name": "Adriatico's New York Style Pizza", "shop": null, "GEOID": "39049001121" }, "geometry": { "type": "Polygon", "coordinates": [ [ [ -83.0143478, 39.9945765 ], [ -83.0140753, 39.9946084 ], [ -83.0140639, 39.9946097 ], [ -83.0140179, 39.9946151 ], [ -83.0139858, 39.9944545 ], [ -83.0139836, 39.9944436 ], [ -83.0143238, 39.9944563 ], [ -83.0143478, 39.9945765 ] ] ] } },
{ "type": "Feature", "properties": { "@id": "way/376256576", "amenity": "restaurant", "building": "commercial", "name": "Buffalo Wild Wings", "shop": null, "GEOID": "39049001110" }, "geometry": { "type": "Polygon", "coordinates": [ [ [ -83.009783, 40.0062007 ], [ -83.0097852, 40.0062384 ], [ -83.0097768, 40.0062387 ], [ -83.0097819, 40.0063274 ], [ -83.0097175, 40.0063244 ], [ -83.0095748, 40.0063176 ], [ -83.0094048, 40.0063096 ], [ -83.0094057, 40.0062775 ], [ -83.0094079, 40.0062611 ], [ -83.0094138, 40.0062419 ], [ -83.0094245, 40.0062233 ], [ -83.0094371, 40.0062079 ], [ -83.0094503, 40.0061952 ], [ -83.0094515, 40.0061765 ], [ -83.009517, 40.006179 ], [ -83.0095152, 40.0061472 ], [ -83.0097794, 40.0061382 ], [ -83.0097802, 40.0061522 ], [ -83.0098265, 40.0061506 ], [ -83.0098293, 40.0061991 ], [ -83.009783, 40.0062007 ] ] ] } },
{ "type": "Feature", "properties": { "@id": "way/480313573", "amenity": "restaurant", "building": "retail", "name": "Tommy's Pizza", "shop": null, "GEOID": "39049001110" }, "geometry": { "type": "Polygon", "coordinates": [ [ [ -83.0140542, 40.0064938 ], [ -83.0138502, 40.0064831 ], [ -83.0138596, 40.0063769 ], [ -83.0140636, 40.0063876 ], [ -83.0140542, 40.0064938 ] ] ] } },
{ "type": "Feature", "properties": { "@id": "way/493731124", "amenity": "restaurant", "building": "yes", "name": "Chocolate Café", "shop": null, "GEOID": "39049007830" }, "geometry": { "type": "Polygon", "coordinates": [ [ [ -83.0475361, 39.9956929 ], [ -83.0474129, 39.9956366 ], [ -83.047302, 39.9957789 ], [ -83.0474251, 39.9958352 ], [ -83.0475361, 39.9956929 ] ] ] } },
{ "type": "Feature", "properties": { "@id": "way/500805805", "amenity": "restaurant", "building": "commercial", "name": "The Eagle", "shop": null, "GEOID": "39049002200" }, "geometry": { "type": "Polygon", "coordinates": [ [ [ -83.0034666, 39.9786317 ], [ -83.0032946, 39.9786516 ], [ -83.003096, 39.9786746 ], [ -83.0030748, 39.9785667 ], [ -83.0032733, 39.9785437 ], [ -83.0034454, 39.9785238 ], [ -83.0034561, 39.978578 ], [ -83.0034666, 39.9786317 ] ] ] } },
{ "type": "Feature", "properties": { "@id": "way/527035040", "amenity": "restaurant", "building": "yes", "name": "Donatos Pizza", "shop": null, "GEOID": "39049001200" }, "geometry": { "type": "Polygon", "coordinates": [ [ [ -83.008537, 40.0047482 ], [ -83.0085286, 40.0048598 ], [ -83.0088739, 40.0048781 ], [ -83.008851, 40.0047641 ], [ -83.0088194, 40.0047617 ], [ -83.008537, 40.0047482 ] ] ] } },
{ "type": "Feature", "properties": { "@id": "way/527035043", "amenity": "restaurant", "building": "yes", "name": null, "shop": null, "GEOID": "39049001200" }, "geometry": { "type": "Polygon", "coordinates": [ [ [ -83.0084011, 40.0048514 ], [ -83.0084088, 40.0047642 ], [ -83.0082538, 40.0047562 ], [ -83.0082461, 40.0048434 ], [ -83.0084011, 40.0048514 ] ] ] } },
{ "type": "Feature", "properties": { "@id": "way/598516512", "amenity": "restaurant", "building": "commercial", "name": "Paul's Pantry", "shop": null, "GEOID": "39049001902" }, "geometry": { "type": "Polygon", "coordinates": [ [ [ -83.0484304, 39.9885697 ], [ -83.0484245, 39.9886436 ], [ -83.0484588, 39.9886452 ], [ -83.0484502, 39.9887532 ], [ -83.0484343, 39.9887525 ], [ -83.048425, 39.9888686 ], [ -83.0482905, 39.9888623 ], [ -83.0482949, 39.9888067 ], [ -83.0482788, 39.988806 ], [ -83.0482983, 39.9885635 ], [ -83.0484304, 39.9885697 ] ] ] } },
{ "type": "Feature", "properties": { "@id": "way/631023330", "amenity": "restaurant", "building": "yes", "name": "Bob Evans", "shop": null, "GEOID": "39049001901" }, "geometry": { "type": "Polygon", "coordinates": [ [ [ -83.0262634, 39.9898536 ], [ -83.0262722, 39.9896685 ], [ -83.0265674, 39.9896767 ], [ -83.0265586, 39.9898619 ], [ -83.0262634, 39.9898536 ] ] ] } },
{ "type": "Feature", "properties": { "@id": "way/636095632", "amenity": "restaurant", "building": "yes", "name": "The Boat House at Confluence Park", "shop": null, "GEOID": "39049003200" }, "geometry": { "type": "Polygon", "coordinates": [ [ [ -83.0182568, 39.9651123 ], [ -83.0179232, 39.9651216 ], [ -83.0179158, 39.9649663 ], [ -83.017957, 39.9649652 ], [ -83.0179473, 39.9647599 ], [ -83.0178957, 39.9647613 ], [ -83.0178919, 39.9646806 ], [ -83.0179392, 39.9646792 ], [ -83.0179353, 39.9645967 ], [ -83.0179777, 39.9645956 ], [ -83.0179694, 39.9644197 ], [ -83.0182973, 39.9644106 ], [ -83.0183011, 39.964491 ], [ -83.0183747, 39.964489 ], [ -83.0183783, 39.9645652 ], [ -83.0184757, 39.9645625 ], [ -83.0184826, 39.9647106 ], [ -83.0184032, 39.9647128 ], [ -83.0184054, 39.9647603 ], [ -83.01831, 39.964763 ], [ -83.0183139, 39.9648471 ], [ -83.018241, 39.9648491 ], [ -83.0182446, 39.9649238 ], [ -83.018274, 39.964923 ], [ -83.0182808, 39.9650668 ], [ -83.0182547, 39.9650675 ], [ -83.0182568, 39.9651123 ] ] ] } },
{ "type": "Feature", "properties": { "@id": "way/744801828", "amenity": "restaurant", "building": "yes", "name": "Mitchell's Fish Market", "shop": null, "GEOID": "39049001901" }, "geometry": { "type": "Polygon", "coordinates": [ [ [ -83.0239058, 39.9854784 ], [ -83.0239135, 39.9853203 ], [ -83.0237319, 39.9852163 ], [ -83.0236898, 39.9852119 ], [ -83.0235331, 39.9853203 ], [ -83.0236249, 39.9853935 ], [ -83.0236249, 39.9854696 ], [ -83.0239058, 39.9854784 ] ] ] } },
{ "type": "Feature", "properties": { "@id": "way/791048328", "amenity": "restaurant", "building": "yes", "name": "Noodles World Kitchen", "shop": null, "GEOID": "39049001902" }, "geometry": { "type": "Polygon", "coordinates": [ [ [ -83.0431857, 39.989181 ], [ -83.0432032, 39.9889548 ], [ -83.0433432, 39.9889618 ], [ -83.043324, 39.9891879 ], [ -83.0431857, 39.989181 ] ] ] } },
{ "type": "Feature", "properties": { "@id": "way/793019761", "amenity": "restaurant", "building": "yes", "name": "Natalie's  Grandview", "shop": null, "GEOID": "39049001901" }, "geometry": { "type": "Polygon", "coordinates": [ [ [ -83.0317943, 39.9910312 ], [ -83.0320441, 39.9910425 ], [ -83.0320497, 39.9909739 ], [ -83.0321566, 39.990979 ], [ -83.0321656, 39.9908696 ], [ -83.0319593, 39.9908598 ], [ -83.0319621, 39.9908255 ], [ -83.0318147, 39.9908185 ], [ -83.0317943, 39.9910312 ] ] ] } },
{ "type": "Feature", "properties": { "@id": "way/1224646990", "amenity": "restaurant", "building": "yes", "name": "Cazuelas Mexican Cantina", "shop": null, "GEOID": "39049001110" }, "geometry": { "type": "Polygon", "coordinates": [ [ [ -83.0102661, 40.0095632 ], [ -83.0103242, 40.0097739 ], [ -83.0104832, 40.0097482 ], [ -83.0104498, 40.0096272 ], [ -83.0105444, 40.0096118 ], [ -83.010515, 40.0095052 ], [ -83.0104113, 40.009522 ], [ -83.010416, 40.009539 ], [ -83.0102661, 40.0095632 ] ] ] } },
{ "type": "Feature", "properties": { "@id": "way/1226370584", "amenity": "restaurant", "building": "yes", "name": "Adelaide's Gin Joint", "shop": null, "GEOID": "39049001110" }, "geometry": { "type": "Polygon", "coordinates": [ [ [ -83.0106673, 40.0098894 ], [ -83.0103997, 40.0099303 ], [ -83.0103631, 40.0097882 ], [ -83.0104874, 40.009769 ], [ -83.0105912, 40.0097531 ], [ -83.0106019, 40.0097933 ], [ -83.0106489, 40.009786 ], [ -83.0106685, 40.0098611 ], [ -83.0106603, 40.0098624 ], [ -83.0106673, 40.0098894 ] ] ] } }
]
}
