{
"type": "FeatureCollection",
"crs": { "type": "name", "properties": { "name": "urn:ogc:def:crs:EPSG::4269" } },
"features": [
{ "type": "Feature", "properties": { "@id": "way/360907734", "building": "yes", "name": "The Hills Market Downtown", "shop": "supermarket", "GEOID": "39049003000" }, "geometry": { "type": "Polygon", "coordinates": [ [ [ -82.9919649, 39.9650984 ], [ -82.9917722, 39.9651206 ], [ -82.9918104, 39.965315 ], [ -82.9915829, 39.9653412 ], [ -82.9916204, 39.9655323 ], [ -82.9920406, 39.9654839 ], [ -82.9919649, 39.9650984 ] ] ] } },
{ "type": "Feature", "properties": { "@id": "way/373847293", "building": "retail", "name": "Market District - Grandview Yard", "shop": "supermarket", "GEOID": "39049001901" }, "geometry": { "type": "Polygon", "coordinates": [ [ [ -83.0273562, 39.9858743 ], [ -83.0273546, 39.9858301 ], [ -83.0277575, 39.9858216 ], [ -83.02776, 39.9858918 ], [ -83.0278811, 39.985897 ], [ -83.0278773, 39.9859492 ], [ -83.0279713, 39.9859533 ], [ -83.0280653, 39.9859573 ], [ -83.0280691, 39.9859051 ], [ -83.0283652, 39.9859179 ], [ -83.0283604, 39.9859831 ], [ -83.02845, 39.985987 ], [ -83.0284566, 39.9858964 ], [ -83.0285808, 39.9859018 ], [ -83.0285788, 39.9859285 ], [ -83.0286657, 39.9859323 ], [ -83.0286414, 39.9862633 ], [ -83.028409, 39.9862532 ], [ -83.0283986, 39.9863935 ], [ -83.0283289, 39.9864112 ], [ -83.0283254, 39.9864579 ], [ -83.0283172, 39.9865693 ], [ -83.0278394, 39.9865487 ], [ -83.0278332, 39.9866334 ], [ -83.0277, 39.9866277 ], [ -83.027703, 39.986587 ], [ -83.0275488, 39.9865804 ], [ -83.027552, 39.9865363 ], [ -83.027367, 39.9865283 ], [ -83.0273717, 39.9864644 ], [ -83.0272489, 39.9864591 ], [ -83.0272524, 39.9864115 ], [ -83.0271203, 39.9864058 ], [ -83.0271601, 39.9858658 ], [ -83.0273562, 39.9858743 ] ] ] } },
{ "type": "Feature", "properties": { "@id": "way/391444503", "building": "retail", "name": "Kroger", "shop": "supermarket", "GEOID": "39049001700" }, "geometry": { "type": "Polygon", "coordinates": [ [ [ -83.0055563, 39.9888805 ], [ -83.00569, 39.9888853 ], [ -83.0057482, 39.9889104 ], [ -83.0058683, 39.9895015 ], [ -83.0058174, 39.9895377 ], [ -83.0057592, 39.9895628 ], [ -83.0055833, 39.9895565 ], [ -83.005582, 39.9895777 ], [ -83.0054664, 39.9895735 ], [ -83.0053297, 39.9895686 ], [ -83.0053317, 39.9895364 ], [ -83.0047587, 39.9895158 ], [ -83.0047893, 39.9890181 ], [ -83.00542, 39.9890408 ], [ -83.0054259, 39.9889452 ], [ -83.005552, 39.9889497 ], [ -83.0055563, 39.9888805 ] ] ] } },
{ "type": "Feature", "properties": { "@id": "way/425878526", "building": "yes", "name": "Kroger", "shop": "supermarket", "GEOID": "39049001902" }, "geometry": { "type": "Polygon", "coordinates": [ [ [ -83.0439185, 39.9930486 ], [ -83.0436155, 39.9928922 ], [ -83.0436464, 39.9928427 ], [ -83.043551, 39.9927948 ], [ -83.0428384, 39.9927585 ], [ -83.0428614, 39.9924482 ], [ -83.0428845, 39.9922161 ], [ -83.0437011, 39.9922539 ], [ -83.0439382, 39.9923801 ], [ -83.0440008, 39.9922993 ], [ -83.0441457, 39.9923776 ], [ -83.0440823, 39.9924541 ], [ -83.0444624, 39.9926495 ], [ -83.0443789, 39.9927452 ], [ -83.0440964, 39.9930689 ], [ -83.0439665, 39.9930036 ], [ -83.0439185, 39.9930486 ] ] ] } },
{ "type": "Feature", "properties": { "@id": "way/1132361327", "building": "construction", "name": "Lucky's Market", "shop": "supermarket", "GEOID": "39049003200" }, "geometry": { "type": "Polygon", "coordinates": [ [ [ -83.0111738, 39.976708 ], [ -83.0111198, 39.9764101 ], [ -83.0115216, 39.9764153 ], [ -83.0115226, 39.976383 ], [ -83.0116219, 39.976385 ], [ -83.0116176, 39.9764562 ], [ -83.0118603, 39.976466 ], [ -83.011916, 39.9765164 ], [ -83.0119048, 39.9767066 ], [ -83.0114047, 39.9766913 ], [ -83.0114045, 39.9767137 ], [ -83.0111738, 39.976708 ] ] ] } }
]
}
