{
"type": "FeatureCollection",
"crs": { "type": "name", "properties": { "name": "urn:ogc:def:crs:EPSG::4269" } },
"features": [
{ "type": "Feature", "properties": { "GEOID": "39049001300" }, "geometry": { "type": "Polygon", "coordinates": [ [ [ -83.008227, 40.000932 ], [ -83.004182, 40.001177 ], [ -83.003701, 40.000967 ], [ -83.001096, 40.000836 ], [ -83.001052, 40.001435 ], [ -82.998631, 40.001321 ], [ -82.995721, 40.001181 ], [ -82.99519, 40.001156 ], [ -82.994767, 39.995201 ], [ -82.995399, 39.995213 ], [ -82.999044, 39.995364 ], [ -83.001459, 39.995476 ], [ -83.004019, 39.995598 ], [ -83.007218, 39.995745 ], [ -83.007831, 39.99886 ], [ -83.008227, 40.000932 ] ] ] } },
{ "type": "Feature", "properties": { "GEOID": "39049001400" }, "geometry": { "type": "Polygon", "coordinates": [ [ [ -82.994733, 39.993959 ], [ -82.994752, 39.994242 ], [ -82.994701, 39.99424 ], [ -82.994767, 39.995201 ], [ -82.99519, 40.001156 ], [ -82.984427, 40.000715 ], [ -82.979951, 40.000529 ], [ -82.96935, 40.000021 ], [ -82.969779, 39.999194 ], [ -82.974848, 39.999361 ], [ -82.975044, 39.997092 ], [ -82.977874, 39.997325 ], [ -82.982124, 39.993286 ], [ -82.984875, 39.990637 ], [ -82.989146, 39.986441 ], [ -82.994476, 39.986663 ], [ -82.995322, 39.993947 ], [ -82.994733, 39.993959 ] ] ] } },
{ "type": "Feature", "properties": { "GEOID": "39049002000" }, "geometry": { "type": "Polygon", "coordinates": [ [ [ -83.02113, 39.984076 ], [ -83.019046, 39.983986 ], [ -83.018925, 39.985837 ], [ -83.01401, 39.985619 ], [ -83.012733, 39.98556 ], [ -83.009616, 39.985424 ], [ -83.009767, 39.983563 ], [ -83.008556, 39.98305 ], [ -83.008709, 39.981938 ], [ -83.009034, 39.97738 ], [ -83.01439, 39.977584 ], [ -83.014386, 39.979537 ], [ -83.014326, 39.980514 ], [ -83.021127, 39.980945 ], [ -83.021448, 39.982775 ], [ -83.02113, 39.984076 ] ] ] } },
{ "type": "Feature", "properties": { "GEOID": "39049002510" }, "geometry": { "type": "Polygon", "coordinates": [ [ [ -82.973837, 39.987517 ], [ -82.972871, 39.989328 ], [ -82.969779, 39.999194 ], [ -82.96935, 40.000021 ], [ -82.965492, 39.99983 ], [ -82.954577, 39.999256 ], [ -82.95451, 40.000291 ], [ -82.949287, 40.000052 ], [ -82.939305, 39.999589 ], [ -82.939799, 39.998414 ], [ -82.940409, 39.996904 ], [ -82.942439, 39.991863 ], [ -82.94339, 39.989528 ], [ -82.940448, 39.989476 ], [ -82.937903, 39.990789 ], [ -82.937179, 39.988845 ], [ -82.9379, 39.985512 ], [ -82.93945, 39.982626 ], [ -82.940384, 39.981438 ], [ -82.943547, 39.980775 ], [ -82.952727, 39.980244 ], [ -82.952462, 39.981988 ], [ -82.954905, 39.985445 ], [ -82.955915, 39.985097 ], [ -82.974462, 39.985842 ], [ -82.973837, 39.987517 ] ] ] } },
{ "type": "Feature", "properties": { "GEOID": "39049002520" }, "geometry": { "type": "Polygon", "coordinates": [ [ [ -82.961395, 39.971181 ], [ -82.961385, 39.971316 ], [ -82.961263, 39.972872 ], [ -82.961083, 39.975037 ], [ -82.956948, 39.974841 ], [ -82.956685, 39.977821 ], [ -82.954321, 39.9777 ], [ -82.952727, 39.980244 ], [ -82.943547, 39.980775 ], [ -82.940384, 39.981438 ], [ -82.940475, 39.981274 ], [ -82.940934, 39.980633 ], [ -82.945225, 39.976604 ], [ -82.945429, 39.976109 ], [ -82.94537, 39.973273 ], [ -82.946607, 39.972706 ], [ -82.94745, 39.972037 ], [ -82.947861, 39.971424 ], [ -82.94905, 39.970102 ], [ -82.950013, 39.967996 ], [ -82.950542, 39.967936 ], [ -82.959698, 39.966925 ], [ -82.961779, 39.966694 ], [ -82.961395, 39.971181 ] ] ] } },
{ "type": "Feature", "properties": { "GEOID": "39049007830" }, "geometry": { "type": "Polygon", "coordinates": [ [ [ -83.048511, 39.996436 ], [ -83.048436, 39.997665 ], [ -83.04836, 39.998852 ], [ -83.045065, 39.998284 ], [ -83.039849, 39.998047 ], [ -83.039825, 39.998046 ], [ -83.038765, 39.998 ], [ -83.037238, 39.997928 ], [ -83.034797, 39.997828 ], [ -83.034471, 39.997804 ], [ -83.029711, 39.997575 ], [ -83.026647, 39.99743 ], [ -83.025848, 39.997667 ], [ -83.02459, 39.995774 ], [ -83.025087, 39.990853 ], [ -83.025952, 39.990875 ], [ -83.027831, 39.991544 ], [ -83.027963, 39.992032 ], [ -83.031429, 39.9922 ], [ -83.034381, 39.993047 ], [ -83.035142, 39.993279 ], [ -83.03593, 39.993482 ], [ -83.037939, 39.993576 ], [ -83.042363, 39.99374 ], [ -83.045435, 39.99388 ], [ -83.046432, 39.993928 ], [ -83.048649, 39.994035 ], [ -83.048511, 39.996436 ] ] ] } },
{ "type": "Feature", "properties": { "GEOID": "39049002100" }, "geometry": { "type": "Polygon", "coordinates": [ [ [ -83.009034, 39.97738 ], [ -83.008709, 39.981938 ], [ -83.008556, 39.98305 ], [ -83.007631, 39.985275 ], [ -83.005146, 39.985252 ], [ -83.00369, 39.977916 ], [ -83.002872, 39.973758 ], [ -83.00452, 39.973586 ], [ -83.009282, 39.973824 ], [ -83.009034, 39.97738 ] ] ] } },
{ "type": "Feature", "properties": { "GEOID": "39049001000" }, "geometry": { "type": "Polygon", "coordinates": [ [ [ -83.010891, 40.012767 ], [ -83.009463, 40.012998 ], [ -83.007901, 40.012705 ], [ -83.004734, 40.013208 ], [ -83.00236, 40.013121 ], [ -83.000244, 40.01303 ], [ -82.996042, 40.01285 ], [ -82.995858, 40.010895 ], [ -82.995545, 40.007084 ], [ -82.997705, 40.007138 ], [ -83.000658, 40.007293 ], [ -83.00077, 40.005694 ], [ -83.002883, 40.005786 ], [ -83.009235, 40.006062 ], [ -83.009482, 40.007307 ], [ -83.009915, 40.009102 ], [ -83.009921, 40.009124 ], [ -83.010364, 40.010762 ], [ -83.010891, 40.012767 ] ] ] } },
{ "type": "Feature", "properties": { "GEOID": "39049001810" }, "geometry": { "type": "Polygon", "coordinates": [ [ [ -83.018529, 39.992325 ], [ -83.01632, 39.992243 ], [ -83.016246, 39.993318 ], [ -83.014234, 39.993254 ], [ -83.014457, 39.99437 ], [ -83.012215, 39.994284 ], [ -83.008596, 39.994142 ], [ -83.008208, 39.995313 ], [ -83.007113, 39.995273 ], [ -83.006662, 39.992962 ], [ -83.006535, 39.992292 ], [ -83.006452, 39.991878 ], [ -83.006115, 39.990152 ], [ -83.009223, 39.990268 ], [ -83.012479, 39.990389 ], [ -83.01368, 39.990432 ], [ -83.017708, 39.990578 ], [ -83.018636, 39.990611 ], [ -83.018529, 39.992325 ] ] ] } },
{ "type": "Feature", "properties": { "GEOID": "39049001902" }, "geometry": { "type": "Polygon", "coordinates": [ [ [ -83.055804, 39.992016 ], [ -83.055561, 39.99264 ], [ -83.048861, 39.992387 ], [ -83.048649, 39.994035 ], [ -83.046432, 39.993928 ], [ -83.045435, 39.99388 ], [ -83.042363, 39.99374 ], [ -83.040844, 39.992547 ], [ -83.040622, 39.991442 ], [ -83.040861, 39.988609 ], [ -83.040622, 39.985873 ], [ -83.039001, 39.98443 ], [ -83.039651, 39.984343 ], [ -83.044788, 39.984637 ], [ -83.04764, 39.984743 ], [ -83.047708, 39.985141 ], [ -83.048841, 39.985295 ], [ -83.047812, 39.985332 ], [ -83.047568, 39.988489 ], [ -83.048752, 39.98854 ], [ -83.049168, 39.985309 ], [ -83.049098, 39.984815 ], [ -83.051497, 39.984927 ], [ -83.053397, 39.984967 ], [ -83.054926, 39.986053 ], [ -83.054674, 39.989238 ], [ -83.055947, 39.989289 ], [ -83.055804, 39.992016 ] ] ] } },
{ "type": "Feature", "properties": { "GEOID": "39049002800" }, "geometry": { "type": "Polygon", "coordinates": [ [ [ -82.970302, 39.974462 ], [ -82.969555, 39.976106 ], [ -82.969361, 39.978575 ], [ -82.968119, 39.978757 ], [ -82.960937, 39.979063 ], [ -82.960869, 39.978026 ], [ -82.956685, 39.977821 ], [ -82.956948, 39.974841 ], [ -82.961083, 39.975037 ], [ -82.961263, 39.972872 ], [ -82.961385, 39.971316 ], [ -82.961395, 39.971181 ], [ -82.961779, 39.966694 ], [ -82.966003, 39.966217 ], [ -82.970196, 39.965742 ], [ -82.969984, 39.96851 ], [ -82.969405, 39.972836 ], [ -82.969799, 39.972763 ], [ -82.970302, 39.974462 ] ] ] } },
{ "type": "Feature", "properties": { "GEOID": "39049003200" }, "geometry": { "type": "Polygon", "coordinates": [ [ [ -83.021778, 39.971992 ], [ -83.021144, 39.971892 ], [ -83.021665, 39.972372 ], [ -83.02016, 39.974222 ], [ -83.021127, 39.980945 ], [ -83.014326, 39.980514 ], [ -83.014386, 39.979537 ], [ -83.01439, 39.977584 ], [ -83.009034, 39.97738 ], [ -83.009282, 39.973824 ], [ -83.01042, 39.973865 ], [ -83.009565, 39.970469 ], [ -83.009694, 39.968071 ], [ -83.009772, 39.96691 ], [ -83.009889, 39.964456 ], [ -83.012453, 39.964196 ], [ -83.017299, 39.964778 ], [ -83.019744, 39.963137 ], [ -83.01992, 39.963498 ], [ -83.021071, 39.965908 ], [ -83.022314, 39.969167 ], [ -83.021778, 39.971992 ] ] ] } },
{ "type": "Feature", "properties": { "GEOID": "39049003600" }, "geometry": { "type": "Polygon", "coordinates": [ [ [ -82.980729, 39.970615 ], [ -82.973323, 39.972141 ], [ -82.969799, 39.972763 ], [ -82.969405, 39.972836 ], [ -82.969984, 39.96851 ], [ -82.970196, 39.965742 ], [ -82.97435, 39.965244 ], [ -82.975163, 39.965153 ], [ -82.980501, 39.964525 ], [ -82.981062, 39.967263 ], [ -82.980729, 39.970615 ] ] ] } },
{ "type": "Feature", "properties": { "GEOID": "39049008500" }, "geometry": { "type": "Polygon", "coordinates": [ [ [ -83.044994, 39.98184 ], [ -83.044788, 39.984637 ], [ -83.039651, 39.984343 ], [ -83.039001, 39.98443 ], [ -83.037135, 39.9843 ], [ -83.035056, 39.984231 ], [ -83.026157, 39.983852 ], [ -83.025345, 39.980825 ], [ -83.023492, 39.974169 ], [ -83.022614, 39.973091 ], [ -83.021665, 39.972372 ], [ -83.021144, 39.971892 ], [ -83.021778, 39.971992 ], [ -83.022314, 39.969167 ], [ -83.021071, 39.965908 ], [ -83.022008, 39.966062 ], [ -83.024597, 39.967215 ], [ -83.03185, 39.967466 ], [ -83.033632, 39.967982 ], [ -83.036056, 39.969447 ], [ -83.038886, 39.970607 ], [ -83.039219, 39.970736 ], [ -83.039554, 39.970617 ], [ -83.040382, 39.97067 ], [ -83.041764, 39.970462 ], [ -83.04579, 39.972374 ], [ -83.044994, 39.98184 ] ] ] } },
{ "type": "Feature", "properties": { "GEOID": "39049001110" }, "geometry": { "type": "Polygon", "coordinates": [ [ [ -83.01804, 40.00979 ], [ -83.017165, 40.012302 ], [ -83.01313, 40.013024 ], [ -83.011053, 40.01335 ], [ -83.010891, 40.012767 ], [ -83.010364, 40.010762 ], [ -83.009921, 40.009124 ], [ -83.009915, 40.009102 ], [ -83.009482, 40.007307 ], [ -83.009235, 40.006062 ], [ -83.009222, 40.005985 ], [ -83.014321, 40.006211 ], [ -83.016828, 40.00634 ], [ -83.021695, 40.006558 ], [ -83.01804, 40.00979 ] ] ] } },
{ "type": "Feature", "properties": { "GEOID": "39049001200" }, "geometry": { "type": "Polygon", "coordinates": [ [ [ -83.009235, 40.006062 ], [ -83.002883, 40.005786 ], [ -83.00077, 40.005694 ], [ -83.000658, 40.007293 ], [ -82.997705, 40.007138 ], [ -82.995545, 40.007084 ], [ -82.99524, 40.003202 ], [ -82.99519, 40.001156 ], [ -82.995721, 40.001181 ], [ -82.998631, 40.001321 ], [ -83.001052, 40.001435 ], [ -83.001096, 40.000836 ], [ -83.003701, 40.000967 ], [ -83.004182, 40.001177 ], [ -83.008227, 40.000932 ], [ -83.008353, 40.001573 ], [ -83.008404, 40.001848 ], [ -83.008668, 40.003145 ], [ -83.008863, 40.004083 ], [ -83.009222, 40.005985 ], [ -83.009235, 40.006062 ] ] ] } },
{ "type": "Feature", "properties": { "GEOID": "39049001500" }, "geometry": { "type": "Polygon", "coordinates": [ [ [ -82.989146, 39.986441 ], [ -82.984875, 39.990637 ], [ -82.982124, 39.993286 ], [ -82.977874, 39.997325 ], [ -82.975044, 39.997092 ], [ -82.974848, 39.999361 ], [ -82.969779, 39.999194 ], [ -82.972871, 39.989328 ], [ -82.973837, 39.987517 ], [ -82.974462, 39.985842 ], [ -82.98515, 39.98629 ], [ -82.989146, 39.986441 ] ] ] } },
{ "type": "Feature", "properties": { "GEOID": "39049001700" }, "geometry": { "type": "Polygon", "coordinates": [ [ [ -83.007218, 39.995745 ], [ -83.004019, 39.995598 ], [ -83.001459, 39.995476 ], [ -83.00169, 39.992107 ], [ -83.001827, 39.990009 ], [ -82.999401, 39.989907 ], [ -82.999585, 39.986875 ], [ -82.999347, 39.985643 ], [ -83.005272, 39.985885 ], [ -83.005849, 39.988801 ], [ -83.006115, 39.990152 ], [ -83.006452, 39.991878 ], [ -83.006535, 39.992292 ], [ -83.006662, 39.992962 ], [ -83.007113, 39.995273 ], [ -83.007218, 39.995745 ] ] ] } },
{ "type": "Feature", "properties": { "GEOID": "39049001820" }, "geometry": { "type": "Polygon", "coordinates": [ [ [ -83.024401, 39.989624 ], [ -83.024107, 39.990816 ], [ -83.018636, 39.990611 ], [ -83.017708, 39.990578 ], [ -83.01368, 39.990432 ], [ -83.012479, 39.990389 ], [ -83.009223, 39.990268 ], [ -83.006115, 39.990152 ], [ -83.005849, 39.988801 ], [ -83.005272, 39.985885 ], [ -83.005146, 39.985252 ], [ -83.007631, 39.985275 ], [ -83.008556, 39.98305 ], [ -83.009767, 39.983563 ], [ -83.009616, 39.985424 ], [ -83.012733, 39.98556 ], [ -83.01401, 39.985619 ], [ -83.018925, 39.985837 ], [ -83.019046, 39.983986 ], [ -83.02113, 39.984076 ], [ -83.021476, 39.98608 ], [ -83.024314, 39.987793 ], [ -83.024401, 39.989624 ] ] ] } },
{ "type": "Feature", "properties": { "GEOID": "39049002200" }, "geometry": { "type": "Polygon", "coordinates": [ [ [ -83.005272, 39.985885 ], [ -82.999347, 39.985643 ], [ -82.999585, 39.986875 ], [ -82.994476, 39.986663 ], [ -82.994257, 39.981682 ], [ -82.993808, 39.980441 ], [ -82.998367, 39.980631 ], [ -82.997937, 39.978209 ], [ -83.00369, 39.977916 ], [ -83.005146, 39.985252 ], [ -83.005272, 39.985885 ] ] ] } },
{ "type": "Feature", "properties": { "GEOID": "39049002300" }, "geometry": { "type": "Polygon", "coordinates": [ [ [ -82.994476, 39.986663 ], [ -82.989146, 39.986441 ], [ -82.98515, 39.98629 ], [ -82.974462, 39.985842 ], [ -82.955915, 39.985097 ], [ -82.954905, 39.985445 ], [ -82.952462, 39.981988 ], [ -82.952727, 39.980244 ], [ -82.954321, 39.9777 ], [ -82.956685, 39.977821 ], [ -82.960869, 39.978026 ], [ -82.960937, 39.979063 ], [ -82.968119, 39.978757 ], [ -82.967873, 39.980292 ], [ -82.9742, 39.979473 ], [ -82.980253, 39.979685 ], [ -82.983781, 39.97985 ], [ -82.989157, 39.979942 ], [ -82.99166, 39.979022 ], [ -82.993258, 39.977092 ], [ -82.993808, 39.980441 ], [ -82.994257, 39.981682 ], [ -82.994476, 39.986663 ] ] ] } },
{ "type": "Feature", "properties": { "GEOID": "39049003000" }, "geometry": { "type": "Polygon", "coordinates": [ [ [ -83.01042, 39.973865 ], [ -83.009282, 39.973824 ], [ -83.00452, 39.973586 ], [ -83.002872, 39.973758 ], [ -83.00369, 39.977916 ], [ -82.997937, 39.978209 ], [ -82.998367, 39.980631 ], [ -82.993808, 39.980441 ], [ -82.993258, 39.977092 ], [ -82.99166, 39.979022 ], [ -82.989157, 39.979942 ], [ -82.983781, 39.97985 ], [ -82.980253, 39.979685 ], [ -82.980567, 39.975323 ], [ -82.980783, 39.972614 ], [ -82.980729, 39.970615 ], [ -82.981062, 39.967263 ], [ -82.980501, 39.964525 ], [ -82.981627, 39.964395 ], [ -82.982835, 39.964257 ], [ -82.992697, 39.96313 ], [ -82.994381, 39.962934 ], [ -83.004992, 39.961705 ], [ -83.005667, 39.962339 ], [ -83.00865, 39.964408 ], [ -83.00869, 39.96443 ], [ -83.00871, 39.964415 ], [ -83.009889, 39.964456 ], [ -83.009772, 39.96691 ], [ -83.009694, 39.968071 ], [ -83.009565, 39.970469 ], [ -83.01042, 39.973865 ] ] ] } },
{ "type": "Feature", "properties": { "GEOID": "39049002900" }, "geometry": { "type": "Polygon", "coordinates": [ [ [ -82.980783, 39.972614 ], [ -82.980567, 39.975323 ], [ -82.980253, 39.979685 ], [ -82.9742, 39.979473 ], [ -82.967873, 39.980292 ], [ -82.968119, 39.978757 ], [ -82.969361, 39.978575 ], [ -82.969555, 39.976106 ], [ -82.970302, 39.974462 ], [ -82.969799, 39.972763 ], [ -82.973323, 39.972141 ], [ -82.980729, 39.970615 ], [ -82.980783, 39.972614 ] ] ] } },
{ "type": "Feature", "properties": { "GEOID": "39049001600" }, "geometry": { "type": "Polygon", "coordinates": [ [ [ -83.00169, 39.992107 ], [ -83.001459, 39.995476 ], [ -82.999044, 39.995364 ], [ -82.995399, 39.995213 ], [ -82.994767, 39.995201 ], [ -82.994701, 39.99424 ], [ -82.994752, 39.994242 ], [ -82.994733, 39.993959 ], [ -82.995322, 39.993947 ], [ -82.994476, 39.986663 ], [ -82.999585, 39.986875 ], [ -82.999401, 39.989907 ], [ -83.001827, 39.990009 ], [ -83.00169, 39.992107 ] ] ] } },
{ "type": "Feature", "properties": { "GEOID": "39049001121" }, "geometry": { "type": "Polygon", "coordinates": [ [ [ -83.017828, 40.003217 ], [ -83.016828, 40.00634 ], [ -83.014321, 40.006211 ], [ -83.009222, 40.005985 ], [ -83.008863, 40.004083 ], [ -83.008668, 40.003145 ], [ -83.008404, 40.001848 ], [ -83.008353, 40.001573 ], [ -83.008227, 40.000932 ], [ -83.007831, 39.99886 ], [ -83.007218, 39.995745 ], [ -83.007113, 39.995273 ], [ -83.008208, 39.995313 ], [ -83.008596, 39.994142 ], [ -83.012215, 39.994284 ], [ -83.014457, 39.99437 ], [ -83.014951, 39.996817 ], [ -83.015502, 39.999165 ], [ -83.015395, 40.00077 ], [ -83.017566, 40.000519 ], [ -83.017828, 40.003217 ] ] ] } },
{ "type": "Feature", "properties": { "GEOID": "39049001901" }, "geometry": { "type": "Polygon", "coordinates": [ [ [ -83.042363, 39.99374 ], [ -83.037939, 39.993576 ], [ -83.03593, 39.993482 ], [ -83.035142, 39.993279 ], [ -83.034381, 39.993047 ], [ -83.031429, 39.9922 ], [ -83.027963, 39.992032 ], [ -83.027831, 39.991544 ], [ -83.025952, 39.990875 ], [ -83.025087, 39.990853 ], [ -83.024107, 39.990816 ], [ -83.024401, 39.989624 ], [ -83.024314, 39.987793 ], [ -83.021476, 39.98608 ], [ -83.02113, 39.984076 ], [ -83.021448, 39.982775 ], [ -83.021127, 39.980945 ], [ -83.02016, 39.974222 ], [ -83.021665, 39.972372 ], [ -83.022614, 39.973091 ], [ -83.023492, 39.974169 ], [ -83.025345, 39.980825 ], [ -83.026157, 39.983852 ], [ -83.035056, 39.984231 ], [ -83.037135, 39.9843 ], [ -83.039001, 39.98443 ], [ -83.040622, 39.985873 ], [ -83.040861, 39.988609 ], [ -83.040622, 39.991442 ], [ -83.040844, 39.992547 ], [ -83.042363, 39.99374 ] ] ] } }
]
}
