{
"type": "FeatureCollection",
"crs": { "type": "name", "properties": { "name": "urn:ogc:def:crs:EPSG::4269" } },
"features": [
{ "type": "Feature", "properties": { "@id": "way/369601358", "amenity": null, "building": "college", "name": "Telecommunications Network Center", "GEOID": "39049001810" }, "geometry": { "type": "Polygon", "coordinates": [ [ [ -83.0154921, 39.9926304 ], [ -83.0154415, 39.9926286 ], [ -83.0151838, 39.9926194 ], [ -83.0150965, 39.9926163 ], [ -83.0150635, 39.9926151 ], [ -83.0149482, 39.9926111 ], [ -83.0149495, 39.9925903 ], [ -83.0149512, 39.9925617 ], [ -83.0149646, 39.9923414 ], [ -83.0149892, 39.9923423 ], [ -83.0154412, 39.9923583 ], [ -83.0155084, 39.9923607 ], [ -83.0154987, 39.9925204 ], [ -83.0154923, 39.9926266 ], [ -83.0154921, 39.9926304 ] ] ] } },
{ "type": "Feature", "properties": { "@id": "way/391604721", "amenity": null, "building": "college", "name": "Center For Technology & Learning", "GEOID": "39049003000" }, "geometry": { "type": "Polygon", "coordinates": [ [ [ -82.9902409, 39.9695382 ], [ -82.9901482, 39.9695466 ], [ -82.9900068, 39.9695517 ], [ -82.9898985, 39.9695433 ], [ -82.989777, 39.9695196 ], [ -82.9896622, 39.9694857 ], [ -82.9895804, 39.9694468 ], [ -82.9895053, 39.9695229 ], [ -82.9895252, 39.9695331 ], [ -82.9895098, 39.9695466 ], [ -82.9894523, 39.9695551 ], [ -82.9894435, 39.9695382 ], [ -82.9893883, 39.9695585 ], [ -82.9894126, 39.9696211 ], [ -82.9893838, 39.9696296 ], [ -82.9894192, 39.9696821 ], [ -82.9893993, 39.9696872 ], [ -82.989481, 39.969804 ], [ -82.9895694, 39.9697904 ], [ -82.9895738, 39.9697684 ], [ -82.9901813, 39.9697955 ], [ -82.9901857, 39.9697295 ], [ -82.9902299, 39.9697312 ], [ -82.9902343, 39.9696364 ], [ -82.9902719, 39.9696262 ], [ -82.9902409, 39.9695382 ] ] ] } },
{ "type": "Feature", "properties": { "@id": "way/391604989", "amenity": null, "building": "college", "name": "Union Hall", "GEOID": "39049003000" }, "geometry": { "type": "Polygon", "coordinates": [ [ [ -82.9893651, 39.9698034 ], [ -82.9893814, 39.9698906 ], [ -82.9891897, 39.9699116 ], [ -82.9891842, 39.9698821 ], [ -82.9891506, 39.9698858 ], [ -82.9891619, 39.9699468 ], [ -82.9889635, 39.9699683 ], [ -82.9887317, 39.9699935 ], [ -82.9887052, 39.9698501 ], [ -82.9886703, 39.9696659 ], [ -82.9890921, 39.969619 ], [ -82.9891119, 39.9697241 ], [ -82.9891683, 39.9697178 ], [ -82.9891725, 39.9697401 ], [ -82.9892523, 39.9697313 ], [ -82.989257, 39.9697564 ], [ -82.9892935, 39.9697524 ], [ -82.9893043, 39.9698101 ], [ -82.9893651, 39.9698034 ] ] ] } },
{ "type": "Feature", "properties": { "@id": "way/391604990", "amenity": "library", "building": "college", "name": "Columbus Hall", "GEOID": "39049003000" }, "geometry": { "type": "Polygon", "coordinates": [ [ [ -82.9878639, 39.9698729 ], [ -82.9873497, 39.9699303 ], [ -82.9874084, 39.9702396 ], [ -82.9879227, 39.9701822 ], [ -82.9878639, 39.9698729 ] ] ] } },
{ "type": "Feature", "properties": { "@id": "way/391605559", "amenity": null, "building": "college", "name": "Madison Hall", "GEOID": "39049003000" }, "geometry": { "type": "Polygon", "coordinates": [ [ [ -82.9878129, 39.9687312 ], [ -82.9874754, 39.9687713 ], [ -82.9875175, 39.9689794 ], [ -82.9875257, 39.9690197 ], [ -82.9878632, 39.9689795 ], [ -82.9878129, 39.9687312 ] ] ] } },
{ "type": "Feature", "properties": { "@id": "way/391605560", "amenity": null, "building": "college", "name": "Davidson Hall", "GEOID": "39049003000" }, "geometry": { "type": "Polygon", "coordinates": [ [ [ -82.9878686, 39.9686592 ], [ -82.9878377, 39.9685745 ], [ -82.987767, 39.9684746 ], [ -82.9876455, 39.9683815 ], [ -82.9874577, 39.9683206 ], [ -82.987376, 39.9683155 ], [ -82.9873826, 39.9683477 ], [ -82.9872898, 39.968351 ], [ -82.9872921, 39.9683866 ], [ -82.9872633, 39.9683934 ], [ -82.9872678, 39.9685491 ], [ -82.9872346, 39.9685576 ], [ -82.9872545, 39.9686693 ], [ -82.9871816, 39.9686778 ], [ -82.9871838, 39.9687184 ], [ -82.9872346, 39.9687472 ], [ -82.9873583, 39.9687337 ], [ -82.9873627, 39.9687523 ], [ -82.9874644, 39.9687353 ], [ -82.9874666, 39.968754 ], [ -82.9871343, 39.9687964 ], [ -82.987145, 39.9688506 ], [ -82.987376, 39.9688183 ], [ -82.9874136, 39.9689927 ], [ -82.9875175, 39.9689794 ], [ -82.9874754, 39.9687713 ], [ -82.9878129, 39.9687312 ], [ -82.9878377, 39.9687269 ], [ -82.9878266, 39.9686625 ], [ -82.9878686, 39.9686592 ] ] ] } },
{ "type": "Feature", "properties": { "@id": "way/391605561", "amenity": null, "building": "college", "name": "Rhodes Hall", "GEOID": "39049003000" }, "geometry": { "type": "Polygon", "coordinates": [ [ [ -82.987145, 39.9688506 ], [ -82.9867008, 39.9689021 ], [ -82.9867059, 39.9689279 ], [ -82.9866426, 39.9689352 ], [ -82.9866384, 39.9689136 ], [ -82.9863846, 39.9689433 ], [ -82.9863519, 39.9687791 ], [ -82.9871131, 39.96869 ], [ -82.9871343, 39.9687964 ], [ -82.987145, 39.9688506 ] ] ] } },
{ "type": "Feature", "properties": { "@id": "way/391605592", "amenity": null, "building": "college", "name": "Eibling Hall", "GEOID": "39049003000" }, "geometry": { "type": "Polygon", "coordinates": [ [ [ -82.9876676, 39.9691897 ], [ -82.9877291, 39.9694975 ], [ -82.9873299, 39.9695443 ], [ -82.9872975, 39.9693819 ], [ -82.9872684, 39.9692365 ], [ -82.9876676, 39.9691897 ] ] ] } },
{ "type": "Feature", "properties": { "@id": "way/391605593", "amenity": null, "building": "college", "name": "Nestor Hall", "GEOID": "39049003000" }, "geometry": { "type": "Polygon", "coordinates": [ [ [ -82.9877449, 39.9691146 ], [ -82.9878134, 39.9694887 ], [ -82.9880255, 39.969465 ], [ -82.988021, 39.9694227 ], [ -82.9883679, 39.9693838 ], [ -82.9885159, 39.9693804 ], [ -82.9886793, 39.9693939 ], [ -82.9887876, 39.9694075 ], [ -82.9888782, 39.9694278 ], [ -82.9890858, 39.9694904 ], [ -82.9892183, 39.9695531 ], [ -82.9893619, 39.9693922 ], [ -82.9892382, 39.9693364 ], [ -82.9889974, 39.9692602 ], [ -82.9887301, 39.9692128 ], [ -82.9885335, 39.9691992 ], [ -82.9882685, 39.9692094 ], [ -82.9880498, 39.9692331 ], [ -82.9879835, 39.9690943 ], [ -82.9877449, 39.9691146 ] ] ] } },
{ "type": "Feature", "properties": { "@id": "way/391605791", "amenity": null, "building": "college", "name": "Delaware Hall", "GEOID": "39049003000" }, "geometry": { "type": "Polygon", "coordinates": [ [ [ -82.9889069, 39.9702765 ], [ -82.9889616, 39.9705522 ], [ -82.9874023, 39.9707338 ], [ -82.9873476, 39.970458 ], [ -82.9878728, 39.9703969 ], [ -82.9878625, 39.9703104 ], [ -82.9879025, 39.9703021 ], [ -82.9879534, 39.9702798 ], [ -82.9880116, 39.9702658 ], [ -82.9880662, 39.9702658 ], [ -82.9881135, 39.9702825 ], [ -82.9881354, 39.9702993 ], [ -82.9881732, 39.9703619 ], [ -82.9885015, 39.9703237 ], [ -82.9885332, 39.97032 ], [ -82.9886801, 39.9703029 ], [ -82.9889069, 39.9702765 ] ] ] } },
{ "type": "Feature", "properties": { "@id": "way/391606314", "amenity": null, "building": "college", "name": "Franklin Hall", "GEOID": "39049003000" }, "geometry": { "type": "Polygon", "coordinates": [ [ [ -82.9869301, 39.9700435 ], [ -82.9870697, 39.9700277 ], [ -82.9870542, 39.9699476 ], [ -82.9868919, 39.9698623 ], [ -82.9868745, 39.9697606 ], [ -82.9869054, 39.9697269 ], [ -82.9868841, 39.9697154 ], [ -82.9868611, 39.969703 ], [ -82.9868479, 39.9696349 ], [ -82.9865558, 39.9696681 ], [ -82.9866124, 39.9699609 ], [ -82.9866519, 39.9701655 ], [ -82.9869471, 39.970132 ], [ -82.9869301, 39.9700435 ] ] ] } },
{ "type": "Feature", "properties": { "@id": "way/391606315", "amenity": null, "building": "college", "name": null, "GEOID": "39049003000" }, "geometry": { "type": "Polygon", "coordinates": [ [ [ -82.9889635, 39.9699683 ], [ -82.9887317, 39.9699935 ], [ -82.9887052, 39.9698501 ], [ -82.9884137, 39.9698835 ], [ -82.9884201, 39.9699162 ], [ -82.9884665, 39.9699108 ], [ -82.9884716, 39.969937 ], [ -82.9884199, 39.9699429 ], [ -82.9884366, 39.9700286 ], [ -82.9884755, 39.9700241 ], [ -82.9885208, 39.9702565 ], [ -82.9885332, 39.97032 ], [ -82.9886801, 39.9703029 ], [ -82.9886392, 39.9700927 ], [ -82.9889828, 39.9700534 ], [ -82.9889635, 39.9699683 ] ] ] } },
{ "type": "Feature", "properties": { "@id": "way/391606697", "amenity": null, "building": "college", "name": "Aquinas Hall", "GEOID": "39049003000" }, "geometry": { "type": "Polygon", "coordinates": [ [ [ -82.9867833, 39.9690007 ], [ -82.9868449, 39.9692195 ], [ -82.9867433, 39.9692363 ], [ -82.9867395, 39.9692226 ], [ -82.9867124, 39.9692271 ], [ -82.9867087, 39.9692139 ], [ -82.9863627, 39.9692709 ], [ -82.9863552, 39.969244 ], [ -82.9863197, 39.9692499 ], [ -82.9863004, 39.9691808 ], [ -82.986332, 39.9691756 ], [ -82.9863115, 39.9691023 ], [ -82.9866514, 39.9690464 ], [ -82.9866514, 39.9690339 ], [ -82.9866866, 39.969028 ], [ -82.9866835, 39.9690172 ], [ -82.9867833, 39.9690007 ] ] ] } },
{ "type": "Feature", "properties": { "@id": "way/445842430", "amenity": null, "building": "college", "name": "EMS Department", "GEOID": "39049003000" }, "geometry": { "type": "Polygon", "coordinates": [ [ [ -82.9924868, 39.9712054 ], [ -82.9925036, 39.9709532 ], [ -82.9921355, 39.9709388 ], [ -82.9920727, 39.9709364 ], [ -82.9920559, 39.9711886 ], [ -82.9924868, 39.9712054 ] ] ] } },
{ "type": "Feature", "properties": { "@id": "way/568512523", "amenity": null, "building": "college", "name": "Sixth Street Building (SX)", "GEOID": "39049003000" }, "geometry": { "type": "Polygon", "coordinates": [ [ [ -82.9930436, 39.9710605 ], [ -82.9928255, 39.9710508 ], [ -82.9928188, 39.9711397 ], [ -82.9926817, 39.9711336 ], [ -82.9926882, 39.9710485 ], [ -82.9926354, 39.9710462 ], [ -82.9926571, 39.9707584 ], [ -82.9930651, 39.9707765 ], [ -82.9930436, 39.9710605 ] ] ] } },
{ "type": "Feature", "properties": { "@id": "way/568512735", "amenity": null, "building": "college", "name": "Grant Avenue Building", "GEOID": "39049003000" }, "geometry": { "type": "Polygon", "coordinates": [ [ [ -82.9925019, 39.9714893 ], [ -82.9925103, 39.9713724 ], [ -82.9920411, 39.9713526 ], [ -82.9920327, 39.9714695 ], [ -82.9925019, 39.9714893 ] ] ] } },
{ "type": "Feature", "properties": { "@id": "way/568513066", "amenity": null, "building": "college", "name": "Veterinary Technologies Building", "GEOID": "39049003000" }, "geometry": { "type": "Polygon", "coordinates": [ [ [ -82.9930047, 39.9718246 ], [ -82.9930155, 39.9716458 ], [ -82.9927831, 39.9716375 ], [ -82.9928, 39.9713566 ], [ -82.9928269, 39.9713575 ], [ -82.992837, 39.9711899 ], [ -82.9926277, 39.9711825 ], [ -82.9926224, 39.9712702 ], [ -82.9925738, 39.9712685 ], [ -82.9925395, 39.9718383 ], [ -82.9927473, 39.9718456 ], [ -82.9927492, 39.9718156 ], [ -82.9930047, 39.9718246 ] ] ] } },
{ "type": "Feature", "properties": { "@id": "way/568513421", "amenity": null, "building": "college", "name": "Tele-Communications Trailer", "GEOID": "39049003000" }, "geometry": { "type": "Polygon", "coordinates": [ [ [ -82.9860985, 39.9689304 ], [ -82.9860782, 39.9688292 ], [ -82.9858365, 39.9688577 ], [ -82.9858568, 39.9689588 ], [ -82.9860985, 39.9689304 ] ] ] } }
]
}
