{
"type": "FeatureCollection",
"crs": { "type": "name", "properties": { "name": "urn:ogc:def:crs:EPSG::4269" } },
"features": [
{ "type": "Feature", "properties": { "@id": "way/154204619", "amenity": "community_centre", "building": "yes", "name": "Ohio Union", "GEOID": "39049001121" }, "geometry": { "type": "Polygon", "coordinates": [ [ [ -83.0080442, 39.9976262 ], [ -83.0079829, 39.9973361 ], [ -83.0079961, 39.9973335 ], [ -83.0079946, 39.9973256 ], [ -83.0079691, 39.9973273 ], [ -83.0079244, 39.9973007 ], [ -83.0079146, 39.9972472 ], [ -83.0079594, 39.9972048 ], [ -83.008016, 39.9972018 ], [ -83.008068, 39.9972311 ], [ -83.0080688, 39.9972419 ], [ -83.0080959, 39.9972401 ], [ -83.0080955, 39.9972283 ], [ -83.008161, 39.9972217 ], [ -83.0082144, 39.9974834 ], [ -83.0082269, 39.9974819 ], [ -83.0082397, 39.9974803 ], [ -83.0082356, 39.9974556 ], [ -83.0082919, 39.9974486 ], [ -83.008438, 39.9974305 ], [ -83.0084957, 39.9974233 ], [ -83.0085009, 39.9974482 ], [ -83.0085137, 39.9974466 ], [ -83.0085258, 39.9974453 ], [ -83.0085259, 39.9974451 ], [ -83.008478, 39.997172 ], [ -83.0085014, 39.9971699 ], [ -83.0085004, 39.9971654 ], [ -83.0085272, 39.9971547 ], [ -83.0085585, 39.9971475 ], [ -83.0085923, 39.9971425 ], [ -83.0086206, 39.9971407 ], [ -83.0086516, 39.9971402 ], [ -83.0086746, 39.9971455 ], [ -83.0086887, 39.9971528 ], [ -83.0086908, 39.9971625 ], [ -83.0087062, 39.9971604 ], [ -83.008723, 39.9971582 ], [ -83.0087911, 39.997149 ], [ -83.0090008, 39.99715 ], [ -83.0090257, 39.9971501 ], [ -83.0091776, 39.9971509 ], [ -83.0091845, 39.9971908 ], [ -83.0092101, 39.9971911 ], [ -83.0092112, 39.9972038 ], [ -83.0092208, 39.997212 ], [ -83.00923, 39.9972198 ], [ -83.0092476, 39.9973214 ], [ -83.0092388, 39.9973434 ], [ -83.0092443, 39.9973603 ], [ -83.0092144, 39.997362 ], [ -83.00923, 39.9974051 ], [ -83.0090491, 39.9974469 ], [ -83.0090327, 39.9974651 ], [ -83.009015, 39.9974767 ], [ -83.0089821, 39.9974848 ], [ -83.0089629, 39.997483 ], [ -83.0089454, 39.9974762 ], [ -83.0089163, 39.9974902 ], [ -83.008918, 39.9975023 ], [ -83.0089199, 39.9975166 ], [ -83.0089497, 39.9974995 ], [ -83.0089577, 39.9975067 ], [ -83.0089504, 39.9975176 ], [ -83.0089417, 39.9975306 ], [ -83.0089428, 39.9975467 ], [ -83.0089561, 39.9975467 ], [ -83.008976, 39.9975712 ], [ -83.0089627, 39.9975958 ], [ -83.0089506, 39.9975966 ], [ -83.0089528, 39.9976152 ], [ -83.0089793, 39.9976381 ], [ -83.0089627, 39.9976423 ], [ -83.0089561, 39.9976296 ], [ -83.0089395, 39.9976305 ], [ -83.0089439, 39.9976506 ], [ -83.0089461, 39.9976609 ], [ -83.0089656, 39.9976601 ], [ -83.0089925, 39.9976723 ], [ -83.0090316, 39.9976896 ], [ -83.0090477, 39.9977436 ], [ -83.0091449, 39.9977495 ], [ -83.0091696, 39.9977468 ], [ -83.0091884, 39.9977446 ], [ -83.0092962, 39.9977326 ], [ -83.0093029, 39.99778 ], [ -83.0093172, 39.99778 ], [ -83.0093415, 39.9979374 ], [ -83.0093817, 39.9980168 ], [ -83.0093868, 39.9980266 ], [ -83.0093757, 39.9980321 ], [ -83.0093691, 39.9980482 ], [ -83.0093285, 39.9980617 ], [ -83.0093283, 39.9980617 ], [ -83.009304, 39.9980516 ], [ -83.0092918, 39.998055 ], [ -83.009283, 39.9980585 ], [ -83.0083027, 39.9981736 ], [ -83.008183, 39.9981812 ], [ -83.0081706, 39.9981124 ], [ -83.0081591, 39.9980474 ], [ -83.0081571, 39.9980361 ], [ -83.0081435, 39.9980352 ], [ -83.0081196, 39.9980087 ], [ -83.0080952, 39.9980094 ], [ -83.0080726, 39.9979793 ], [ -83.0080521, 39.9978774 ], [ -83.0080627, 39.9978374 ], [ -83.0080788, 39.9978352 ], [ -83.0080895, 39.9977992 ], [ -83.0081013, 39.9977972 ], [ -83.0081033, 39.99779 ], [ -83.0081164, 39.9977897 ], [ -83.0081167, 39.9977814 ], [ -83.0080982, 39.9977756 ], [ -83.0080937, 39.9977408 ], [ -83.0081093, 39.997723 ], [ -83.0081283, 39.9977214 ], [ -83.0081259, 39.9977068 ], [ -83.0081195, 39.9976682 ], [ -83.008113, 39.9976292 ], [ -83.0081104, 39.9976133 ], [ -83.0081101, 39.9976133 ], [ -83.0080896, 39.9976158 ], [ -83.0080909, 39.9976213 ], [ -83.0080904, 39.9976213 ], [ -83.0080442, 39.9976262 ] ] ] } },
{ "type": "Feature", "properties": { "@id": "way/163036627", "amenity": "community_centre", "building": "yes", "name": "Tuttle Park Community Center", "GEOID": "39049001110" }, "geometry": { "type": "Polygon", "coordinates": [ [ [ -83.0166914, 40.0096786 ], [ -83.0166974, 40.0098233 ], [ -83.0167025, 40.0099459 ], [ -83.0166476, 40.0099067 ], [ -83.016606, 40.0098771 ], [ -83.0165266, 40.0098798 ], [ -83.0164571, 40.0098822 ], [ -83.0164121, 40.0099229 ], [ -83.0163686, 40.00996 ], [ -83.0162403, 40.0099665 ], [ -83.0162242, 40.0099673 ], [ -83.0162151, 40.0099678 ], [ -83.0161886, 40.0096632 ], [ -83.016323, 40.0096564 ], [ -83.0164277, 40.009651 ], [ -83.0166245, 40.009641 ], [ -83.0166281, 40.0096819 ], [ -83.0166914, 40.0096786 ] ] ] } },
{ "type": "Feature", "properties": { "@id": "way/431225104", "amenity": "community_centre", "building": "yes", "name": "Bishop James A. Griffin Student Center", "GEOID": "39049002510" }, "geometry": { "type": "Polygon", "coordinates": [ [ [ -82.9422587, 39.9934689 ], [ -82.9428079, 39.9934993 ], [ -82.9428069, 39.9934904 ], [ -82.9428883, 39.9934953 ], [ -82.9428838, 39.9935592 ], [ -82.9428756, 39.9935604 ], [ -82.9428419, 39.9938763 ], [ -82.942763, 39.993871 ], [ -82.942739, 39.9940944 ], [ -82.9421558, 39.9940602 ], [ -82.942172, 39.9938365 ], [ -82.9420906, 39.993832 ], [ -82.9420715, 39.9938594 ], [ -82.9420387, 39.9938889 ], [ -82.9420165, 39.9938991 ], [ -82.9419943, 39.9939049 ], [ -82.9419771, 39.9938925 ], [ -82.9419607, 39.9938609 ], [ -82.9419599, 39.9938234 ], [ -82.9419629, 39.9937738 ], [ -82.9420932, 39.9934572 ], [ -82.9421431, 39.9934616 ], [ -82.9421941, 39.9933193 ], [ -82.9421466, 39.993307 ], [ -82.9423399, 39.9928444 ], [ -82.9423699, 39.9928524 ], [ -82.9424, 39.992778 ], [ -82.9427121, 39.9930022 ], [ -82.942774, 39.9929539 ], [ -82.9429187, 39.992948 ], [ -82.9428715, 39.9933773 ], [ -82.9423027, 39.9933447 ], [ -82.9422587, 39.9934689 ] ] ] } },
{ "type": "Feature", "properties": { "@id": "way/579414473", "amenity": "community_centre", "building": "yes", "name": "OSU Hillel", "GEOID": "39049001200" }, "geometry": { "type": "Polygon", "coordinates": [ [ [ -83.0069624, 40.001122 ], [ -83.0070087, 40.0013559 ], [ -83.0070946, 40.001346 ], [ -83.0070921, 40.0013328 ], [ -83.0073305, 40.0013053 ], [ -83.0073328, 40.0013169 ], [ -83.0074231, 40.0013065 ], [ -83.0073772, 40.0010715 ], [ -83.0072886, 40.0010817 ], [ -83.0072915, 40.0010966 ], [ -83.0071959, 40.0011075 ], [ -83.0071901, 40.0010779 ], [ -83.0071818, 40.0010708 ], [ -83.0071643, 40.0010692 ], [ -83.0071509, 40.0010747 ], [ -83.0071437, 40.001085 ], [ -83.0071495, 40.0011144 ], [ -83.0070545, 40.0011255 ], [ -83.0070517, 40.0011116 ], [ -83.0069624, 40.001122 ] ] ] } },
{ "type": "Feature", "properties": { "@id": "way/724752729", "amenity": "community_centre", "building": "yes", "name": "Jeffrey Park Community Room", "GEOID": "39049003000" }, "geometry": { "type": "Polygon", "coordinates": [ [ [ -82.9946484, 39.9793451 ], [ -82.9946412, 39.9793003 ], [ -82.9946843, 39.9792962 ], [ -82.9946676, 39.9791934 ], [ -82.9946406, 39.9791959 ], [ -82.9946332, 39.9791503 ], [ -82.9946555, 39.9791482 ], [ -82.994649, 39.9791078 ], [ -82.9946107, 39.9791114 ], [ -82.9946058, 39.9790816 ], [ -82.9945153, 39.9790902 ], [ -82.9945341, 39.9792063 ], [ -82.9945207, 39.9792076 ], [ -82.9945386, 39.9793184 ], [ -82.9945608, 39.9793163 ], [ -82.9945667, 39.9793529 ], [ -82.9946484, 39.9793451 ] ] ] } },
{ "type": "Feature", "properties": { "@id": "way/825499289", "amenity": "community_centre", "building": "yes", "name": "Stonewall Columbus", "GEOID": "39049001700" }, "geometry": { "type": "Polygon", "coordinates": [ [ [ -83.004699, 39.9860571 ], [ -83.0046775, 39.9859441 ], [ -83.0048464, 39.9859514 ], [ -83.0048505, 39.9859756 ], [ -83.0048808, 39.985974 ], [ -83.0049364, 39.985971 ], [ -83.0049343, 39.9859565 ], [ -83.0050404, 39.9859601 ], [ -83.0050416, 39.985972 ], [ -83.0051187, 39.9859636 ], [ -83.0051252, 39.9859967 ], [ -83.0051499, 39.9861212 ], [ -83.0051563, 39.9861537 ], [ -83.0050249, 39.986167 ], [ -83.0050021, 39.9860653 ], [ -83.0049827, 39.9860648 ], [ -83.0049828, 39.9860537 ], [ -83.0048677, 39.9860507 ], [ -83.0048712, 39.9860618 ], [ -83.004699, 39.9860571 ] ] ] } }
]
}
