{
"type": "FeatureCollection",
"crs": { "type": "name", "properties": { "name": "urn:ogc:def:crs:EPSG::4269" } },
"features": [
{ "type": "Feature", "properties": { "@id": "way/154204173", "building": "dormitory", "name": "Morrison Tower", "GEOID": "39049001121" }, "geometry": { "type": "Polygon", "coordinates": [ [ [ -83.0124103, 39.9957084 ], [ -83.0125151, 39.9957119 ], [ -83.0125311, 39.9957124 ], [ -83.0125551, 39.9957132 ], [ -83.0125575, 39.995671 ], [ -83.0127342, 39.9956769 ], [ -83.0127503, 39.9956774 ], [ -83.0127758, 39.9956782 ], [ -83.0127734, 39.9957209 ], [ -83.0128517, 39.9957235 ], [ -83.0128532, 39.9956979 ], [ -83.0128538, 39.9956865 ], [ -83.0129891, 39.995691 ], [ -83.0129637, 39.9961414 ], [ -83.012825, 39.9961368 ], [ -83.0128386, 39.9958966 ], [ -83.0128011, 39.9958953 ], [ -83.012805, 39.9958244 ], [ -83.0124045, 39.9958112 ], [ -83.0124103, 39.9957084 ] ] ] } },
{ "type": "Feature", "properties": { "@id": "way/154204174", "building": "dormitory", "name": "Mack Hall", "GEOID": "39049001121" }, "geometry": { "type": "Polygon", "coordinates": [ [ [ -83.0142967, 39.9962798 ], [ -83.014155, 39.9962929 ], [ -83.0140752, 39.9963 ], [ -83.0140324, 39.9962723 ], [ -83.0140213, 39.9962651 ], [ -83.0140157, 39.9962151 ], [ -83.0140576, 39.996184 ], [ -83.0142458, 39.9961689 ], [ -83.0142802, 39.996167 ], [ -83.0142298, 39.9958867 ], [ -83.0140727, 39.9958809 ], [ -83.0140741, 39.9958726 ], [ -83.0140616, 39.9958713 ], [ -83.0140678, 39.9957572 ], [ -83.0142319, 39.9957609 ], [ -83.0142326, 39.9957514 ], [ -83.0142648, 39.9957527 ], [ -83.0142704, 39.9957439 ], [ -83.0142858, 39.995741 ], [ -83.0143026, 39.995745 ], [ -83.0143068, 39.9957527 ], [ -83.0143427, 39.9957496 ], [ -83.0143441, 39.9957591 ], [ -83.0143781, 39.9957561 ], [ -83.0143808, 39.9957741 ], [ -83.0143872, 39.9957735 ], [ -83.0144063, 39.9958991 ], [ -83.0144483, 39.9961761 ], [ -83.0144521, 39.996201 ], [ -83.0144531, 39.9962178 ], [ -83.0144614, 39.9962654 ], [ -83.0144061, 39.996271 ], [ -83.014375, 39.996274 ], [ -83.0142971, 39.9962821 ], [ -83.0142967, 39.9962798 ] ] ] } },
{ "type": "Feature", "properties": { "@id": "way/154204179", "building": "dormitory", "name": "Baker Hall", "GEOID": "39049001121" }, "geometry": { "type": "Polygon", "coordinates": [ [ [ -83.010527, 39.9964759 ], [ -83.0104007, 39.996491 ], [ -83.0104105, 39.9965393 ], [ -83.0103472, 39.9965471 ], [ -83.0101292, 39.996574 ], [ -83.0101189, 39.9965233 ], [ -83.0100264, 39.9965343 ], [ -83.0100045, 39.9965369 ], [ -83.0099824, 39.9965405 ], [ -83.0099611, 39.996544 ], [ -83.0099741, 39.9966073 ], [ -83.0099889, 39.9966797 ], [ -83.0099357, 39.9966861 ], [ -83.0098662, 39.9966945 ], [ -83.0098316, 39.9965253 ], [ -83.0098052, 39.9963965 ], [ -83.0097708, 39.9964007 ], [ -83.0096796, 39.9964117 ], [ -83.0095488, 39.9964274 ], [ -83.0095431, 39.9963997 ], [ -83.0095404, 39.9963882 ], [ -83.0095367, 39.9963723 ], [ -83.0095324, 39.9963475 ], [ -83.0097859, 39.996317 ], [ -83.009745, 39.9961344 ], [ -83.0098114, 39.9961268 ], [ -83.0098777, 39.9961192 ], [ -83.0099031, 39.9962641 ], [ -83.0100084, 39.9962514 ], [ -83.0099883, 39.9961536 ], [ -83.0099994, 39.9961523 ], [ -83.0103286, 39.9961127 ], [ -83.0103531, 39.9962322 ], [ -83.0104623, 39.996219 ], [ -83.0104526, 39.9961721 ], [ -83.0105171, 39.9961644 ], [ -83.0105861, 39.9961561 ], [ -83.0106585, 39.9965084 ], [ -83.0107082, 39.9965024 ], [ -83.0109488, 39.9964734 ], [ -83.0110157, 39.9964653 ], [ -83.0109859, 39.9963203 ], [ -83.0109766, 39.9962753 ], [ -83.0111053, 39.9962598 ], [ -83.0111904, 39.9966737 ], [ -83.0111301, 39.9966809 ], [ -83.0110571, 39.9966897 ], [ -83.0110417, 39.9966147 ], [ -83.0110317, 39.996566 ], [ -83.0107214, 39.9966034 ], [ -83.0106869, 39.9966076 ], [ -83.0107224, 39.9967806 ], [ -83.0106661, 39.9967874 ], [ -83.0106231, 39.9967926 ], [ -83.0105928, 39.9967962 ], [ -83.0105439, 39.9965579 ], [ -83.0105382, 39.9965301 ], [ -83.010534, 39.9965098 ], [ -83.010527, 39.9964759 ] ] ] } },
{ "type": "Feature", "properties": { "@id": "way/154204650", "building": "dormitory", "name": "Smith-Steeb Hall", "GEOID": "39049001121" }, "geometry": { "type": "Polygon", "coordinates": [ [ [ -83.0096641, 39.9957234 ], [ -83.0096288, 39.9955444 ], [ -83.0097639, 39.9955288 ], [ -83.0097695, 39.9955575 ], [ -83.009829, 39.9955506 ], [ -83.0098623, 39.9957195 ], [ -83.0098672, 39.9957445 ], [ -83.0098872, 39.9958465 ], [ -83.0098279, 39.9958533 ], [ -83.00987, 39.9960795 ], [ -83.0097372, 39.9960947 ], [ -83.0096943, 39.9958872 ], [ -83.0096128, 39.9958966 ], [ -83.0096031, 39.9958472 ], [ -83.0094787, 39.9958616 ], [ -83.0094868, 39.9959029 ], [ -83.0094424, 39.995908 ], [ -83.0093957, 39.9959134 ], [ -83.0093879, 39.9958736 ], [ -83.0093361, 39.9958796 ], [ -83.0093697, 39.9960507 ], [ -83.0092441, 39.9960651 ], [ -83.0092001, 39.9958413 ], [ -83.0091468, 39.9958474 ], [ -83.0091461, 39.9958439 ], [ -83.0091285, 39.9957541 ], [ -83.0091195, 39.9957085 ], [ -83.0090915, 39.9955664 ], [ -83.0091408, 39.9955607 ], [ -83.009135, 39.9955312 ], [ -83.0092614, 39.9955166 ], [ -83.0092995, 39.99571 ], [ -83.0093895, 39.9956996 ], [ -83.0093997, 39.9957516 ], [ -83.0094374, 39.9957472 ], [ -83.00943, 39.9957101 ], [ -83.0094807, 39.9957042 ], [ -83.009583, 39.9956924 ], [ -83.0095874, 39.9957146 ], [ -83.0095318, 39.995721 ], [ -83.0095352, 39.9957383 ], [ -83.0096641, 39.9957234 ] ] ] } },
{ "type": "Feature", "properties": { "@id": "way/154204776", "building": "dormitory", "name": "Haverfield House", "GEOID": "39049001121" }, "geometry": { "type": "Polygon", "coordinates": [ [ [ -83.0119254, 40.0041595 ], [ -83.0119204, 40.0041593 ], [ -83.0119159, 40.0042193 ], [ -83.01175, 40.0042119 ], [ -83.0117546, 40.0041504 ], [ -83.0113273, 40.0041314 ], [ -83.011329, 40.004109 ], [ -83.0112894, 40.0041073 ], [ -83.0112925, 40.0040659 ], [ -83.011293, 40.0040592 ], [ -83.0112943, 40.0040417 ], [ -83.0113361, 40.0040436 ], [ -83.0113368, 40.0040334 ], [ -83.011635, 40.0040468 ], [ -83.0117373, 40.0040514 ], [ -83.0119328, 40.0040601 ], [ -83.0119318, 40.0040736 ], [ -83.0119626, 40.004075 ], [ -83.0119621, 40.0040817 ], [ -83.0119604, 40.0041022 ], [ -83.0119592, 40.0041207 ], [ -83.0119285, 40.0041192 ], [ -83.0119254, 40.0041595 ] ] ] } },
{ "type": "Feature", "properties": { "@id": "way/154204778", "building": "dormitory", "name": "Halloran House", "GEOID": "39049001121" }, "geometry": { "type": "Polygon", "coordinates": [ [ [ -83.0106636, 40.0046332 ], [ -83.0101232, 40.0046105 ], [ -83.01006, 40.0046079 ], [ -83.0100618, 40.0045833 ], [ -83.0100299, 40.0045819 ], [ -83.0100332, 40.0045361 ], [ -83.0100344, 40.0045202 ], [ -83.0100346, 40.0045166 ], [ -83.0100698, 40.0045181 ], [ -83.0100705, 40.0045074 ], [ -83.0103346, 40.0045185 ], [ -83.0104687, 40.0045241 ], [ -83.0106703, 40.0045325 ], [ -83.0106697, 40.0045414 ], [ -83.0107034, 40.0045428 ], [ -83.0107024, 40.0045569 ], [ -83.0107007, 40.0045803 ], [ -83.0106997, 40.0045947 ], [ -83.0106665, 40.0045933 ], [ -83.0106636, 40.0046332 ] ] ] } },
{ "type": "Feature", "properties": { "@id": "way/154204789", "building": "dormitory", "name": "Siebert Hall", "GEOID": "39049001121" }, "geometry": { "type": "Polygon", "coordinates": [ [ [ -83.0123385, 39.9961322 ], [ -83.0122127, 39.9961276 ], [ -83.0122311, 39.9958333 ], [ -83.0122038, 39.9958323 ], [ -83.0121931, 39.9958319 ], [ -83.0121852, 39.9958316 ], [ -83.0121771, 39.9958312 ], [ -83.0121786, 39.9958134 ], [ -83.012188, 39.9956586 ], [ -83.0123676, 39.9956652 ], [ -83.0123385, 39.9961322 ] ] ] } },
{ "type": "Feature", "properties": { "@id": "way/154204796", "building": "dormitory", "name": "Archer House", "GEOID": "39049001121" }, "geometry": { "type": "Polygon", "coordinates": [ [ [ -83.0141697, 40.0055536 ], [ -83.0141537, 40.005553 ], [ -83.014152, 40.0055769 ], [ -83.0140814, 40.0055739 ], [ -83.014083, 40.0055513 ], [ -83.0140378, 40.0055494 ], [ -83.0140453, 40.0054457 ], [ -83.0140483, 40.0054042 ], [ -83.0140581, 40.0052688 ], [ -83.0140635, 40.005194 ], [ -83.0139964, 40.0051911 ], [ -83.0139968, 40.005186 ], [ -83.013954, 40.0051888 ], [ -83.0139394, 40.0051897 ], [ -83.0139495, 40.0050516 ], [ -83.0140056, 40.0050628 ], [ -83.0140071, 40.0050422 ], [ -83.0141625, 40.0050488 ], [ -83.0141607, 40.0050737 ], [ -83.0141891, 40.0050749 ], [ -83.0141874, 40.0050989 ], [ -83.0142043, 40.0050996 ], [ -83.0142038, 40.0051258 ], [ -83.0141991, 40.0051831 ], [ -83.0141743, 40.0054935 ], [ -83.0141697, 40.0055536 ] ] ] } },
{ "type": "Feature", "properties": { "@id": "way/154204812", "building": "dormitory", "name": "Norton House", "GEOID": "39049001121" }, "geometry": { "type": "Polygon", "coordinates": [ [ [ -83.0137084, 40.0046424 ], [ -83.0137628, 40.004645 ], [ -83.0137643, 40.0046262 ], [ -83.0137638, 40.0046199 ], [ -83.0138259, 40.0046229 ], [ -83.0138253, 40.00463 ], [ -83.0138239, 40.0046476 ], [ -83.0138404, 40.0046484 ], [ -83.0138275, 40.0048084 ], [ -83.0139206, 40.0048128 ], [ -83.0139862, 40.0048159 ], [ -83.014159, 40.0048241 ], [ -83.0141582, 40.0048348 ], [ -83.0141926, 40.0048365 ], [ -83.0141894, 40.0048593 ], [ -83.0142119, 40.0048601 ], [ -83.0142101, 40.0048893 ], [ -83.0142189, 40.0048896 ], [ -83.014215, 40.0049351 ], [ -83.0138161, 40.0049152 ], [ -83.0138131, 40.0049494 ], [ -83.0137299, 40.0049453 ], [ -83.0136959, 40.0049432 ], [ -83.0136863, 40.0049426 ], [ -83.0136908, 40.0048819 ], [ -83.0136583, 40.0048803 ], [ -83.0136602, 40.0048479 ], [ -83.0136915, 40.0048494 ], [ -83.0137084, 40.0046424 ] ] ] } },
{ "type": "Feature", "properties": { "@id": "way/154204814", "building": "dormitory", "name": "Barrett House", "GEOID": "39049001121" }, "geometry": { "type": "Polygon", "coordinates": [ [ [ -83.0113558, 40.0048221 ], [ -83.0109352, 40.0048046 ], [ -83.0109328, 40.0048384 ], [ -83.0108267, 40.004834 ], [ -83.0108309, 40.0047739 ], [ -83.0107971, 40.0047725 ], [ -83.0107995, 40.0047392 ], [ -83.0108317, 40.0047406 ], [ -83.010846, 40.0045387 ], [ -83.0109065, 40.0045412 ], [ -83.0109083, 40.0045153 ], [ -83.0109326, 40.0045163 ], [ -83.0109536, 40.0045172 ], [ -83.0109688, 40.0045178 ], [ -83.010967, 40.0045435 ], [ -83.0109761, 40.0045438 ], [ -83.0109648, 40.0047028 ], [ -83.0110623, 40.0047069 ], [ -83.0111276, 40.0047096 ], [ -83.0112988, 40.0047168 ], [ -83.011298, 40.004729 ], [ -83.0113317, 40.0047304 ], [ -83.0113299, 40.0047552 ], [ -83.0113516, 40.0047561 ], [ -83.01135, 40.0047781 ], [ -83.0113589, 40.0047784 ], [ -83.0113558, 40.0048221 ] ] ] } },
{ "type": "Feature", "properties": { "@id": "way/154204816", "building": "dormitory", "name": "Taylor Tower", "GEOID": "39049001121" }, "geometry": { "type": "Polygon", "coordinates": [ [ [ -83.0103503, 40.0055739 ], [ -83.0105925, 40.0055847 ], [ -83.0107061, 40.0055898 ], [ -83.0109976, 40.0056028 ], [ -83.0109967, 40.0056157 ], [ -83.0110136, 40.0056165 ], [ -83.011028, 40.0056171 ], [ -83.0110245, 40.0056633 ], [ -83.0109938, 40.005662 ], [ -83.0109908, 40.0057014 ], [ -83.0107307, 40.0056898 ], [ -83.0107147, 40.0059003 ], [ -83.0106594, 40.0058979 ], [ -83.0106577, 40.0059201 ], [ -83.0105841, 40.0059168 ], [ -83.0106017, 40.0056855 ], [ -83.0103375, 40.0056737 ], [ -83.0103408, 40.0056302 ], [ -83.0103158, 40.0056291 ], [ -83.0103191, 40.0055851 ], [ -83.0103493, 40.0055865 ], [ -83.0103503, 40.0055739 ] ] ] } },
{ "type": "Feature", "properties": { "@id": "way/154204818", "building": "dormitory", "name": "Drackett Tower", "GEOID": "39049001121" }, "geometry": { "type": "Polygon", "coordinates": [ [ [ -83.0135929, 40.0057638 ], [ -83.0135399, 40.0057614 ], [ -83.0135381, 40.0057854 ], [ -83.0134608, 40.005782 ], [ -83.0134688, 40.0056751 ], [ -83.0134787, 40.0055441 ], [ -83.0132171, 40.0055325 ], [ -83.0132203, 40.0054899 ], [ -83.0131915, 40.0054886 ], [ -83.0131948, 40.0054449 ], [ -83.013224, 40.0054462 ], [ -83.0132249, 40.0054337 ], [ -83.0133591, 40.0054402 ], [ -83.0133806, 40.0054411 ], [ -83.0133862, 40.0053562 ], [ -83.0135148, 40.0053612 ], [ -83.0135488, 40.0053628 ], [ -83.0135821, 40.0053644 ], [ -83.0136809, 40.0053691 ], [ -83.0136782, 40.0054063 ], [ -83.0139009, 40.0054161 ], [ -83.0138999, 40.00543 ], [ -83.0138982, 40.0054538 ], [ -83.0138971, 40.0054732 ], [ -83.0139149, 40.0054738 ], [ -83.0139112, 40.0055233 ], [ -83.0138817, 40.005522 ], [ -83.0138786, 40.0055633 ], [ -83.0136088, 40.0055514 ], [ -83.0135929, 40.0057638 ] ] ] } },
{ "type": "Feature", "properties": { "@id": "way/154204820", "building": "dormitory", "name": "Jones Tower", "GEOID": "39049001121" }, "geometry": { "type": "Polygon", "coordinates": [ [ [ -83.0120367, 40.0055232 ], [ -83.0119841, 40.0055211 ], [ -83.0119826, 40.0055423 ], [ -83.0119058, 40.0055392 ], [ -83.0119093, 40.0054878 ], [ -83.0119113, 40.0054588 ], [ -83.0119221, 40.0053007 ], [ -83.0116608, 40.0052902 ], [ -83.0116636, 40.0052503 ], [ -83.0116319, 40.005249 ], [ -83.0116331, 40.005232 ], [ -83.0116356, 40.0051947 ], [ -83.0116678, 40.005196 ], [ -83.0116683, 40.0051886 ], [ -83.0119675, 40.0052007 ], [ -83.0119728, 40.0051243 ], [ -83.0121685, 40.0051322 ], [ -83.0121672, 40.0051503 ], [ -83.0121629, 40.005213 ], [ -83.012374, 40.0052216 ], [ -83.0123888, 40.0052223 ], [ -83.0123859, 40.0052591 ], [ -83.0123481, 40.0052571 ], [ -83.0123466, 40.0052785 ], [ -83.0123441, 40.0053149 ], [ -83.0120519, 40.0053031 ], [ -83.0120367, 40.0055232 ] ] ] } },
{ "type": "Feature", "properties": { "@id": "way/154204821", "building": "dormitory", "name": "Houck House", "GEOID": "39049001121" }, "geometry": { "type": "Polygon", "coordinates": [ [ [ -83.0109328, 40.0050228 ], [ -83.0109795, 40.0050248 ], [ -83.0109813, 40.0050002 ], [ -83.0110507, 40.0050031 ], [ -83.0110489, 40.0050272 ], [ -83.0110642, 40.0050279 ], [ -83.011063, 40.0050439 ], [ -83.0110519, 40.0051908 ], [ -83.0112496, 40.0051995 ], [ -83.0112956, 40.0052016 ], [ -83.0113787, 40.0052052 ], [ -83.0113778, 40.0052173 ], [ -83.0114108, 40.0052188 ], [ -83.0114105, 40.0052277 ], [ -83.0114076, 40.0052586 ], [ -83.0114529, 40.0052611 ], [ -83.0114481, 40.0053134 ], [ -83.0114208, 40.0053122 ], [ -83.0114182, 40.005345 ], [ -83.0113746, 40.005343 ], [ -83.0113774, 40.005308 ], [ -83.0111413, 40.0052969 ], [ -83.0111384, 40.0053338 ], [ -83.0110872, 40.005348 ], [ -83.0110234, 40.0053529 ], [ -83.0109926, 40.0053498 ], [ -83.0109566, 40.005344 ], [ -83.0109112, 40.0053227 ], [ -83.0109137, 40.0052876 ], [ -83.0109287, 40.0050803 ], [ -83.010932, 40.0050345 ], [ -83.0109328, 40.0050228 ] ] ] } },
{ "type": "Feature", "properties": { "@id": "way/160626242", "building": "dormitory", "name": "Mendoza House", "GEOID": "39049001121" }, "geometry": { "type": "Polygon", "coordinates": [ [ [ -83.0143442, 40.0041 ], [ -83.0143406, 40.0041476 ], [ -83.0143359, 40.00421 ], [ -83.0142162, 40.0042048 ], [ -83.0141838, 40.0042034 ], [ -83.0141806, 40.0042469 ], [ -83.0142137, 40.0042484 ], [ -83.0143306, 40.0042535 ], [ -83.0143263, 40.0043111 ], [ -83.0143225, 40.0043626 ], [ -83.0142024, 40.0043573 ], [ -83.0141709, 40.004356 ], [ -83.0141669, 40.004409 ], [ -83.0141989, 40.0044104 ], [ -83.0143196, 40.0044157 ], [ -83.0143112, 40.0045284 ], [ -83.0142814, 40.0045271 ], [ -83.0142654, 40.0045264 ], [ -83.014048, 40.0045169 ], [ -83.0140519, 40.0044648 ], [ -83.0140527, 40.0044544 ], [ -83.0140664, 40.0042716 ], [ -83.014067, 40.004263 ], [ -83.0140676, 40.004254 ], [ -83.0140748, 40.0041541 ], [ -83.0140763, 40.0041382 ], [ -83.0140774, 40.0041203 ], [ -83.0140799, 40.0040884 ], [ -83.0143442, 40.0041 ] ] ] } },
{ "type": "Feature", "properties": { "@id": "way/375725690", "building": "dormitory", "name": "Torres House", "GEOID": "39049001121" }, "geometry": { "type": "Polygon", "coordinates": [ [ [ -83.013966, 40.0058707 ], [ -83.0139673, 40.0058547 ], [ -83.0141362, 40.0058626 ], [ -83.0141337, 40.0058947 ], [ -83.014218, 40.0058986 ], [ -83.0142072, 40.0060335 ], [ -83.0138753, 40.006018 ], [ -83.0138769, 40.0059979 ], [ -83.01375, 40.0059919 ], [ -83.0137478, 40.006019 ], [ -83.0134347, 40.0060043 ], [ -83.0134328, 40.0060277 ], [ -83.0130933, 40.0060118 ], [ -83.0131045, 40.0058715 ], [ -83.0131895, 40.0058755 ], [ -83.013192, 40.0058437 ], [ -83.0133686, 40.0058519 ], [ -83.013367, 40.0058721 ], [ -83.0135904, 40.0058825 ], [ -83.0135928, 40.0058533 ], [ -83.013711, 40.0058588 ], [ -83.013966, 40.0058707 ] ] ] } },
{ "type": "Feature", "properties": { "@id": "way/375835942", "building": "dormitory", "name": "Raney House", "GEOID": "39049001121" }, "geometry": { "type": "Polygon", "coordinates": [ [ [ -83.0101572, 40.0054204 ], [ -83.0101539, 40.0054595 ], [ -83.0101484, 40.0055244 ], [ -83.0101659, 40.0055252 ], [ -83.0101533, 40.0056741 ], [ -83.0101799, 40.0056754 ], [ -83.0101679, 40.005819 ], [ -83.0101491, 40.0058181 ], [ -83.0101343, 40.0058174 ], [ -83.0101288, 40.005883 ], [ -83.0099392, 40.0058738 ], [ -83.0099547, 40.0056871 ], [ -83.0099116, 40.005685 ], [ -83.0099263, 40.0055056 ], [ -83.0099068, 40.0055047 ], [ -83.0099175, 40.0053697 ], [ -83.009941, 40.0053708 ], [ -83.0099499, 40.0052575 ], [ -83.0099289, 40.0052565 ], [ -83.0099394, 40.0051199 ], [ -83.0099782, 40.0051216 ], [ -83.0099817, 40.0050748 ], [ -83.0099831, 40.0050573 ], [ -83.0101632, 40.0050654 ], [ -83.010158, 40.0051347 ], [ -83.0101567, 40.005152 ], [ -83.0101525, 40.0052069 ], [ -83.0101377, 40.0052062 ], [ -83.0101345, 40.0052487 ], [ -83.0101875, 40.005251 ], [ -83.010175, 40.0054172 ], [ -83.0101572, 40.0054204 ] ] ] } },
{ "type": "Feature", "properties": { "@id": "way/375856188", "building": "dormitory", "name": "Bowen House", "GEOID": "39049001121" }, "geometry": { "type": "Polygon", "coordinates": [ [ [ -83.0095684, 40.0057023 ], [ -83.0095827, 40.0057776 ], [ -83.009425, 40.0057952 ], [ -83.0093973, 40.0056499 ], [ -83.0093865, 40.0056511 ], [ -83.0093766, 40.0055991 ], [ -83.0094121, 40.0055951 ], [ -83.0093929, 40.0054938 ], [ -83.0093729, 40.0054961 ], [ -83.0093665, 40.0054622 ], [ -83.009346, 40.0054644 ], [ -83.0093207, 40.0053313 ], [ -83.0093305, 40.0053302 ], [ -83.0093102, 40.0052235 ], [ -83.0092825, 40.0052266 ], [ -83.0092346, 40.0049749 ], [ -83.00944, 40.004952 ], [ -83.0094784, 40.0051538 ], [ -83.0094444, 40.0051576 ], [ -83.0094694, 40.005289 ], [ -83.0094742, 40.0053142 ], [ -83.0095032, 40.0053109 ], [ -83.0095141, 40.0053687 ], [ -83.0095345, 40.0053665 ], [ -83.0095489, 40.0054418 ], [ -83.0095285, 40.0054441 ], [ -83.0095464, 40.0055384 ], [ -83.0095736, 40.0055353 ], [ -83.0096045, 40.0056983 ], [ -83.0095684, 40.0057023 ] ] ] } },
{ "type": "Feature", "properties": { "@id": "way/396774024", "building": "dormitory", "name": "Lawrence Tower", "GEOID": "39049001110" }, "geometry": { "type": "Polygon", "coordinates": [ [ [ -83.0189814, 40.0075289 ], [ -83.0189918, 40.0073943 ], [ -83.0189196, 40.007391 ], [ -83.0189459, 40.0070525 ], [ -83.0186498, 40.0070391 ], [ -83.0186533, 40.006994 ], [ -83.0184911, 40.0069866 ], [ -83.0184877, 40.00703 ], [ -83.018426, 40.0070272 ], [ -83.0184361, 40.0068962 ], [ -83.0182907, 40.0068896 ], [ -83.0182795, 40.0070335 ], [ -83.018249, 40.0074284 ], [ -83.0182438, 40.0074954 ], [ -83.0189814, 40.0075289 ] ] ] } },
{ "type": "Feature", "properties": { "@id": "way/445050067", "building": "dormitory", "name": "Bradley Hall", "GEOID": "39049001121" }, "geometry": { "type": "Polygon", "coordinates": [ [ [ -83.0136561, 39.9966902 ], [ -83.0134983, 39.9966772 ], [ -83.0134422, 39.9966725 ], [ -83.0134412, 39.9966788 ], [ -83.013436, 39.9966784 ], [ -83.0132429, 39.9966624 ], [ -83.0132332, 39.9966616 ], [ -83.0132342, 39.9966547 ], [ -83.0127928, 39.9966177 ], [ -83.0127992, 39.9965723 ], [ -83.0128056, 39.9965274 ], [ -83.0128509, 39.9965312 ], [ -83.0128549, 39.9965028 ], [ -83.0129878, 39.9965132 ], [ -83.0129844, 39.996538 ], [ -83.0132478, 39.9965593 ], [ -83.0132526, 39.996524 ], [ -83.0133566, 39.9965324 ], [ -83.0134651, 39.996542 ], [ -83.0134606, 39.9965718 ], [ -83.0135419, 39.996579 ], [ -83.0135699, 39.996394 ], [ -83.0136039, 39.9963686 ], [ -83.0136673, 39.996372 ], [ -83.0136964, 39.996405 ], [ -83.013672, 39.9965776 ], [ -83.0136561, 39.9966902 ] ] ] } },
{ "type": "Feature", "properties": { "@id": "way/445050068", "building": "dormitory", "name": "Paterson Hall", "GEOID": "39049001121" }, "geometry": { "type": "Polygon", "coordinates": [ [ [ -83.0129878, 39.9965132 ], [ -83.0129955, 39.9964569 ], [ -83.0130378, 39.9964603 ], [ -83.0130509, 39.9963649 ], [ -83.0126164, 39.99633 ], [ -83.0126209, 39.9962965 ], [ -83.0124145, 39.9962801 ], [ -83.0124094, 39.9963182 ], [ -83.0121866, 39.9963007 ], [ -83.0121833, 39.9963311 ], [ -83.0121804, 39.9963579 ], [ -83.0121654, 39.9964981 ], [ -83.0121623, 39.9965267 ], [ -83.0121601, 39.996547 ], [ -83.0121814, 39.9965811 ], [ -83.0122425, 39.9965859 ], [ -83.0122784, 39.9965609 ], [ -83.0122956, 39.9964401 ], [ -83.0123013, 39.9964002 ], [ -83.0123278, 39.9964024 ], [ -83.0123374, 39.9964032 ], [ -83.0124257, 39.9964106 ], [ -83.0124423, 39.996412 ], [ -83.0124724, 39.9964145 ], [ -83.0126649, 39.9964306 ], [ -83.0128628, 39.9964472 ], [ -83.0128549, 39.9965028 ], [ -83.0129878, 39.9965132 ] ] ] } },
{ "type": "Feature", "properties": { "@id": "way/445050071", "building": "dormitory", "name": "Canfield Hall", "GEOID": "39049001121" }, "geometry": { "type": "Polygon", "coordinates": [ [ [ -83.0130107, 39.9960895 ], [ -83.0130158, 39.9959942 ], [ -83.0135073, 39.9960096 ], [ -83.0135151, 39.9960065 ], [ -83.013559, 39.9960072 ], [ -83.0135751, 39.9959916 ], [ -83.0135891, 39.995992 ], [ -83.0136061, 39.9959926 ], [ -83.01362, 39.9957322 ], [ -83.0136737, 39.9957338 ], [ -83.0137506, 39.995736 ], [ -83.01375, 39.995747 ], [ -83.0140678, 39.9957572 ], [ -83.0140616, 39.9958713 ], [ -83.0140384, 39.9958706 ], [ -83.0140391, 39.9958576 ], [ -83.0137742, 39.9958489 ], [ -83.0137735, 39.9958611 ], [ -83.0137464, 39.9958602 ], [ -83.0137454, 39.9958779 ], [ -83.0137361, 39.9960422 ], [ -83.0137513, 39.9960563 ], [ -83.0137496, 39.9960836 ], [ -83.0137316, 39.9960986 ], [ -83.0137262, 39.9961779 ], [ -83.0136865, 39.9962029 ], [ -83.0136586, 39.9962015 ], [ -83.0136268, 39.9961998 ], [ -83.0135946, 39.9961731 ], [ -83.0135981, 39.996108 ], [ -83.0130107, 39.9960895 ] ] ] } },
{ "type": "Feature", "properties": { "@id": "way/454962351", "building": "dormitory", "name": "Nosker House", "GEOID": "39049001121" }, "geometry": { "type": "Polygon", "coordinates": [ [ [ -83.0126425, 40.0049683 ], [ -83.0123837, 40.0049564 ], [ -83.0123854, 40.0049346 ], [ -83.0121889, 40.0049256 ], [ -83.0121898, 40.0049134 ], [ -83.0121277, 40.0049106 ], [ -83.0120544, 40.0049073 ], [ -83.0120535, 40.0049182 ], [ -83.0118626, 40.0049095 ], [ -83.0118614, 40.0049252 ], [ -83.011606, 40.0049136 ], [ -83.011618, 40.0047594 ], [ -83.0118732, 40.004771 ], [ -83.0118758, 40.0047374 ], [ -83.0121386, 40.0047494 ], [ -83.0124078, 40.0047616 ], [ -83.0124053, 40.004795 ], [ -83.0124231, 40.0047958 ], [ -83.0124364, 40.0047964 ], [ -83.0126394, 40.0048057 ], [ -83.0126551, 40.0048064 ], [ -83.0126546, 40.0048134 ], [ -83.0126425, 40.0049683 ] ] ] } },
{ "type": "Feature", "properties": { "@id": "way/454962354", "building": "dormitory", "name": "Blackburn House", "GEOID": "39049001121" }, "geometry": { "type": "Polygon", "coordinates": [ [ [ -83.0126956, 40.0040303 ], [ -83.0124349, 40.0040191 ], [ -83.0124365, 40.0039977 ], [ -83.0120904, 40.0039829 ], [ -83.012078, 40.004153 ], [ -83.0123423, 40.0041643 ], [ -83.0123437, 40.0041451 ], [ -83.0124766, 40.0041508 ], [ -83.0124742, 40.004183 ], [ -83.0125109, 40.0041846 ], [ -83.0125095, 40.0042041 ], [ -83.0124943, 40.004409 ], [ -83.0124758, 40.0044082 ], [ -83.0124623, 40.0045902 ], [ -83.0124614, 40.0046033 ], [ -83.0124607, 40.0046124 ], [ -83.0125042, 40.0046147 ], [ -83.0126544, 40.0046226 ], [ -83.0126758, 40.0046237 ], [ -83.0126814, 40.0045404 ], [ -83.012694, 40.0043676 ], [ -83.0126711, 40.0043666 ], [ -83.0126917, 40.0040841 ], [ -83.0126956, 40.0040303 ] ] ] } },
{ "type": "Feature", "properties": { "@id": "way/454962361", "building": "dormitory", "name": "Busch House", "GEOID": "39049001121" }, "geometry": { "type": "Polygon", "coordinates": [ [ [ -83.0100299, 40.0048962 ], [ -83.010031, 40.0048769 ], [ -83.0100897, 40.0048796 ], [ -83.0100963, 40.0047577 ], [ -83.0100358, 40.0047561 ], [ -83.0100366, 40.0047418 ], [ -83.0099846, 40.0047384 ], [ -83.0099852, 40.0047244 ], [ -83.0097863, 40.0047171 ], [ -83.0097862, 40.0047363 ], [ -83.0094652, 40.0047216 ], [ -83.0093639, 40.004717 ], [ -83.0093616, 40.0047003 ], [ -83.0093882, 40.0046972 ], [ -83.0093362, 40.0044455 ], [ -83.0091641, 40.0044606 ], [ -83.0091741, 40.0045247 ], [ -83.0091313, 40.0045315 ], [ -83.0091575, 40.0046694 ], [ -83.0091863, 40.0046675 ], [ -83.0092209, 40.0048379 ], [ -83.0094764, 40.0048488 ], [ -83.0096544, 40.0048564 ], [ -83.0096523, 40.0048768 ], [ -83.0100299, 40.0048962 ] ] ] } },
{ "type": "Feature", "properties": { "@id": "way/454962365", "building": "dormitory", "name": "Houston House", "GEOID": "39049001121" }, "geometry": { "type": "Polygon", "coordinates": [ [ [ -83.0112015, 40.0059091 ], [ -83.011203, 40.0058889 ], [ -83.0112064, 40.0058421 ], [ -83.0112138, 40.0057405 ], [ -83.011373, 40.0057473 ], [ -83.0113847, 40.0057478 ], [ -83.0113952, 40.0057483 ], [ -83.0113979, 40.0057591 ], [ -83.0114463, 40.0057612 ], [ -83.0114494, 40.0057187 ], [ -83.011599, 40.0057252 ], [ -83.0116962, 40.0057293 ], [ -83.0120059, 40.0057427 ], [ -83.012022, 40.0057434 ], [ -83.0120187, 40.005789 ], [ -83.0120742, 40.0057913 ], [ -83.012075, 40.0057813 ], [ -83.0121733, 40.0057855 ], [ -83.0121728, 40.0057917 ], [ -83.0122574, 40.0057953 ], [ -83.0122477, 40.0059286 ], [ -83.0121624, 40.0059249 ], [ -83.0121603, 40.0059528 ], [ -83.011992, 40.0059456 ], [ -83.0119936, 40.0059237 ], [ -83.0118005, 40.0059154 ], [ -83.0118014, 40.0059038 ], [ -83.011658, 40.0058976 ], [ -83.0116573, 40.005907 ], [ -83.0114532, 40.0058982 ], [ -83.0114516, 40.0059198 ], [ -83.0114349, 40.0059191 ], [ -83.0112015, 40.0059091 ] ] ] } },
{ "type": "Feature", "properties": { "@id": "way/454962372", "building": "dormitory", "name": "Scott House", "GEOID": "39049001121" }, "geometry": { "type": "Polygon", "coordinates": [ [ [ -83.0133856, 40.0049218 ], [ -83.0132946, 40.0049173 ], [ -83.0132915, 40.0049479 ], [ -83.0131682, 40.0049712 ], [ -83.0131521, 40.004967 ], [ -83.0131244, 40.0048536 ], [ -83.0131738, 40.0048558 ], [ -83.0131781, 40.0048002 ], [ -83.013191, 40.0046748 ], [ -83.0131913, 40.0046678 ], [ -83.0132201, 40.0046696 ], [ -83.0132221, 40.0046519 ], [ -83.0132301, 40.004553 ], [ -83.0132001, 40.0045512 ], [ -83.0131889, 40.0045506 ], [ -83.0131909, 40.0045258 ], [ -83.0131925, 40.0045059 ], [ -83.0131445, 40.0045037 ], [ -83.0131817, 40.0040362 ], [ -83.0137713, 40.0040637 ], [ -83.0137701, 40.0040791 ], [ -83.0137695, 40.004087 ], [ -83.0137569, 40.0042438 ], [ -83.013754, 40.0042801 ], [ -83.013712, 40.0042781 ], [ -83.0137052, 40.0043637 ], [ -83.0136474, 40.004361 ], [ -83.0136432, 40.0044124 ], [ -83.0136395, 40.0044587 ], [ -83.0135767, 40.0044557 ], [ -83.0135732, 40.0045056 ], [ -83.0135426, 40.0045042 ], [ -83.0134168, 40.0044992 ], [ -83.0134141, 40.0045419 ], [ -83.0134123, 40.0045707 ], [ -83.0134087, 40.0046269 ], [ -83.0134008, 40.0047379 ], [ -83.0133895, 40.0048748 ], [ -83.0133856, 40.0049218 ] ] ] } },
{ "type": "Feature", "properties": { "@id": "way/777207830", "building": "dormitory", "name": "Kappa Kappa Gamma Sorority", "GEOID": "39049001300" }, "geometry": { "type": "Polygon", "coordinates": [ [ [ -83.0066555, 39.9997718 ], [ -83.0066182, 39.9997718 ], [ -83.006579, 39.9997684 ], [ -83.006577, 39.9997369 ], [ -83.0065514, 39.9997366 ], [ -83.0065506, 39.9997404 ], [ -83.006536, 39.9997399 ], [ -83.0065365, 39.9997353 ], [ -83.0065103, 39.9997344 ], [ -83.0065128, 39.9997394 ], [ -83.0064976, 39.9997389 ], [ -83.006497, 39.9997334 ], [ -83.0064718, 39.9997328 ], [ -83.0064721, 39.9997359 ], [ -83.0064625, 39.9997352 ], [ -83.0064627, 39.9997611 ], [ -83.0064211, 39.9997616 ], [ -83.0063865, 39.9997569 ], [ -83.0064019, 39.9995858 ], [ -83.0064768, 39.9995881 ], [ -83.0064741, 39.999603 ], [ -83.0065927, 39.9996091 ], [ -83.0065954, 39.9995651 ], [ -83.0064051, 39.9995563 ], [ -83.0064096, 39.9994553 ], [ -83.0066776, 39.9994709 ], [ -83.0066555, 39.9997718 ] ] ] } }
]
}
