{
"type": "FeatureCollection",
"crs": { "type": "name", "properties": { "name": "urn:ogc:def:crs:EPSG::4269" } },
"features": [
{ "type": "Feature", "properties": { "@id": "way/174132228", "amenity": "hospital", "building": "hospital", "name": "OSU Medical Center CarePoint East", "GEOID": "39049002800" }, "geometry": { "type": "Polygon", "coordinates": [ [ [ -82.96347, 39.9789069 ], [ -82.9627189, 39.9788722 ], [ -82.9627715, 39.9782033 ], [ -82.9635227, 39.978238 ], [ -82.96347, 39.9789069 ] ] ] } },
{ "type": "Feature", "properties": { "@id": "way/386076639", "amenity": "clinic", "building": "hospital", "name": "Stefanie Spielman Comprehensive Breast Center", "GEOID": "39049001901" }, "geometry": { "type": "Polygon", "coordinates": [ [ [ -83.0230435, 39.9840047 ], [ -83.0234459, 39.9840194 ], [ -83.0234124, 39.9835899 ], [ -83.0233022, 39.9836083 ], [ -83.0233166, 39.9833568 ], [ -83.0232112, 39.983355 ], [ -83.0232088, 39.9833073 ], [ -83.0232519, 39.9833073 ], [ -83.0233094, 39.9832889 ], [ -83.0230962, 39.9829475 ], [ -83.022974, 39.9829548 ], [ -83.0229621, 39.9833421 ], [ -83.0229237, 39.9833385 ], [ -83.0229022, 39.9837221 ], [ -83.0230339, 39.9837074 ], [ -83.0230435, 39.9840047 ] ] ] } },
{ "type": "Feature", "properties": { "@id": "way/543926221", "amenity": null, "building": "hospital", "name": null, "GEOID": "39049002800" }, "geometry": { "type": "Polygon", "coordinates": [ [ [ -82.9636448, 39.9711519 ], [ -82.9628535, 39.971119 ], [ -82.9628803, 39.9708949 ], [ -82.962773, 39.9708887 ], [ -82.9627838, 39.9707777 ], [ -82.9628103, 39.9707791 ], [ -82.9628201, 39.9706252 ], [ -82.9628758, 39.9706259 ], [ -82.9628882, 39.9705065 ], [ -82.9628501, 39.9705011 ], [ -82.9625113, 39.970617 ], [ -82.9624768, 39.9706971 ], [ -82.9624033, 39.9707554 ], [ -82.9623435, 39.9707852 ], [ -82.9622984, 39.970792 ], [ -82.96224, 39.970794 ], [ -82.9621887, 39.97079 ], [ -82.9621329, 39.9707771 ], [ -82.9620896, 39.9707601 ], [ -82.9620462, 39.970731 ], [ -82.9620135, 39.9707018 ], [ -82.9619878, 39.970672 ], [ -82.9619692, 39.9706279 ], [ -82.9619604, 39.9705831 ], [ -82.9619648, 39.9705499 ], [ -82.9619825, 39.9704984 ], [ -82.9620002, 39.9704713 ], [ -82.9620303, 39.9704365 ], [ -82.9620692, 39.9704073 ], [ -82.962117, 39.9703863 ], [ -82.962171, 39.970372 ], [ -82.9621634, 39.9703248 ], [ -82.9621215, 39.9703287 ], [ -82.9621107, 39.9702375 ], [ -82.9622824, 39.9702246 ], [ -82.9622929, 39.9703156 ], [ -82.9622496, 39.9703208 ], [ -82.9622488, 39.9703626 ], [ -82.9623108, 39.9703653 ], [ -82.9623701, 39.9703931 ], [ -82.9628151, 39.9702364 ], [ -82.9628181, 39.9701868 ], [ -82.9629557, 39.9701917 ], [ -82.9629551, 39.9701787 ], [ -82.9630022, 39.9701777 ], [ -82.9630024, 39.9701641 ], [ -82.9629274, 39.9701632 ], [ -82.9628955, 39.9700988 ], [ -82.9629318, 39.9700669 ], [ -82.9630008, 39.9700337 ], [ -82.9630751, 39.9700201 ], [ -82.9631505, 39.970022 ], [ -82.9631486, 39.9700445 ], [ -82.9634308, 39.9700581 ], [ -82.9634315, 39.9700425 ], [ -82.9636007, 39.9700472 ], [ -82.9635963, 39.9700671 ], [ -82.9636305, 39.9700683 ], [ -82.9636217, 39.9702192 ], [ -82.9636886, 39.9702216 ], [ -82.9636898, 39.9702084 ], [ -82.9637544, 39.9702117 ], [ -82.963754, 39.9702257 ], [ -82.9637886, 39.9702274 ], [ -82.9637875, 39.970259 ], [ -82.9638129, 39.9702598 ], [ -82.9638096, 39.9703355 ], [ -82.9639366, 39.9703398 ], [ -82.9639328, 39.9704237 ], [ -82.9637998, 39.9704185 ], [ -82.9637885, 39.9705878 ], [ -82.9637653, 39.9705856 ], [ -82.9637612, 39.9706185 ], [ -82.9637215, 39.9706158 ], [ -82.963721, 39.9706256 ], [ -82.9636507, 39.9706241 ], [ -82.9636509, 39.9706091 ], [ -82.96361, 39.9706092 ], [ -82.9636117, 39.9705749 ], [ -82.9635879, 39.970574 ], [ -82.9636027, 39.9703468 ], [ -82.9634928, 39.9703411 ], [ -82.9634698, 39.9706022 ], [ -82.9634938, 39.9706037 ], [ -82.9634834, 39.9707098 ], [ -82.9637028, 39.9707203 ], [ -82.9636926, 39.9708625 ], [ -82.9631036, 39.9708378 ], [ -82.9631013, 39.9708677 ], [ -82.9633474, 39.9708774 ], [ -82.963339, 39.9710037 ], [ -82.9633691, 39.9710037 ], [ -82.9633709, 39.9710356 ], [ -82.9634744, 39.9710397 ], [ -82.963477, 39.9709888 ], [ -82.963654, 39.9709996 ], [ -82.9636448, 39.9711519 ] ] ] } },
{ "type": "Feature", "properties": { "@id": "way/713431748", "amenity": null, "building": "hospital", "name": null, "GEOID": "39049001400" }, "geometry": { "type": "Polygon", "coordinates": [ [ [ -82.9772513, 39.9974756 ], [ -82.9774028, 39.9975691 ], [ -82.9772995, 39.9976636 ], [ -82.977313, 39.9976708 ], [ -82.9771024, 39.9978783 ], [ -82.9770937, 39.9978742 ], [ -82.977028, 39.997979 ], [ -82.9769395, 39.9979467 ], [ -82.9769106, 39.997977 ], [ -82.9768074, 39.9979179 ], [ -82.9769978, 39.9977371 ], [ -82.976975, 39.9977253 ], [ -82.9770635, 39.9976384 ], [ -82.9770058, 39.9976071 ], [ -82.977087, 39.9975301 ], [ -82.9771876, 39.9975932 ], [ -82.9772224, 39.9975614 ], [ -82.9771862, 39.9975429 ], [ -82.9772513, 39.9974756 ] ] ] } },
{ "type": "Feature", "properties": { "@id": "way/726990857", "amenity": null, "building": "hospital", "name": null, "GEOID": "39049001820" }, "geometry": { "type": "Polygon", "coordinates": [ [ [ -83.0093077, 39.9845769 ], [ -83.0093033, 39.9846374 ], [ -83.0094863, 39.9846452 ], [ -83.0094712, 39.9848551 ], [ -83.0090182, 39.984836 ], [ -83.0090135, 39.9849012 ], [ -83.0088793, 39.9848955 ], [ -83.0088768, 39.9849297 ], [ -83.0087676, 39.9849251 ], [ -83.0087701, 39.9848903 ], [ -83.0086628, 39.9848857 ], [ -83.0087042, 39.984312 ], [ -83.0086772, 39.9843108 ], [ -83.0086832, 39.9842274 ], [ -83.0086067, 39.9842241 ], [ -83.0086043, 39.9842596 ], [ -83.0085318, 39.9842567 ], [ -83.0085379, 39.9841664 ], [ -83.0085137, 39.9841654 ], [ -83.0084398, 39.9841625 ], [ -83.0084434, 39.9841087 ], [ -83.0085163, 39.9841116 ], [ -83.0085424, 39.9841126 ], [ -83.0085487, 39.9840201 ], [ -83.0086203, 39.9840229 ], [ -83.0086181, 39.9840559 ], [ -83.0086909, 39.984059 ], [ -83.0086968, 39.983977 ], [ -83.0087317, 39.9839784 ], [ -83.0087346, 39.9839384 ], [ -83.0086723, 39.9839357 ], [ -83.0086909, 39.9836779 ], [ -83.0087385, 39.9836799 ], [ -83.0087583, 39.9834054 ], [ -83.0090502, 39.9834177 ], [ -83.0090206, 39.9838291 ], [ -83.0091162, 39.9838332 ], [ -83.0091362, 39.9835552 ], [ -83.009203, 39.983558 ], [ -83.0092043, 39.9835399 ], [ -83.0092085, 39.9835314 ], [ -83.0092178, 39.9835257 ], [ -83.0092296, 39.9835244 ], [ -83.0092398, 39.9835274 ], [ -83.0092469, 39.9835337 ], [ -83.0092494, 39.9835418 ], [ -83.0092481, 39.9835599 ], [ -83.0093784, 39.9835654 ], [ -83.0093754, 39.983607 ], [ -83.0094205, 39.9836089 ], [ -83.0094284, 39.983607 ], [ -83.0094374, 39.9836068 ], [ -83.0094453, 39.9836094 ], [ -83.0094495, 39.983614 ], [ -83.0094505, 39.9836203 ], [ -83.0094488, 39.9836266 ], [ -83.0094451, 39.983632 ], [ -83.0095093, 39.9836347 ], [ -83.0094947, 39.9838369 ], [ -83.0091688, 39.9838232 ], [ -83.0091301, 39.9838559 ], [ -83.0090096, 39.9838508 ], [ -83.0090044, 39.9839226 ], [ -83.0092905, 39.9839347 ], [ -83.0092911, 39.9839268 ], [ -83.0095285, 39.9839369 ], [ -83.009531, 39.9839022 ], [ -83.0096134, 39.9839057 ], [ -83.0096013, 39.9840738 ], [ -83.0094016, 39.9840654 ], [ -83.0094021, 39.9840593 ], [ -83.009002, 39.9840424 ], [ -83.0089984, 39.9840928 ], [ -83.0090693, 39.9840958 ], [ -83.0090439, 39.9844477 ], [ -83.0092143, 39.9844549 ], [ -83.0092058, 39.9845726 ], [ -83.0093077, 39.9845769 ] ] ] } },
{ "type": "Feature", "properties": { "@id": "way/785590724", "amenity": null, "building": "hospital", "name": null, "GEOID": "39049001820" }, "geometry": { "type": "Polygon", "coordinates": [ [ [ -83.0092391, 39.9844124 ], [ -83.0095379, 39.9844255 ], [ -83.0095265, 39.9845784 ], [ -83.0092276, 39.9845652 ], [ -83.0092391, 39.9844124 ] ] ] } },
{ "type": "Feature", "properties": { "@id": "way/785590725", "amenity": null, "building": "hospital", "name": null, "GEOID": "39049001820" }, "geometry": { "type": "Polygon", "coordinates": [ [ [ -83.0091247, 39.9843501 ], [ -83.0091373, 39.9841756 ], [ -83.0091803, 39.9841774 ], [ -83.0091824, 39.9841487 ], [ -83.0095925, 39.984166 ], [ -83.0095779, 39.9843684 ], [ -83.0095279, 39.9843663 ], [ -83.0091247, 39.9843501 ] ] ] } }
]
}
