{
"type": "FeatureCollection",
"crs": { "type": "name", "properties": { "name": "urn:ogc:def:crs:EPSG::4269" } },
"features": [
{ "type": "Feature", "properties": { "@id": "way/154204679", "building": "hotel", "name": "The Blackwell", "GEOID": "39049001121" }, "geometry": { "type": "Polygon", "coordinates": [ [ [ -83.0163746, 40.0049473 ], [ -83.0164647, 40.0049506 ], [ -83.0164693, 40.0049037 ], [ -83.0164842, 40.0047508 ], [ -83.0164852, 40.004741 ], [ -83.016468, 40.0047394 ], [ -83.016456, 40.0047178 ], [ -83.0164509, 40.0046889 ], [ -83.0164515, 40.0046602 ], [ -83.0164605, 40.0046331 ], [ -83.0164784, 40.004604 ], [ -83.0164963, 40.0046062 ], [ -83.0164979, 40.0045801 ], [ -83.0165513, 40.0045817 ], [ -83.0165523, 40.0045651 ], [ -83.0167659, 40.0045399 ], [ -83.0167589, 40.0046254 ], [ -83.0168297, 40.0046296 ], [ -83.016924, 40.0046335 ], [ -83.0169155, 40.0047485 ], [ -83.0168145, 40.0047457 ], [ -83.0167552, 40.0047432 ], [ -83.0167502, 40.0048076 ], [ -83.0167226, 40.0051252 ], [ -83.0163646, 40.0051095 ], [ -83.0163746, 40.0049473 ] ] ] } },
{ "type": "Feature", "properties": { "@id": "way/423725243", "building": "hotel", "name": "Drury Inn & Suites Columbus Convention Center", "GEOID": "39049003000" }, "geometry": { "type": "Polygon", "coordinates": [ [ [ -82.9994371, 39.9695262 ], [ -82.9994382, 39.969512 ], [ -82.9995728, 39.9695177 ], [ -82.9995718, 39.9695319 ], [ -82.999633, 39.9695345 ], [ -82.999742, 39.9695391 ], [ -82.9997265, 39.9697533 ], [ -82.9997328, 39.9697535 ], [ -82.9997307, 39.9697822 ], [ -82.9997267, 39.9698386 ], [ -82.9997204, 39.9698383 ], [ -82.9997049, 39.9700526 ], [ -82.9995348, 39.9700454 ], [ -82.9995345, 39.9700485 ], [ -82.9993998, 39.9700427 ], [ -82.9994001, 39.9700397 ], [ -82.9992301, 39.9700325 ], [ -82.9992672, 39.9695189 ], [ -82.9994371, 39.9695262 ] ] ] } },
{ "type": "Feature", "properties": { "@id": "way/499964939", "building": "hotel", "name": null, "GEOID": "39049003000" }, "geometry": { "type": "Polygon", "coordinates": [ [ [ -83.0032222, 39.9726113 ], [ -83.0032077, 39.9727737 ], [ -83.0028332, 39.9728193 ], [ -83.0028299, 39.9728021 ], [ -83.0027996, 39.9726449 ], [ -83.002811, 39.9726436 ], [ -83.0028058, 39.9726167 ], [ -83.0027944, 39.972618 ], [ -83.0027885, 39.9725873 ], [ -83.0027577, 39.9724278 ], [ -83.0027389, 39.9724178 ], [ -83.0027273, 39.9724056 ], [ -83.00272, 39.9723909 ], [ -83.0027188, 39.9723751 ], [ -83.0027225, 39.9723582 ], [ -83.0027321, 39.9723436 ], [ -83.002752, 39.9723307 ], [ -83.0027748, 39.9723245 ], [ -83.002798, 39.9723232 ], [ -83.0028176, 39.972328 ], [ -83.0028363, 39.9723388 ], [ -83.0028487, 39.9723504 ], [ -83.0032397, 39.9723721 ], [ -83.0032321, 39.9724757 ], [ -83.0032058, 39.9724744 ], [ -83.0032068, 39.9725313 ], [ -83.0030571, 39.9725235 ], [ -83.0030777, 39.9726279 ], [ -83.0032222, 39.9726113 ] ] ] } },
{ "type": "Feature", "properties": { "@id": "way/599931726", "building": "hotel", "name": "Le Meridien Columbus, The Joseph", "GEOID": "39049003000" }, "geometry": { "type": "Polygon", "coordinates": [ [ [ -83.0029737, 39.9749565 ], [ -83.0029854, 39.9750167 ], [ -83.0029689, 39.9750186 ], [ -83.0029717, 39.9750314 ], [ -83.0029903, 39.9750292 ], [ -83.002998, 39.9750682 ], [ -83.0029887, 39.9750693 ], [ -83.0029794, 39.9750704 ], [ -83.0029823, 39.9750843 ], [ -83.0030217, 39.9750798 ], [ -83.0030509, 39.9752312 ], [ -83.0030311, 39.9752333 ], [ -83.002761, 39.9752641 ], [ -83.0025363, 39.9752895 ], [ -83.0024933, 39.9750668 ], [ -83.0024834, 39.975012 ], [ -83.0026012, 39.9749987 ], [ -83.0029737, 39.9749565 ] ] ] } },
{ "type": "Feature", "properties": { "@id": "way/631023331", "building": "hotel", "name": "SpringHill Suites by Marriott", "GEOID": "39049001901" }, "geometry": { "type": "Polygon", "coordinates": [ [ [ -83.0268942, 39.9890396 ], [ -83.0263568, 39.9890719 ], [ -83.0263553, 39.9890567 ], [ -83.0262234, 39.9890646 ], [ -83.0261677, 39.9885207 ], [ -83.0263757, 39.9885082 ], [ -83.0264166, 39.9889072 ], [ -83.0265581, 39.9888987 ], [ -83.0265567, 39.9888854 ], [ -83.0267691, 39.9888727 ], [ -83.0267704, 39.9888853 ], [ -83.0268568, 39.9888801 ], [ -83.026863, 39.9889407 ], [ -83.0268839, 39.9889395 ], [ -83.0268942, 39.9890396 ] ] ] } },
{ "type": "Feature", "properties": { "@id": "way/631023336", "building": "hotel", "name": "Varsity Inn OSU South", "GEOID": "39049001901" }, "geometry": { "type": "Polygon", "coordinates": [ [ [ -83.0270389, 39.9895168 ], [ -83.0263688, 39.9894916 ], [ -83.0263664, 39.9895292 ], [ -83.0262332, 39.9895242 ], [ -83.0262382, 39.9894461 ], [ -83.0262578, 39.9894468 ], [ -83.0262634, 39.9893586 ], [ -83.0262485, 39.989358 ], [ -83.0262531, 39.9892859 ], [ -83.0264242, 39.9892924 ], [ -83.0264219, 39.9893286 ], [ -83.0270494, 39.9893521 ], [ -83.0270389, 39.9895168 ] ] ] } },
{ "type": "Feature", "properties": { "@id": "way/631023337", "building": "hotel", "name": "Varsity Inn OSU South", "GEOID": "39049001901" }, "geometry": { "type": "Polygon", "coordinates": [ [ [ -83.0269356, 39.9906988 ], [ -83.0269318, 39.9906012 ], [ -83.0269785, 39.9906002 ], [ -83.026957, 39.9900524 ], [ -83.027166, 39.9900476 ], [ -83.0271877, 39.990601 ], [ -83.0272319, 39.9905999 ], [ -83.0272355, 39.9906917 ], [ -83.0271422, 39.9906939 ], [ -83.0271409, 39.9906597 ], [ -83.0270365, 39.9906621 ], [ -83.0270379, 39.9906965 ], [ -83.0269356, 39.9906988 ] ] ] } },
{ "type": "Feature", "properties": { "@id": "way/717324868", "building": "hotel", "name": "Days Inn by Wyndham Columbus Fairgrounds", "GEOID": "39049001400" }, "geometry": { "type": "Polygon", "coordinates": [ [ [ -82.9855912, 40.0002126 ], [ -82.9855995, 40.0000888 ], [ -82.9855623, 40.0000873 ], [ -82.9855971, 39.9995646 ], [ -82.9861582, 39.9995865 ], [ -82.9861692, 39.9994207 ], [ -82.9854001, 39.9993906 ], [ -82.9853543, 40.0000794 ], [ -82.9853152, 40.0000778 ], [ -82.985307, 40.0002015 ], [ -82.9855912, 40.0002126 ] ] ] } },
{ "type": "Feature", "properties": { "@id": "way/784009222", "building": "hotel", "name": "Harrison House", "GEOID": "39049001820" }, "geometry": { "type": "Polygon", "coordinates": [ [ [ -83.014063, 39.9872813 ], [ -83.0140808, 39.9872818 ], [ -83.0140826, 39.9872477 ], [ -83.0140676, 39.9872473 ], [ -83.0140701, 39.9871996 ], [ -83.0142816, 39.9872062 ], [ -83.0142793, 39.9872498 ], [ -83.0142769, 39.9872971 ], [ -83.0142632, 39.9873063 ], [ -83.0141793, 39.9873041 ], [ -83.0141688, 39.9873117 ], [ -83.0141399, 39.987311 ], [ -83.0141396, 39.9873167 ], [ -83.0140613, 39.9873143 ], [ -83.014063, 39.9872813 ] ] ] } },
{ "type": "Feature", "properties": { "@id": "way/1213718199", "building": "hotel", "name": "Comfort Suites", "GEOID": "39049001400" }, "geometry": { "type": "Polygon", "coordinates": [ [ [ -82.9861142, 39.9991846 ], [ -82.9853406, 39.9991543 ], [ -82.9853435, 39.999111 ], [ -82.9853028, 39.9991094 ], [ -82.985307, 39.9990479 ], [ -82.9852792, 39.9990468 ], [ -82.9852832, 39.9989862 ], [ -82.985353, 39.998989 ], [ -82.9853532, 39.9989867 ], [ -82.9854062, 39.9989889 ], [ -82.985409, 39.9989481 ], [ -82.9859203, 39.9989691 ], [ -82.98592, 39.9989734 ], [ -82.9860026, 39.9989766 ], [ -82.986006, 39.9989251 ], [ -82.9861338, 39.9989301 ], [ -82.9861271, 39.9990307 ], [ -82.9862746, 39.9990364 ], [ -82.9862671, 39.9991492 ], [ -82.986117, 39.9991434 ], [ -82.9861142, 39.9991846 ] ] ] } }
]
}
