{
"type": "FeatureCollection",
"crs": { "type": "name", "properties": { "name": "urn:ogc:def:crs:EPSG::4269" } },
"features": [
{ "type": "Feature", "properties": { "@id": "way/32866383", "amenity": null, "building": "office", "name": "One Nationwide Plaza", "GEOID": "39049003000" }, "geometry": { "type": "Polygon", "coordinates": [ [ [ -83.0021184, 39.9685526 ], [ -83.0021304, 39.9686025 ], [ -83.0021333, 39.9686244 ], [ -83.0021398, 39.9686491 ], [ -83.0021417, 39.9686651 ], [ -83.002162, 39.9686766 ], [ -83.0021647, 39.9686897 ], [ -83.0021969, 39.9687079 ], [ -83.0022141, 39.968706 ], [ -83.0022344, 39.9687175 ], [ -83.0023815, 39.9687013 ], [ -83.0027274, 39.9683405 ], [ -83.0028178, 39.9683962 ], [ -83.0028258, 39.9684321 ], [ -83.0027667, 39.9684944 ], [ -83.0027959, 39.9686365 ], [ -83.0028736, 39.9686863 ], [ -83.0030038, 39.9686706 ], [ -83.0030567, 39.9686089 ], [ -83.0030246, 39.9684638 ], [ -83.0029477, 39.9684198 ], [ -83.0029408, 39.9683828 ], [ -83.0033624, 39.9683368 ], [ -83.003233, 39.9676756 ], [ -83.0031121, 39.9676907 ], [ -83.0030622, 39.9676964 ], [ -83.0029148, 39.9677149 ], [ -83.0024833, 39.9677651 ], [ -83.002537, 39.9681174 ], [ -83.0021184, 39.9685526 ] ] ] } },
{ "type": "Feature", "properties": { "@id": "way/32866389", "amenity": null, "building": "office", "name": "280 Plaza", "GEOID": "39049003000" }, "geometry": { "type": "Polygon", "coordinates": [ [ [ -83.0015382, 39.967766 ], [ -83.0015698, 39.9679452 ], [ -83.001554, 39.9679637 ], [ -83.0014685, 39.9679727 ], [ -83.0014811, 39.968043 ], [ -83.0014608, 39.9680636 ], [ -83.0013806, 39.9680708 ], [ -83.0013901, 39.9681333 ], [ -83.0013839, 39.9681462 ], [ -83.0013682, 39.9681546 ], [ -83.001291, 39.9681594 ], [ -83.0012983, 39.9682294 ], [ -83.0012792, 39.9682471 ], [ -83.0012012, 39.9682543 ], [ -83.0012142, 39.9683365 ], [ -83.0011134, 39.9683459 ], [ -83.0010582, 39.968351 ], [ -83.0010447, 39.9683432 ], [ -83.0009819, 39.9680143 ], [ -83.0009434, 39.9678183 ], [ -83.0015142, 39.9677525 ], [ -83.0015382, 39.967766 ] ] ] } },
{ "type": "Feature", "properties": { "@id": "way/158734273", "amenity": null, "building": "office", "name": "Student Academic Services Building", "GEOID": "39049001121" }, "geometry": { "type": "Polygon", "coordinates": [ [ [ -83.0156161, 40.0059011 ], [ -83.015732, 40.0059066 ], [ -83.015734, 40.0058825 ], [ -83.0157973, 40.0058856 ], [ -83.0158018, 40.0058313 ], [ -83.016352, 40.0058579 ], [ -83.0163452, 40.0059405 ], [ -83.0164832, 40.0059472 ], [ -83.0164899, 40.0058653 ], [ -83.0165602, 40.0058687 ], [ -83.0165524, 40.0059477 ], [ -83.0166702, 40.0059532 ], [ -83.0166855, 40.0059539 ], [ -83.0166701, 40.0061444 ], [ -83.0166526, 40.0061436 ], [ -83.0156004, 40.0060936 ], [ -83.0156067, 40.0060006 ], [ -83.0156144, 40.0059186 ], [ -83.0156161, 40.0059011 ] ] ] } },
{ "type": "Feature", "properties": { "@id": "way/195485070", "amenity": null, "building": "office", "name": "Rhodes State Office Tower", "GEOID": "39049003000" }, "geometry": { "type": "Polygon", "coordinates": [ [ [ -82.9991965, 39.9625648 ], [ -82.9992154, 39.9626672 ], [ -82.9990742, 39.9626825 ], [ -82.9991023, 39.962831 ], [ -82.999148, 39.9630835 ], [ -82.9994714, 39.9630496 ], [ -82.9998195, 39.9630099 ], [ -82.9997218, 39.9625076 ], [ -82.9991965, 39.9625648 ] ] ] } },
{ "type": "Feature", "properties": { "@id": "way/374899040", "amenity": null, "building": "office", "name": "American Electric Power", "GEOID": "39049003000" }, "geometry": { "type": "Polygon", "coordinates": [ [ [ -83.0057967, 39.9648441 ], [ -83.0058144, 39.9649444 ], [ -83.0054994, 39.9652699 ], [ -83.0053649, 39.9652862 ], [ -83.0052198, 39.9652048 ], [ -83.0051667, 39.9649227 ], [ -83.0052871, 39.9647979 ], [ -83.0056516, 39.96476 ], [ -83.0057967, 39.9648441 ] ] ] } },
{ "type": "Feature", "properties": { "@id": "way/374900212", "amenity": "bank", "building": "office", "name": "Chase", "GEOID": "39049003000" }, "geometry": { "type": "Polygon", "coordinates": [ [ [ -82.9979233, 39.9632278 ], [ -82.9973513, 39.9632931 ], [ -82.9973148, 39.9631052 ], [ -82.9973993, 39.9630956 ], [ -82.9973611, 39.9628992 ], [ -82.9977642, 39.9628532 ], [ -82.9978023, 39.9630496 ], [ -82.9978868, 39.9630399 ], [ -82.9979233, 39.9632278 ] ] ] } },
{ "type": "Feature", "properties": { "@id": "way/375026195", "amenity": null, "building": "office", "name": "10 West Broad", "GEOID": "39049003000" }, "geometry": { "type": "Polygon", "coordinates": [ [ [ -83.0015632, 39.9625798 ], [ -83.0015386, 39.9624405 ], [ -83.0015381, 39.9624377 ], [ -83.0015288, 39.9623855 ], [ -83.0015139, 39.9623009 ], [ -83.0013965, 39.9623131 ], [ -83.0013643, 39.9623405 ], [ -83.0013242, 39.962321 ], [ -83.0012958, 39.9623483 ], [ -83.001258, 39.9623274 ], [ -83.0012234, 39.962359 ], [ -83.0011819, 39.9623374 ], [ -83.001156, 39.9623649 ], [ -83.0011122, 39.9623465 ], [ -83.0010853, 39.9623723 ], [ -83.0010432, 39.9623538 ], [ -83.0010121, 39.9623798 ], [ -83.000972, 39.9623605 ], [ -83.0008671, 39.9623714 ], [ -83.0008836, 39.962465 ], [ -83.0008913, 39.9625093 ], [ -83.0009158, 39.9626471 ], [ -83.0009814, 39.9626403 ], [ -83.0010506, 39.9626331 ], [ -83.0010869, 39.9626293 ], [ -83.0013832, 39.9625983 ], [ -83.0014206, 39.9625946 ], [ -83.0014905, 39.9625874 ], [ -83.0015632, 39.9625798 ] ] ] } },
{ "type": "Feature", "properties": { "@id": "way/391603374", "amenity": null, "building": "office", "name": "The Continental Plaza", "GEOID": "39049003000" }, "geometry": { "type": "Polygon", "coordinates": [ [ [ -82.9961359, 39.9630436 ], [ -82.9961919, 39.9633542 ], [ -82.9955965, 39.9634173 ], [ -82.9955405, 39.9631067 ], [ -82.9961359, 39.9630436 ] ] ] } },
{ "type": "Feature", "properties": { "@id": "way/441455065", "amenity": null, "building": "office", "name": null, "GEOID": "39049003000" }, "geometry": { "type": "Polygon", "coordinates": [ [ [ -82.9843865, 39.9647116 ], [ -82.9841302, 39.96474 ], [ -82.9840839, 39.9644954 ], [ -82.9842456, 39.9644774 ], [ -82.9843403, 39.9644669 ], [ -82.9843865, 39.9647116 ] ] ] } },
{ "type": "Feature", "properties": { "@id": "way/441455067", "amenity": null, "building": "office", "name": null, "GEOID": "39049003000" }, "geometry": { "type": "Polygon", "coordinates": [ [ [ -82.9841616, 39.9643732 ], [ -82.9842246, 39.9643662 ], [ -82.9842456, 39.9644774 ], [ -82.9840839, 39.9644954 ], [ -82.9840628, 39.9643842 ], [ -82.9841258, 39.9643772 ], [ -82.9841243, 39.9643689 ], [ -82.9841601, 39.9643649 ], [ -82.9841616, 39.9643732 ] ] ] } },
{ "type": "Feature", "properties": { "@id": "way/441455068", "amenity": null, "building": "office", "name": null, "GEOID": "39049003000" }, "geometry": { "type": "Polygon", "coordinates": [ [ [ -82.9838033, 39.9645104 ], [ -82.9837897, 39.9645119 ], [ -82.9837687, 39.9644005 ], [ -82.9839178, 39.9643839 ], [ -82.9839389, 39.9644953 ], [ -82.9839213, 39.9644973 ], [ -82.9839359, 39.9645749 ], [ -82.983818, 39.964588 ], [ -82.9838033, 39.9645104 ] ] ] } },
{ "type": "Feature", "properties": { "@id": "way/453767211", "amenity": null, "building": "office", "name": "Three Nationwide Plaza", "GEOID": "39049003000" }, "geometry": { "type": "Polygon", "coordinates": [ [ [ -83.0033041, 39.9673921 ], [ -83.0031753, 39.9674051 ], [ -83.0029521, 39.9674304 ], [ -83.0028614, 39.9674417 ], [ -83.0028907, 39.9675911 ], [ -83.0026899, 39.967614 ], [ -83.0025769, 39.9676269 ], [ -83.002545, 39.9674639 ], [ -83.0026586, 39.9674509 ], [ -83.0026257, 39.9672831 ], [ -83.0026474, 39.9672806 ], [ -83.0026451, 39.9672687 ], [ -83.0026343, 39.9672699 ], [ -83.0026319, 39.9672577 ], [ -83.0025946, 39.967262 ], [ -83.002571, 39.9671418 ], [ -83.0026083, 39.9671375 ], [ -83.0026055, 39.9671232 ], [ -83.0024766, 39.9671377 ], [ -83.0024588, 39.967045 ], [ -83.0023536, 39.9670571 ], [ -83.0023361, 39.9669679 ], [ -83.0022224, 39.966981 ], [ -83.0022056, 39.9668955 ], [ -83.0020936, 39.9669084 ], [ -83.0020766, 39.9668214 ], [ -83.0019626, 39.9668345 ], [ -83.0019458, 39.9667483 ], [ -83.0020604, 39.9667351 ], [ -83.0021696, 39.9667226 ], [ -83.0022865, 39.9667066 ], [ -83.0023911, 39.9666923 ], [ -83.0024542, 39.9666852 ], [ -83.0025102, 39.9666788 ], [ -83.0026345, 39.9666648 ], [ -83.0026931, 39.9666582 ], [ -83.0027508, 39.9666517 ], [ -83.0027675, 39.9667391 ], [ -83.003106, 39.9667009 ], [ -83.0031698, 39.9666937 ], [ -83.0032215, 39.9669466 ], [ -83.003229, 39.966982 ], [ -83.003282, 39.9672695 ], [ -83.0032887, 39.9673064 ], [ -83.0033041, 39.9673921 ] ] ] } },
{ "type": "Feature", "properties": { "@id": "way/453767217", "amenity": null, "building": "office", "name": "William Green Building", "GEOID": "39049003000" }, "geometry": { "type": "Polygon", "coordinates": [ [ [ -83.0026734, 39.9662761 ], [ -83.0026781, 39.9663003 ], [ -83.0027369, 39.9662937 ], [ -83.0027951, 39.966287 ], [ -83.0029484, 39.9662649 ], [ -83.0030801, 39.9662498 ], [ -83.0030995, 39.9663496 ], [ -83.0031509, 39.9666087 ], [ -83.0031698, 39.9666937 ], [ -83.003106, 39.9667009 ], [ -83.0027675, 39.9667391 ], [ -83.0027508, 39.9666517 ], [ -83.0026931, 39.9666582 ], [ -83.0026345, 39.9666648 ], [ -83.0025102, 39.9666788 ], [ -83.0024542, 39.9666852 ], [ -83.0023911, 39.9666923 ], [ -83.0022865, 39.9667066 ], [ -83.0021696, 39.9667226 ], [ -83.0020604, 39.9667351 ], [ -83.0019458, 39.9667483 ], [ -83.0018341, 39.9667604 ], [ -83.0018171, 39.966674 ], [ -83.0017021, 39.9666872 ], [ -83.0016495, 39.9664175 ], [ -83.0017776, 39.9664028 ], [ -83.0022186, 39.9663523 ], [ -83.0022754, 39.9663458 ], [ -83.0023308, 39.9663396 ], [ -83.0023262, 39.9663158 ], [ -83.0023822, 39.9663095 ], [ -83.0024411, 39.9663028 ], [ -83.0025634, 39.9662886 ], [ -83.0026212, 39.966282 ], [ -83.0026734, 39.9662761 ] ] ] } },
{ "type": "Feature", "properties": { "@id": "way/462802165", "amenity": null, "building": "office", "name": null, "GEOID": "39049003200" }, "geometry": { "type": "Polygon", "coordinates": [ [ [ -83.0153924, 39.9667103 ], [ -83.0153886, 39.9666894 ], [ -83.0151419, 39.966716 ], [ -83.0150967, 39.9664689 ], [ -83.0154807, 39.9664276 ], [ -83.0154789, 39.9664176 ], [ -83.0155106, 39.9664142 ], [ -83.0155102, 39.9664129 ], [ -83.0155115, 39.9664059 ], [ -83.015516, 39.9663997 ], [ -83.015523, 39.9663953 ], [ -83.0155317, 39.966393 ], [ -83.0155409, 39.9663934 ], [ -83.0155493, 39.9663962 ], [ -83.0155558, 39.9664012 ], [ -83.0155595, 39.9664076 ], [ -83.0155596, 39.966409 ], [ -83.0155919, 39.9664055 ], [ -83.0155937, 39.9664155 ], [ -83.0159777, 39.9663742 ], [ -83.016023, 39.9666212 ], [ -83.0157763, 39.9666478 ], [ -83.0157801, 39.9666687 ], [ -83.0155825, 39.9666899 ], [ -83.0153924, 39.9667103 ] ] ] } },
{ "type": "Feature", "properties": { "@id": "way/462802167", "amenity": null, "building": "office", "name": null, "GEOID": "39049003200" }, "geometry": { "type": "Polygon", "coordinates": [ [ [ -83.016423, 39.9664472 ], [ -83.0164216, 39.9664393 ], [ -83.0165994, 39.9664202 ], [ -83.0166008, 39.9664281 ], [ -83.0167785, 39.966409 ], [ -83.0168132, 39.9665985 ], [ -83.0162801, 39.9666558 ], [ -83.0162454, 39.9664663 ], [ -83.016423, 39.9664472 ] ] ] } },
{ "type": "Feature", "properties": { "@id": "way/471898124", "amenity": null, "building": "office", "name": "Battelle Memorial Institute", "GEOID": "39049001820" }, "geometry": { "type": "Polygon", "coordinates": [ [ [ -83.0211496, 39.9896757 ], [ -83.021116, 39.9902726 ], [ -83.0208557, 39.9902602 ], [ -83.0208811, 39.9897733 ], [ -83.0208528, 39.9897717 ], [ -83.0208492, 39.9898344 ], [ -83.020204, 39.9898094 ], [ -83.0201998, 39.9898804 ], [ -83.0203147, 39.9898845 ], [ -83.0202876, 39.9903041 ], [ -83.0202688, 39.9903053 ], [ -83.0202677, 39.9904422 ], [ -83.0201566, 39.9904359 ], [ -83.0201537, 39.9904575 ], [ -83.0200821, 39.990455 ], [ -83.0200825, 39.9904711 ], [ -83.0198712, 39.9904655 ], [ -83.0198723, 39.9904478 ], [ -83.0198002, 39.9904453 ], [ -83.0197987, 39.9904249 ], [ -83.0196935, 39.9904199 ], [ -83.0197015, 39.9902782 ], [ -83.0196875, 39.9902762 ], [ -83.019694, 39.9901748 ], [ -83.0197518, 39.9901739 ], [ -83.019751, 39.9901441 ], [ -83.0198415, 39.9901461 ], [ -83.01984, 39.9901769 ], [ -83.0198869, 39.99018 ], [ -83.0198812, 39.9902711 ], [ -83.020103, 39.9902782 ], [ -83.0201218, 39.9898796 ], [ -83.0201627, 39.9898809 ], [ -83.0201678, 39.9898091 ], [ -83.0201304, 39.9898071 ], [ -83.0201502, 39.9895064 ], [ -83.0201643, 39.9893097 ], [ -83.0198926, 39.9893013 ], [ -83.0199033, 39.989076 ], [ -83.0200934, 39.9890829 ], [ -83.020098, 39.9890018 ], [ -83.0202176, 39.9890058 ], [ -83.0202278, 39.9888332 ], [ -83.0204253, 39.9888401 ], [ -83.0203839, 39.9895346 ], [ -83.0205032, 39.9895388 ], [ -83.0205497, 39.9887782 ], [ -83.0208369, 39.9887885 ], [ -83.0207901, 39.989547 ], [ -83.0208873, 39.9895505 ], [ -83.020933, 39.9888254 ], [ -83.0212941, 39.9888389 ], [ -83.021273, 39.989172 ], [ -83.0214468, 39.9891785 ], [ -83.0214689, 39.9888335 ], [ -83.0216188, 39.9888391 ], [ -83.021598, 39.9891612 ], [ -83.0217586, 39.9891673 ], [ -83.0217849, 39.9887634 ], [ -83.0220064, 39.9887719 ], [ -83.0219841, 39.9891129 ], [ -83.0220585, 39.9891158 ], [ -83.0220783, 39.9888183 ], [ -83.0223832, 39.9888301 ], [ -83.0223766, 39.9889282 ], [ -83.0226876, 39.9889403 ], [ -83.0226775, 39.9890925 ], [ -83.0223494, 39.9890796 ], [ -83.0223395, 39.9892285 ], [ -83.0226956, 39.9892425 ], [ -83.0226674, 39.9896642 ], [ -83.0218001, 39.9896303 ], [ -83.0217905, 39.9897735 ], [ -83.0217033, 39.9897701 ], [ -83.0216923, 39.9899355 ], [ -83.0224094, 39.9899633 ], [ -83.0224067, 39.9900046 ], [ -83.0226749, 39.9900148 ], [ -83.0226654, 39.9901599 ], [ -83.0224439, 39.9901514 ], [ -83.0224327, 39.9903245 ], [ -83.0214924, 39.9902889 ], [ -83.021502, 39.9901398 ], [ -83.0213817, 39.9901353 ], [ -83.0213957, 39.9899139 ], [ -83.0216573, 39.9899237 ], [ -83.0216567, 39.9897906 ], [ -83.021614, 39.9897707 ], [ -83.0215803, 39.9897428 ], [ -83.021556, 39.9897141 ], [ -83.0215364, 39.989672 ], [ -83.0211911, 39.9896375 ], [ -83.0211909, 39.9896536 ], [ -83.0211392, 39.9896513 ], [ -83.0211362, 39.9896747 ], [ -83.0211496, 39.9896757 ] ] ] } },
{ "type": "Feature", "properties": { "@id": "way/474395701", "amenity": null, "building": "office", "name": null, "GEOID": "39049001901" }, "geometry": { "type": "Polygon", "coordinates": [ [ [ -83.0233676, 39.9809849 ], [ -83.0231742, 39.9802861 ], [ -83.023606, 39.9802159 ], [ -83.0237994, 39.9809147 ], [ -83.0233676, 39.9809849 ] ] ] } },
{ "type": "Feature", "properties": { "@id": "way/747886086", "amenity": null, "building": "office", "name": "White Castle Home Office", "GEOID": "39049003200" }, "geometry": { "type": "Polygon", "coordinates": [ [ [ -83.0175815, 39.9720471 ], [ -83.0170079, 39.9724915 ], [ -83.0169501, 39.9725363 ], [ -83.0166185, 39.9727932 ], [ -83.0168409, 39.9729768 ], [ -83.0171737, 39.9732517 ], [ -83.0173479, 39.9732886 ], [ -83.0174673, 39.973101 ], [ -83.0176183, 39.97293 ], [ -83.0178358, 39.9727831 ], [ -83.0180962, 39.9726984 ], [ -83.0180507, 39.9725342 ], [ -83.0179636, 39.9725599 ], [ -83.0178986, 39.9724885 ], [ -83.017934, 39.9724644 ], [ -83.0180159, 39.9724089 ], [ -83.0175815, 39.9720471 ] ] ] } },
{ "type": "Feature", "properties": { "@id": "way/918044386", "amenity": null, "building": "office", "name": null, "GEOID": "39049001300" }, "geometry": { "type": "Polygon", "coordinates": [ [ [ -83.0078151, 39.9994516 ], [ -83.0074513, 39.9994322 ], [ -83.0074686, 39.999249 ], [ -83.0077789, 39.9992662 ], [ -83.0078151, 39.9994516 ] ] ] } },
{ "type": "Feature", "properties": { "@id": "way/984556693", "amenity": null, "building": "office", "name": null, "GEOID": "39049001600" }, "geometry": { "type": "Polygon", "coordinates": [ [ [ -83.0011185, 39.9946996 ], [ -83.0008607, 39.9946895 ], [ -83.0008505, 39.9948454 ], [ -83.0011083, 39.9948555 ], [ -83.0011185, 39.9946996 ] ] ] } }
]
}
