{
"type": "FeatureCollection",
"crs": { "type": "name", "properties": { "name": "urn:ogc:def:crs:EPSG::4269" } },
"features": [
{ "type": "Feature", "properties": { "@id": "way/38917471", "amenity": null, "building": "university", "name": "Math Tower", "GEOID": "39049001121" }, "geometry": { "type": "Polygon", "coordinates": [ [ [ -83.0143384, 40.0016901 ], [ -83.0143365, 40.0016762 ], [ -83.0143164, 40.0016784 ], [ -83.0142593, 40.0013865 ], [ -83.0142829, 40.0013844 ], [ -83.0142806, 40.0013741 ], [ -83.0145099, 40.0013466 ], [ -83.0145306, 40.0014509 ], [ -83.0145522, 40.001557 ], [ -83.0145717, 40.0016662 ], [ -83.0145033, 40.0016736 ], [ -83.0144554, 40.0016788 ], [ -83.0144348, 40.0016798 ], [ -83.0143552, 40.0016884 ], [ -83.0143384, 40.0016901 ] ] ] } },
{ "type": "Feature", "properties": { "@id": "way/50058180", "amenity": null, "building": "university", "name": "University Hall", "GEOID": "39049001121" }, "geometry": { "type": "Polygon", "coordinates": [ [ [ -83.0148185, 40.0003819 ], [ -83.0148287, 40.0004344 ], [ -83.0148341, 40.0004621 ], [ -83.0148389, 40.0004867 ], [ -83.0148494, 40.0005404 ], [ -83.0147073, 40.0005567 ], [ -83.0147037, 40.0005383 ], [ -83.0146731, 40.0005418 ], [ -83.0146447, 40.0005451 ], [ -83.0145678, 40.0005538 ], [ -83.0145923, 40.0006798 ], [ -83.0145083, 40.0006894 ], [ -83.0144677, 40.000694 ], [ -83.0144306, 40.0006983 ], [ -83.0143435, 40.0007082 ], [ -83.0143211, 40.0005929 ], [ -83.0142635, 40.0005995 ], [ -83.0142342, 40.0006028 ], [ -83.0141979, 40.000607 ], [ -83.0142025, 40.0006303 ], [ -83.01419, 40.0006317 ], [ -83.0140293, 40.00065 ], [ -83.0139942, 40.0004694 ], [ -83.0141672, 40.0004496 ], [ -83.0141705, 40.0004669 ], [ -83.0142865, 40.0004537 ], [ -83.0142811, 40.0004258 ], [ -83.014359, 40.0004169 ], [ -83.0143543, 40.0003926 ], [ -83.0144085, 40.0003864 ], [ -83.0144591, 40.0003806 ], [ -83.0144645, 40.0004082 ], [ -83.014539, 40.0003997 ], [ -83.0145458, 40.0004348 ], [ -83.0146731, 40.0004202 ], [ -83.014669, 40.000399 ], [ -83.0148185, 40.0003819 ] ] ] } },
{ "type": "Feature", "properties": { "@id": "way/50058181", "amenity": null, "building": "university", "name": "Dulles Hall", "GEOID": "39049001121" }, "geometry": { "type": "Polygon", "coordinates": [ [ [ -83.0146392, 40.000987 ], [ -83.0146795, 40.0011717 ], [ -83.0141759, 40.0012338 ], [ -83.0141526, 40.0011138 ], [ -83.014147, 40.0010848 ], [ -83.0141392, 40.0010445 ], [ -83.0144977, 40.0010033 ], [ -83.0145189, 40.0010009 ], [ -83.0145607, 40.0009961 ], [ -83.0146392, 40.000987 ] ] ] } },
{ "type": "Feature", "properties": { "@id": "way/140338936", "amenity": null, "building": "university", "name": "Orton Hall", "GEOID": "39049001121" }, "geometry": { "type": "Polygon", "coordinates": [ [ [ -83.0120185, 39.9984688 ], [ -83.0119715, 39.9984753 ], [ -83.0119244, 39.9984817 ], [ -83.0117304, 39.9985082 ], [ -83.011724, 39.9984816 ], [ -83.0117208, 39.9984679 ], [ -83.0117137, 39.9984382 ], [ -83.0117002, 39.9984373 ], [ -83.0116867, 39.998435 ], [ -83.0116739, 39.9984256 ], [ -83.011668, 39.9984141 ], [ -83.0116683, 39.9984013 ], [ -83.0116745, 39.9983885 ], [ -83.0116854, 39.9983818 ], [ -83.0116971, 39.9983796 ], [ -83.0116836, 39.9983063 ], [ -83.011828, 39.9982858 ], [ -83.0118098, 39.9981988 ], [ -83.0117971, 39.9981385 ], [ -83.012002, 39.9981085 ], [ -83.0120355, 39.9982544 ], [ -83.0121602, 39.9982389 ], [ -83.0122072, 39.9984454 ], [ -83.0120895, 39.9984595 ], [ -83.0120889, 39.9984747 ], [ -83.0120802, 39.9984876 ], [ -83.0120623, 39.9984942 ], [ -83.0120444, 39.9984928 ], [ -83.0120292, 39.998488 ], [ -83.0120215, 39.9984791 ], [ -83.0120185, 39.9984688 ] ] ] } },
{ "type": "Feature", "properties": { "@id": "way/140338939", "amenity": null, "building": "university", "name": "Bricker Hall", "GEOID": "39049001121" }, "geometry": { "type": "Polygon", "coordinates": [ [ [ -83.0135802, 40.0007421 ], [ -83.0135834, 40.0007574 ], [ -83.01356, 40.0007604 ], [ -83.0135334, 40.0007638 ], [ -83.0133083, 40.00079 ], [ -83.0132835, 40.0007936 ], [ -83.0132528, 40.000798 ], [ -83.0132502, 40.0007859 ], [ -83.0131106, 40.000803 ], [ -83.0130882, 40.0006959 ], [ -83.0130828, 40.0006702 ], [ -83.0130781, 40.0006479 ], [ -83.0130545, 40.000535 ], [ -83.0131993, 40.0005172 ], [ -83.0133534, 40.0004983 ], [ -83.0134494, 40.0004865 ], [ -83.0136601, 40.0004606 ], [ -83.0136863, 40.0005857 ], [ -83.0136908, 40.0006072 ], [ -83.0136938, 40.0006213 ], [ -83.0137156, 40.0007255 ], [ -83.0135802, 40.0007421 ] ] ] } },
{ "type": "Feature", "properties": { "@id": "way/154204210", "amenity": null, "building": "university", "name": "Baker Systems Engineering Building", "GEOID": "39049001121" }, "geometry": { "type": "Polygon", "coordinates": [ [ [ -83.0161266, 40.0018823 ], [ -83.0159084, 40.0019094 ], [ -83.0158671, 40.0019141 ], [ -83.0158444, 40.0019174 ], [ -83.0158155, 40.0019205 ], [ -83.0157359, 40.0014879 ], [ -83.0157088, 40.001347 ], [ -83.015703, 40.0013167 ], [ -83.016011, 40.0012819 ], [ -83.0161266, 40.0018823 ] ] ] } },
{ "type": "Feature", "properties": { "@id": "way/154204218", "amenity": null, "building": "university", "name": "Bolz Hall", "GEOID": "39049001121" }, "geometry": { "type": "Polygon", "coordinates": [ [ [ -83.0151999, 40.0031488 ], [ -83.0151347, 40.0031566 ], [ -83.0151251, 40.0031095 ], [ -83.0150036, 40.0031241 ], [ -83.0150528, 40.0033653 ], [ -83.0151621, 40.0033522 ], [ -83.0151803, 40.0034414 ], [ -83.0150747, 40.003454 ], [ -83.0150616, 40.0034556 ], [ -83.0150662, 40.0034779 ], [ -83.0150393, 40.0034811 ], [ -83.015035, 40.0034596 ], [ -83.0150086, 40.0034628 ], [ -83.0150131, 40.0034849 ], [ -83.0149822, 40.0034886 ], [ -83.0149779, 40.0034673 ], [ -83.0149538, 40.0034702 ], [ -83.0149579, 40.0034904 ], [ -83.0149283, 40.0034939 ], [ -83.0149242, 40.0034732 ], [ -83.0147697, 40.0034916 ], [ -83.0146495, 40.0028967 ], [ -83.0147065, 40.00289 ], [ -83.0148952, 40.0028676 ], [ -83.0149105, 40.0028658 ], [ -83.0153734, 40.0028109 ], [ -83.0154084, 40.0028068 ], [ -83.015414, 40.0028346 ], [ -83.0154222, 40.0028752 ], [ -83.0154501, 40.002872 ], [ -83.0154553, 40.0028998 ], [ -83.0154605, 40.0029272 ], [ -83.015433, 40.0029305 ], [ -83.0154775, 40.003149 ], [ -83.015452, 40.0031528 ], [ -83.0154565, 40.0031707 ], [ -83.0154599, 40.0031912 ], [ -83.0152566, 40.003215 ], [ -83.0152484, 40.0031744 ], [ -83.0152061, 40.0031795 ], [ -83.0151999, 40.0031488 ] ] ] } },
{ "type": "Feature", "properties": { "@id": "way/154204357", "amenity": null, "building": "university", "name": "Celeste Laboratory of Chemistry", "GEOID": "39049001121" }, "geometry": { "type": "Polygon", "coordinates": [ [ [ -83.0117352, 40.0028953 ], [ -83.0116056, 40.0029095 ], [ -83.0116045, 40.0029002 ], [ -83.0115535, 40.0026471 ], [ -83.0115508, 40.0026341 ], [ -83.0115482, 40.0026213 ], [ -83.0115383, 40.0025723 ], [ -83.0115872, 40.0025669 ], [ -83.0115777, 40.0025097 ], [ -83.0116016, 40.0025071 ], [ -83.0118079, 40.0024849 ], [ -83.0119256, 40.0024723 ], [ -83.0119344, 40.0025244 ], [ -83.0119879, 40.0025204 ], [ -83.0119971, 40.0025657 ], [ -83.0120005, 40.0025823 ], [ -83.0120037, 40.0025981 ], [ -83.0120049, 40.0026041 ], [ -83.0120543, 40.0028471 ], [ -83.0120567, 40.0028579 ], [ -83.0119296, 40.0028705 ], [ -83.0119403, 40.002927 ], [ -83.011746, 40.0029489 ], [ -83.0117352, 40.0028953 ] ] ] } },
{ "type": "Feature", "properties": { "@id": "way/154204363", "amenity": null, "building": "university", "name": "Enarson Classroom Building", "GEOID": "39049001121" }, "geometry": { "type": "Polygon", "coordinates": [ [ [ -83.0171216, 40.0023355 ], [ -83.0170932, 40.0023387 ], [ -83.0171015, 40.0023749 ], [ -83.0169753, 40.0023899 ], [ -83.0167675, 40.0024144 ], [ -83.0167585, 40.0023693 ], [ -83.0166737, 40.0023788 ], [ -83.016668, 40.0023488 ], [ -83.0165999, 40.0023564 ], [ -83.0165909, 40.0023091 ], [ -83.0165818, 40.0022616 ], [ -83.0165351, 40.0022669 ], [ -83.0165249, 40.0022134 ], [ -83.0165149, 40.0021607 ], [ -83.01657, 40.0021545 ], [ -83.0165614, 40.0021097 ], [ -83.0165514, 40.0020573 ], [ -83.0166064, 40.0020512 ], [ -83.0166016, 40.0020258 ], [ -83.0166164, 40.0020241 ], [ -83.0167097, 40.0020139 ], [ -83.017018, 40.0019792 ], [ -83.0170488, 40.0019757 ], [ -83.0170718, 40.0020874 ], [ -83.017131, 40.0020805 ], [ -83.0171349, 40.0020993 ], [ -83.017167, 40.0020956 ], [ -83.0171842, 40.0021858 ], [ -83.0171529, 40.0021893 ], [ -83.0171565, 40.0022083 ], [ -83.017098, 40.002215 ], [ -83.0171216, 40.0023355 ] ] ] } },
{ "type": "Feature", "properties": { "@id": "way/154204365", "amenity": null, "building": "university", "name": "Cockins Hall", "GEOID": "39049001121" }, "geometry": { "type": "Polygon", "coordinates": [ [ [ -83.0148659, 40.0009964 ], [ -83.0150762, 40.0009719 ], [ -83.0151191, 40.0011881 ], [ -83.0151654, 40.0014217 ], [ -83.0151841, 40.0015157 ], [ -83.0149729, 40.0015403 ], [ -83.0149686, 40.0015243 ], [ -83.0149431, 40.0013933 ], [ -83.014883, 40.0010844 ], [ -83.0148659, 40.0009964 ] ] ] } },
{ "type": "Feature", "properties": { "@id": "way/154204395", "amenity": null, "building": "university", "name": "Denney Hall", "GEOID": "39049001121" }, "geometry": { "type": "Polygon", "coordinates": [ [ [ -83.0120719, 40.0012846 ], [ -83.0123736, 40.001249 ], [ -83.0123844, 40.0012477 ], [ -83.0123977, 40.0012461 ], [ -83.0128151, 40.001197 ], [ -83.0128607, 40.0011916 ], [ -83.0129649, 40.0011793 ], [ -83.0129743, 40.001226 ], [ -83.013, 40.001354 ], [ -83.0129146, 40.0013658 ], [ -83.0121071, 40.0014593 ], [ -83.0120975, 40.0014116 ], [ -83.0120897, 40.001373 ], [ -83.0120816, 40.0013326 ], [ -83.0120719, 40.0012846 ] ] ] } },
{ "type": "Feature", "properties": { "@id": "way/154204411", "amenity": null, "building": "university", "name": "Newman & Wolfrom Lab of Chemistry", "GEOID": "39049001121" }, "geometry": { "type": "Polygon", "coordinates": [ [ [ -83.0115127, 40.0025008 ], [ -83.0114586, 40.0025054 ], [ -83.0114611, 40.0025225 ], [ -83.0114948, 40.0025399 ], [ -83.0115048, 40.00259 ], [ -83.0112648, 40.0026181 ], [ -83.0112547, 40.0025677 ], [ -83.0113733, 40.0025538 ], [ -83.0113675, 40.0025275 ], [ -83.0113432, 40.0025305 ], [ -83.011311, 40.0023695 ], [ -83.011107, 40.0023934 ], [ -83.0111042, 40.0023792 ], [ -83.0110255, 40.0023884 ], [ -83.011002, 40.0022814 ], [ -83.0109992, 40.0022675 ], [ -83.011062, 40.0022603 ], [ -83.0110957, 40.002255 ], [ -83.0111311, 40.0022506 ], [ -83.0115079, 40.002208 ], [ -83.0115268, 40.0023064 ], [ -83.011533, 40.0023386 ], [ -83.0115364, 40.0023766 ], [ -83.0115348, 40.0024106 ], [ -83.0114984, 40.0024143 ], [ -83.0115127, 40.0025008 ] ] ] } },
{ "type": "Feature", "properties": { "@id": "way/154204412", "amenity": null, "building": "university", "name": "Faculty Club", "GEOID": "39049001121" }, "geometry": { "type": "Polygon", "coordinates": [ [ [ -83.0124526, 39.9981882 ], [ -83.0124702, 39.998186 ], [ -83.0124634, 39.9981413 ], [ -83.0125976, 39.9981301 ], [ -83.0126035, 39.9981806 ], [ -83.0126974, 39.9981741 ], [ -83.0127155, 39.9981849 ], [ -83.0129401, 39.9981645 ], [ -83.012973, 39.9981814 ], [ -83.0129815, 39.9982452 ], [ -83.0129542, 39.9982698 ], [ -83.0129568, 39.9983141 ], [ -83.0129598, 39.9983637 ], [ -83.0124783, 39.9983992 ], [ -83.0124722, 39.998343 ], [ -83.0124381, 39.9983459 ], [ -83.0124289, 39.9982717 ], [ -83.012461, 39.9982686 ], [ -83.0124526, 39.9981882 ] ] ] } },
{ "type": "Feature", "properties": { "@id": "way/154204440", "amenity": null, "building": "university", "name": "Hayes Hall", "GEOID": "39049001121" }, "geometry": { "type": "Polygon", "coordinates": [ [ [ -83.0112551, 40.0005557 ], [ -83.011277, 40.0006714 ], [ -83.0113013, 40.0007944 ], [ -83.0112228, 40.0008038 ], [ -83.0111436, 40.0008128 ], [ -83.011139, 40.0007887 ], [ -83.01112, 40.0006887 ], [ -83.0111038, 40.0006033 ], [ -83.0111012, 40.0005895 ], [ -83.0110987, 40.0005762 ], [ -83.0110404, 40.0005838 ], [ -83.0110176, 40.0005868 ], [ -83.0110139, 40.0005702 ], [ -83.0108826, 40.0005854 ], [ -83.0108562, 40.0004523 ], [ -83.0109843, 40.0004375 ], [ -83.0109817, 40.0004255 ], [ -83.0110207, 40.0004204 ], [ -83.0111315, 40.0004059 ], [ -83.0112561, 40.0003896 ], [ -83.0112909, 40.000385 ], [ -83.0112946, 40.0004015 ], [ -83.0114289, 40.0003859 ], [ -83.0114553, 40.000519 ], [ -83.0113241, 40.0005342 ], [ -83.0113268, 40.0005464 ], [ -83.0112551, 40.0005557 ] ] ] } },
{ "type": "Feature", "properties": { "@id": "way/154204443", "amenity": null, "building": "university", "name": "Hitchcock Hall", "GEOID": "39049001121" }, "geometry": { "type": "Polygon", "coordinates": [ [ [ -83.0151535, 40.0036187 ], [ -83.0151482, 40.0035923 ], [ -83.0151432, 40.0035677 ], [ -83.0150936, 40.0035737 ], [ -83.015086, 40.0035371 ], [ -83.0152479, 40.0035201 ], [ -83.015182, 40.0031798 ], [ -83.0152061, 40.0031795 ], [ -83.0152484, 40.0031744 ], [ -83.0152566, 40.003215 ], [ -83.0154599, 40.0031912 ], [ -83.0155035, 40.0031863 ], [ -83.0155053, 40.0031948 ], [ -83.0155717, 40.003511 ], [ -83.0155757, 40.0035104 ], [ -83.0155956, 40.0035076 ], [ -83.0156033, 40.0035411 ], [ -83.0156119, 40.0035789 ], [ -83.0155853, 40.003582 ], [ -83.0156132, 40.0037127 ], [ -83.0155818, 40.0037166 ], [ -83.0156029, 40.0038148 ], [ -83.0153393, 40.0038458 ], [ -83.015328, 40.0037897 ], [ -83.0153134, 40.0037916 ], [ -83.0153003, 40.0037934 ], [ -83.0153123, 40.0038474 ], [ -83.015196, 40.003861 ], [ -83.0151884, 40.0038365 ], [ -83.014826, 40.0038556 ], [ -83.014795, 40.0036828 ], [ -83.0148816, 40.0036673 ], [ -83.0151535, 40.0036187 ] ] ] } },
{ "type": "Feature", "properties": { "@id": "way/154204447", "amenity": null, "building": "university", "name": "Hopkins Hall", "GEOID": "39049001121" }, "geometry": { "type": "Polygon", "coordinates": [ [ [ -83.0112179, 40.0011085 ], [ -83.0111593, 40.0011152 ], [ -83.0111124, 40.0011213 ], [ -83.0109967, 40.0011347 ], [ -83.010977, 40.0010401 ], [ -83.0111452, 40.001021 ], [ -83.0111865, 40.0010164 ], [ -83.011183, 40.0009985 ], [ -83.0112195, 40.0009944 ], [ -83.0112102, 40.0009462 ], [ -83.011251, 40.0009427 ], [ -83.0115253, 40.0009101 ], [ -83.0116882, 40.0008921 ], [ -83.0116583, 40.0007368 ], [ -83.0115942, 40.0007441 ], [ -83.0115414, 40.0004705 ], [ -83.011612, 40.0004625 ], [ -83.0116551, 40.0004576 ], [ -83.0117041, 40.000452 ], [ -83.0117745, 40.0004441 ], [ -83.0117794, 40.0004697 ], [ -83.0117879, 40.0005136 ], [ -83.0117923, 40.0005364 ], [ -83.0118287, 40.0007253 ], [ -83.0118418, 40.0007929 ], [ -83.0118581, 40.0008777 ], [ -83.0118703, 40.0009406 ], [ -83.0118886, 40.0010359 ], [ -83.0117798, 40.0010482 ], [ -83.0117814, 40.0010567 ], [ -83.0117263, 40.0010622 ], [ -83.0114794, 40.0010912 ], [ -83.0113161, 40.0011103 ], [ -83.0112386, 40.0011188 ], [ -83.0112201, 40.0011203 ], [ -83.0112179, 40.0011085 ] ] ] } },
{ "type": "Feature", "properties": { "@id": "way/154204452", "amenity": null, "building": "university", "name": "Hughes Hall", "GEOID": "39049001121" }, "geometry": { "type": "Polygon", "coordinates": [ [ [ -83.0110197, 40.0008007 ], [ -83.0110439, 40.0008177 ], [ -83.0110593, 40.0008383 ], [ -83.0110724, 40.0008661 ], [ -83.0110825, 40.0008956 ], [ -83.0110855, 40.0009257 ], [ -83.0110809, 40.0009552 ], [ -83.0110724, 40.0009799 ], [ -83.0110561, 40.0010015 ], [ -83.0109691, 40.0010108 ], [ -83.010977, 40.0010401 ], [ -83.0109009, 40.0010477 ], [ -83.0108615, 40.0010516 ], [ -83.010871, 40.0011059 ], [ -83.0108802, 40.0011587 ], [ -83.0106737, 40.0011799 ], [ -83.0106631, 40.0011197 ], [ -83.0106592, 40.0010975 ], [ -83.0106505, 40.0010429 ], [ -83.010594, 40.0007271 ], [ -83.0105884, 40.0006942 ], [ -83.0105824, 40.0006602 ], [ -83.0105719, 40.0006 ], [ -83.0106101, 40.0005601 ], [ -83.0107247, 40.0005442 ], [ -83.0107785, 40.0005787 ], [ -83.0108145, 40.0007838 ], [ -83.0109225, 40.0007715 ], [ -83.0109301, 40.0008103 ], [ -83.0110197, 40.0008007 ] ] ] } },
{ "type": "Feature", "properties": { "@id": "way/154204472", "amenity": null, "building": "university", "name": "Drinko Hall", "GEOID": "39049001121" }, "geometry": { "type": "Polygon", "coordinates": [ [ [ -83.0081621, 39.9956491 ], [ -83.0081677, 39.995603 ], [ -83.0084524, 39.995607 ], [ -83.0085236, 39.9959796 ], [ -83.0085322, 39.9960244 ], [ -83.0086075, 39.9961363 ], [ -83.008619, 39.9961534 ], [ -83.0087298, 39.996285 ], [ -83.0088219, 39.9963518 ], [ -83.0088568, 39.9963771 ], [ -83.0089328, 39.9964322 ], [ -83.0089526, 39.9964465 ], [ -83.0091067, 39.9965597 ], [ -83.009102, 39.9965638 ], [ -83.009137, 39.9965883 ], [ -83.0091373, 39.9965916 ], [ -83.0091359, 39.9965946 ], [ -83.0091318, 39.9965964 ], [ -83.009128, 39.9965964 ], [ -83.0090871, 39.9965836 ], [ -83.0090835, 39.9965886 ], [ -83.0089042, 39.9965264 ], [ -83.0088186, 39.9964991 ], [ -83.0087804, 39.9964977 ], [ -83.0084819, 39.9964871 ], [ -83.0079803, 39.9965456 ], [ -83.0079858, 39.9964686 ], [ -83.0079319, 39.9964754 ], [ -83.0079245, 39.9964413 ], [ -83.007859, 39.9961405 ], [ -83.0078456, 39.9960791 ], [ -83.0078377, 39.9960426 ], [ -83.0077631, 39.9957001 ], [ -83.0077832, 39.9956976 ], [ -83.0077955, 39.995696 ], [ -83.0078053, 39.9956948 ], [ -83.008115, 39.9956551 ], [ -83.0081243, 39.9956539 ], [ -83.0081442, 39.9956514 ], [ -83.0081621, 39.9956491 ] ] ] } },
{ "type": "Feature", "properties": { "@id": "way/154204554", "amenity": null, "building": "university", "name": "MacQuigg Laboratory", "GEOID": "39049001121" }, "geometry": { "type": "Polygon", "coordinates": [ [ [ -83.011972, 40.0036022 ], [ -83.0117084, 40.0036302 ], [ -83.0115176, 40.0036505 ], [ -83.0114775, 40.0036547 ], [ -83.0114439, 40.0036583 ], [ -83.0114421, 40.0036585 ], [ -83.0114349, 40.003619 ], [ -83.0114141, 40.0036213 ], [ -83.0114104, 40.0036008 ], [ -83.0113753, 40.0036045 ], [ -83.0113525, 40.0034903 ], [ -83.0113854, 40.0034865 ], [ -83.0114516, 40.0034787 ], [ -83.0116589, 40.0034578 ], [ -83.0117077, 40.0034526 ], [ -83.0117828, 40.0034433 ], [ -83.0118741, 40.0034334 ], [ -83.0119403, 40.0034276 ], [ -83.0119559, 40.0035134 ], [ -83.0119695, 40.0035886 ], [ -83.0119708, 40.0035956 ], [ -83.011972, 40.0036022 ] ] ] } },
{ "type": "Feature", "properties": { "@id": "way/154204575", "amenity": null, "building": "university", "name": "McPherson Chemical Laboratory", "GEOID": "39049001121" }, "geometry": { "type": "Polygon", "coordinates": [ [ [ -83.0121031, 40.0021364 ], [ -83.012398, 40.0021028 ], [ -83.0124117, 40.0021733 ], [ -83.012416, 40.0021739 ], [ -83.0124243, 40.0022162 ], [ -83.0124288, 40.0022394 ], [ -83.0124325, 40.0022581 ], [ -83.0124804, 40.0025029 ], [ -83.0124847, 40.0025246 ], [ -83.0124883, 40.0025433 ], [ -83.012536, 40.0027865 ], [ -83.0125397, 40.0028054 ], [ -83.0125444, 40.0028295 ], [ -83.0125522, 40.0028694 ], [ -83.012549, 40.0028697 ], [ -83.0125598, 40.0029241 ], [ -83.0125539, 40.0029248 ], [ -83.0125572, 40.0029416 ], [ -83.0122632, 40.0029763 ], [ -83.0122446, 40.002884 ], [ -83.0123349, 40.0028734 ], [ -83.012325, 40.0028244 ], [ -83.0122728, 40.0025646 ], [ -83.0122705, 40.0025531 ], [ -83.0122669, 40.0025356 ], [ -83.0121377, 40.0025508 ], [ -83.0121259, 40.0024922 ], [ -83.0120989, 40.0023577 ], [ -83.0121297, 40.0023541 ], [ -83.0121913, 40.0023468 ], [ -83.0121928, 40.0023398 ], [ -83.0122325, 40.0023353 ], [ -83.0122172, 40.0022564 ], [ -83.0122097, 40.002218 ], [ -83.0121209, 40.0022281 ], [ -83.0121197, 40.0022219 ], [ -83.0121031, 40.0021364 ] ] ] } },
{ "type": "Feature", "properties": { "@id": "way/154204609", "amenity": null, "building": "university", "name": "Mendenhall Laboratory", "GEOID": "39049001121" }, "geometry": { "type": "Polygon", "coordinates": [ [ [ -83.0113466, 39.9981392 ], [ -83.0114163, 39.9983187 ], [ -83.0115047, 39.9985461 ], [ -83.0113641, 39.9985782 ], [ -83.0113515, 39.9985457 ], [ -83.0111836, 39.998584 ], [ -83.0110192, 39.9986215 ], [ -83.0110351, 39.9986624 ], [ -83.0108895, 39.9986956 ], [ -83.0107916, 39.9984436 ], [ -83.0108008, 39.9984415 ], [ -83.0107373, 39.9982781 ], [ -83.0113466, 39.9981392 ] ] ] } },
{ "type": "Feature", "properties": { "@id": "way/154204623", "amenity": null, "building": "university", "name": "Page Hall", "GEOID": "39049001121" }, "geometry": { "type": "Polygon", "coordinates": [ [ [ -83.009698, 39.9989155 ], [ -83.0099498, 39.9991073 ], [ -83.0099732, 39.9991252 ], [ -83.0098528, 39.9992179 ], [ -83.009843, 39.9992105 ], [ -83.0098321, 39.9992188 ], [ -83.0097099, 39.9993129 ], [ -83.0097005, 39.9993201 ], [ -83.0097103, 39.9993276 ], [ -83.0096, 39.9994124 ], [ -83.0094617, 39.9993069 ], [ -83.0093767, 39.9992421 ], [ -83.0093264, 39.9992037 ], [ -83.0094301, 39.9991239 ], [ -83.0094386, 39.9991174 ], [ -83.0094561, 39.9991307 ], [ -83.0094631, 39.9991254 ], [ -83.0094702, 39.9991199 ], [ -83.0094398, 39.9990967 ], [ -83.0095532, 39.9990094 ], [ -83.0095813, 39.9990308 ], [ -83.0095875, 39.9990261 ], [ -83.0095938, 39.9990212 ], [ -83.0095771, 39.9990085 ], [ -83.0095873, 39.9990007 ], [ -83.009698, 39.9989155 ] ] ] } },
{ "type": "Feature", "properties": { "@id": "way/154204627", "amenity": null, "building": "university", "name": "Pomerene Hall", "GEOID": "39049001121" }, "geometry": { "type": "Polygon", "coordinates": [ [ [ -83.0146273, 39.9970487 ], [ -83.0146841, 39.9973324 ], [ -83.0147475, 39.997325 ], [ -83.0147579, 39.9973769 ], [ -83.0147645, 39.9974098 ], [ -83.0147165, 39.9974155 ], [ -83.0147622, 39.997644 ], [ -83.0145413, 39.9976699 ], [ -83.0145257, 39.9975919 ], [ -83.0142703, 39.9976219 ], [ -83.0141665, 39.9971027 ], [ -83.0143997, 39.9970754 ], [ -83.0146273, 39.9970487 ] ] ] } },
{ "type": "Feature", "properties": { "@id": "way/154204635", "amenity": null, "building": "university", "name": "Ramseyer Hall", "GEOID": "39049001121" }, "geometry": { "type": "Polygon", "coordinates": [ [ [ -83.0093432, 40.0034569 ], [ -83.0092993, 40.0032559 ], [ -83.0092756, 40.0032576 ], [ -83.0092555, 40.0032356 ], [ -83.0092403, 40.003212 ], [ -83.0092324, 40.0031874 ], [ -83.0092311, 40.0031606 ], [ -83.0092355, 40.0031354 ], [ -83.0092446, 40.0031093 ], [ -83.0092749, 40.0031061 ], [ -83.0092703, 40.0030765 ], [ -83.0095076, 40.0030456 ], [ -83.0095446, 40.0032459 ], [ -83.0095789, 40.0032714 ], [ -83.0097632, 40.0032798 ], [ -83.0098126, 40.003282 ], [ -83.0098465, 40.0032578 ], [ -83.0099214, 40.003261 ], [ -83.0099798, 40.0032634 ], [ -83.0100362, 40.0032658 ], [ -83.0100877, 40.003268 ], [ -83.0101266, 40.0032983 ], [ -83.0101161, 40.0034351 ], [ -83.0101131, 40.0034742 ], [ -83.0099766, 40.0034683 ], [ -83.0099499, 40.0034671 ], [ -83.0099438, 40.0034668 ], [ -83.0099163, 40.0034645 ], [ -83.0095772, 40.003449 ], [ -83.0095752, 40.0034747 ], [ -83.0095644, 40.0034742 ], [ -83.0095207, 40.0034751 ], [ -83.0094839, 40.0034733 ], [ -83.0094786, 40.003473 ], [ -83.0094789, 40.0034585 ], [ -83.0094628, 40.0034615 ], [ -83.0094479, 40.003456 ], [ -83.0094387, 40.0034479 ], [ -83.0093432, 40.0034569 ] ] ] } },
{ "type": "Feature", "properties": { "@id": "way/154204656", "amenity": null, "building": "university", "name": "Smith Laboratory", "GEOID": "39049001121" }, "geometry": { "type": "Polygon", "coordinates": [ [ [ -83.0129534, 40.0020384 ], [ -83.013143, 40.0020149 ], [ -83.0132048, 40.0020071 ], [ -83.013223, 40.0020054 ], [ -83.0132414, 40.0020036 ], [ -83.0134495, 40.0019778 ], [ -83.0134927, 40.0021855 ], [ -83.0133491, 40.0022031 ], [ -83.0133502, 40.0022081 ], [ -83.0133578, 40.0022448 ], [ -83.0133597, 40.0022537 ], [ -83.013497, 40.0022369 ], [ -83.0135146, 40.0023213 ], [ -83.0135441, 40.002462 ], [ -83.0136066, 40.0027659 ], [ -83.0136161, 40.0028119 ], [ -83.0131265, 40.0028711 ], [ -83.013086, 40.0026744 ], [ -83.0130597, 40.0025466 ], [ -83.0129971, 40.0022472 ], [ -83.0129534, 40.0020384 ] ] ] } },
{ "type": "Feature", "properties": { "@id": "way/154204673", "amenity": null, "building": "university", "name": "Stillman Hall", "GEOID": "39049001121" }, "geometry": { "type": "Polygon", "coordinates": [ [ [ -83.0110455, 40.001893 ], [ -83.0112488, 40.00187 ], [ -83.0112846, 40.0020539 ], [ -83.0110921, 40.0020758 ], [ -83.0110152, 40.0020848 ], [ -83.0108559, 40.0021026 ], [ -83.0108215, 40.0019226 ], [ -83.0108318, 40.0019215 ], [ -83.0108188, 40.0018537 ], [ -83.0107998, 40.0017629 ], [ -83.0107874, 40.0016992 ], [ -83.0107769, 40.0016455 ], [ -83.0109877, 40.0016214 ], [ -83.010991, 40.001638 ], [ -83.0109927, 40.0016469 ], [ -83.0109979, 40.0016463 ], [ -83.0109989, 40.0016515 ], [ -83.0110241, 40.0016492 ], [ -83.0110429, 40.0016492 ], [ -83.0110665, 40.0016513 ], [ -83.0110869, 40.0016558 ], [ -83.0111138, 40.0016701 ], [ -83.0111328, 40.0016862 ], [ -83.0111421, 40.001703 ], [ -83.011146, 40.0017193 ], [ -83.0111485, 40.0017394 ], [ -83.0111424, 40.0017576 ], [ -83.0111353, 40.0017739 ], [ -83.0111188, 40.001789 ], [ -83.0111032, 40.0017995 ], [ -83.0110811, 40.0018086 ], [ -83.0110608, 40.0018133 ], [ -83.0110309, 40.0018174 ], [ -83.0110455, 40.001893 ] ] ] } },
{ "type": "Feature", "properties": { "@id": "way/154204675", "amenity": null, "building": "university", "name": "Sullivant Hall", "GEOID": "39049001121" }, "geometry": { "type": "Polygon", "coordinates": [ [ [ -83.0082838, 39.9992285 ], [ -83.009083, 39.9991335 ], [ -83.0091021, 39.9991312 ], [ -83.0091358, 39.9992975 ], [ -83.0091425, 39.9993309 ], [ -83.009177, 39.9995008 ], [ -83.0091794, 39.999513 ], [ -83.0091823, 39.9995269 ], [ -83.0092154, 39.9996865 ], [ -83.0088798, 39.9997274 ], [ -83.0088197, 39.9997347 ], [ -83.0087434, 39.9997439 ], [ -83.0083984, 39.9997854 ], [ -83.0083567, 39.999582 ], [ -83.0083335, 39.9995848 ], [ -83.0083283, 39.9995596 ], [ -83.0083172, 39.9995054 ], [ -83.0083067, 39.9994536 ], [ -83.0083022, 39.9994316 ], [ -83.0083244, 39.999429 ], [ -83.0082838, 39.9992285 ] ] ] } },
{ "type": "Feature", "properties": { "@id": "way/154204714", "amenity": null, "building": "university", "name": "Physics Research Building", "GEOID": "39049001121" }, "geometry": { "type": "Polygon", "coordinates": [ [ [ -83.0146601, 40.0036447 ], [ -83.0144967, 40.0036645 ], [ -83.0145019, 40.003699 ], [ -83.0145027, 40.0037042 ], [ -83.014431, 40.0037123 ], [ -83.0144392, 40.0037527 ], [ -83.0144188, 40.0037648 ], [ -83.0143943, 40.0037793 ], [ -83.0143862, 40.0037841 ], [ -83.0143817, 40.0037804 ], [ -83.0143643, 40.0037662 ], [ -83.0143572, 40.0037604 ], [ -83.0143394, 40.0037459 ], [ -83.014276, 40.0038487 ], [ -83.0141261, 40.003692 ], [ -83.0141057, 40.0037002 ], [ -83.0139598, 40.0035074 ], [ -83.0138964, 40.0033794 ], [ -83.0138759, 40.0033847 ], [ -83.0138452, 40.0033303 ], [ -83.0138039, 40.0032308 ], [ -83.0137577, 40.0030799 ], [ -83.013933, 40.0031199 ], [ -83.013939, 40.0031213 ], [ -83.0139435, 40.0031394 ], [ -83.0139844, 40.0031357 ], [ -83.0140207, 40.0031325 ], [ -83.0139787, 40.0029595 ], [ -83.014364, 40.0029127 ], [ -83.0143723, 40.0029636 ], [ -83.0144764, 40.0029514 ], [ -83.0144901, 40.0030295 ], [ -83.0144984, 40.0030766 ], [ -83.0145035, 40.0031132 ], [ -83.014552, 40.0031088 ], [ -83.0146601, 40.0036447 ] ] ] } },
{ "type": "Feature", "properties": { "@id": "way/154204725", "amenity": null, "building": "university", "name": "Gerlach Hall", "GEOID": "39049001121" }, "geometry": { "type": "Polygon", "coordinates": [ [ [ -83.015429, 40.005075 ], [ -83.0150586, 40.0050592 ], [ -83.0150574, 40.0050753 ], [ -83.0148883, 40.0050684 ], [ -83.0148894, 40.0050532 ], [ -83.0144763, 40.0050371 ], [ -83.0144783, 40.0050065 ], [ -83.0144979, 40.0047132 ], [ -83.0145542, 40.0047153 ], [ -83.0145567, 40.0046775 ], [ -83.0147255, 40.004684 ], [ -83.0147362, 40.0046844 ], [ -83.0147244, 40.0048633 ], [ -83.0148223, 40.004867 ], [ -83.0148238, 40.004844 ], [ -83.0149776, 40.0048499 ], [ -83.0149883, 40.0048503 ], [ -83.0150055, 40.0048511 ], [ -83.0151473, 40.0048571 ], [ -83.0151455, 40.0048821 ], [ -83.0154022, 40.0048931 ], [ -83.0154421, 40.0048948 ], [ -83.0154415, 40.0049033 ], [ -83.015429, 40.005075 ] ] ] } },
{ "type": "Feature", "properties": { "@id": "way/154204737", "amenity": null, "building": "university", "name": "Schoenbaum Hall", "GEOID": "39049001121" }, "geometry": { "type": "Polygon", "coordinates": [ [ [ -83.0145577, 40.0041317 ], [ -83.0150662, 40.0041556 ], [ -83.0150617, 40.0042114 ], [ -83.0151172, 40.004214 ], [ -83.0151065, 40.0043476 ], [ -83.0151051, 40.0043653 ], [ -83.0147668, 40.0043494 ], [ -83.0147443, 40.0046314 ], [ -83.0147307, 40.0046308 ], [ -83.0145682, 40.0046231 ], [ -83.0145714, 40.0045823 ], [ -83.0145218, 40.0045799 ], [ -83.0145577, 40.0041317 ] ] ] } },
{ "type": "Feature", "properties": { "@id": "way/154204745", "amenity": null, "building": "university", "name": "Evans Laboratory", "GEOID": "39049001121" }, "geometry": { "type": "Polygon", "coordinates": [ [ [ -83.0111042, 40.0023792 ], [ -83.011107, 40.0023934 ], [ -83.011311, 40.0023695 ], [ -83.0113432, 40.0025305 ], [ -83.0111355, 40.0025549 ], [ -83.01117, 40.0027274 ], [ -83.0111725, 40.0027402 ], [ -83.0111751, 40.0027531 ], [ -83.0112071, 40.0029191 ], [ -83.0113091, 40.0029075 ], [ -83.0113293, 40.0030123 ], [ -83.0113429, 40.0030828 ], [ -83.0110025, 40.0031214 ], [ -83.0109684, 40.0029446 ], [ -83.0110092, 40.0029399 ], [ -83.0109894, 40.0028377 ], [ -83.010961, 40.002841 ], [ -83.0108806, 40.0024281 ], [ -83.0108542, 40.0024311 ], [ -83.0108354, 40.0023354 ], [ -83.0108702, 40.0023313 ], [ -83.0108657, 40.0022972 ], [ -83.011002, 40.0022814 ], [ -83.0110255, 40.0023884 ], [ -83.0111042, 40.0023792 ] ] ] } },
{ "type": "Feature", "properties": { "@id": "way/154204764", "amenity": null, "building": "university", "name": "Mason Hall", "GEOID": "39049001121" }, "geometry": { "type": "Polygon", "coordinates": [ [ [ -83.0152266, 40.0041691 ], [ -83.0156248, 40.0041817 ], [ -83.0157104, 40.0046099 ], [ -83.0156489, 40.0046108 ], [ -83.015646, 40.0046218 ], [ -83.0156431, 40.0046327 ], [ -83.0156404, 40.0046431 ], [ -83.015608, 40.0046843 ], [ -83.0155569, 40.0047095 ], [ -83.015494, 40.0047156 ], [ -83.0154888, 40.0047147 ], [ -83.0154733, 40.0047119 ], [ -83.0154587, 40.0047094 ], [ -83.0154406, 40.0047064 ], [ -83.0153949, 40.0046808 ], [ -83.0153637, 40.0046378 ], [ -83.0153619, 40.0046267 ], [ -83.0153594, 40.0046105 ], [ -83.015359, 40.0046028 ], [ -83.0153578, 40.0045816 ], [ -83.0153705, 40.0045477 ], [ -83.0153961, 40.0045186 ], [ -83.0154216, 40.0045025 ], [ -83.015394, 40.0043761 ], [ -83.0151664, 40.0043679 ], [ -83.0151611, 40.0043677 ], [ -83.0151619, 40.0043557 ], [ -83.0151713, 40.0042188 ], [ -83.0152243, 40.0042196 ], [ -83.0152266, 40.0041691 ] ] ] } },
{ "type": "Feature", "properties": { "@id": "way/154204804", "amenity": null, "building": "university", "name": "209 W. 18th Avenue", "GEOID": "39049001121" }, "geometry": { "type": "Polygon", "coordinates": [ [ [ -83.0140022, 40.001416 ], [ -83.0140754, 40.0014076 ], [ -83.0142593, 40.0013865 ], [ -83.0143164, 40.0016784 ], [ -83.0143195, 40.0016877 ], [ -83.0141399, 40.001707 ], [ -83.0141133, 40.0017103 ], [ -83.0140609, 40.0017163 ], [ -83.0140022, 40.001416 ] ] ] } },
{ "type": "Feature", "properties": { "@id": "way/154204809", "amenity": null, "building": "university", "name": "Pfahl Hall", "GEOID": "39049001121" }, "geometry": { "type": "Polygon", "coordinates": [ [ [ -83.0167779, 40.0044387 ], [ -83.0166076, 40.0044316 ], [ -83.0165831, 40.0044306 ], [ -83.0165802, 40.0044646 ], [ -83.016521, 40.0044624 ], [ -83.0165245, 40.0044282 ], [ -83.0161409, 40.0044122 ], [ -83.0161066, 40.0042349 ], [ -83.0166379, 40.0042565 ], [ -83.0166404, 40.0042329 ], [ -83.016839, 40.0042399 ], [ -83.0168285, 40.0043848 ], [ -83.0167819, 40.0043911 ], [ -83.0167779, 40.0044387 ] ] ] } },
{ "type": "Feature", "properties": { "@id": "way/156337669", "amenity": null, "building": "university", "name": "Arps Hall", "GEOID": "39049001121" }, "geometry": { "type": "Polygon", "coordinates": [ [ [ -83.0098621, 40.0022336 ], [ -83.0098066, 40.001959 ], [ -83.0097755, 40.001805 ], [ -83.0097891, 40.0018034 ], [ -83.0097838, 40.0017771 ], [ -83.0097929, 40.001776 ], [ -83.0097846, 40.001735 ], [ -83.0097762, 40.0016932 ], [ -83.0097612, 40.0016949 ], [ -83.0097554, 40.0016663 ], [ -83.0096398, 40.00168 ], [ -83.0096349, 40.0016558 ], [ -83.00955, 40.0016658 ], [ -83.0095007, 40.0016717 ], [ -83.0090058, 40.0017302 ], [ -83.0090317, 40.0018586 ], [ -83.0090608, 40.0020027 ], [ -83.0091048, 40.0022209 ], [ -83.0092393, 40.002205 ], [ -83.0092739, 40.0022009 ], [ -83.0092216, 40.0019414 ], [ -83.0091875, 40.0019454 ], [ -83.0091722, 40.0018695 ], [ -83.0095265, 40.0018275 ], [ -83.0095557, 40.0019722 ], [ -83.00953, 40.0019752 ], [ -83.0095887, 40.002266 ], [ -83.0098621, 40.0022336 ] ] ] } },
{ "type": "Feature", "properties": { "@id": "way/158681433", "amenity": null, "building": "university", "name": "Caldwell Laboratory", "GEOID": "39049001121" }, "geometry": { "type": "Polygon", "coordinates": [ [ [ -83.0149299, 40.0022382 ], [ -83.0148575, 40.0022467 ], [ -83.0147277, 40.0022628 ], [ -83.0148106, 40.0026483 ], [ -83.0148169, 40.0026791 ], [ -83.0149062, 40.0026685 ], [ -83.0149206, 40.0026668 ], [ -83.0151499, 40.0026402 ], [ -83.0153498, 40.0026177 ], [ -83.0153422, 40.0025781 ], [ -83.0153366, 40.0025513 ], [ -83.0152744, 40.0022786 ], [ -83.0152717, 40.0022668 ], [ -83.0152693, 40.0022562 ], [ -83.0152617, 40.0022201 ], [ -83.0152579, 40.0022011 ], [ -83.0151501, 40.0022133 ], [ -83.0151555, 40.0022408 ], [ -83.0149355, 40.0022664 ], [ -83.0149299, 40.0022382 ] ] ] } },
{ "type": "Feature", "properties": { "@id": "way/158684152", "amenity": null, "building": "university", "name": "Journalism Building", "GEOID": "39049001121" }, "geometry": { "type": "Polygon", "coordinates": [ [ [ -83.0148575, 40.0022467 ], [ -83.0149299, 40.0022382 ], [ -83.0151501, 40.0022133 ], [ -83.0152579, 40.0022011 ], [ -83.0152663, 40.0022002 ], [ -83.0152638, 40.0021854 ], [ -83.015332, 40.0021785 ], [ -83.0153224, 40.0021246 ], [ -83.0153333, 40.0021233 ], [ -83.0153439, 40.0021221 ], [ -83.0153406, 40.0021056 ], [ -83.0152696, 40.0017507 ], [ -83.0152618, 40.0017516 ], [ -83.0150864, 40.0017722 ], [ -83.0150712, 40.001774 ], [ -83.0150757, 40.0017964 ], [ -83.0147797, 40.0018312 ], [ -83.0147847, 40.0018562 ], [ -83.014793, 40.0018973 ], [ -83.0147307, 40.0019046 ], [ -83.0147775, 40.0021382 ], [ -83.0148345, 40.0021315 ], [ -83.0148575, 40.0022467 ] ] ] } },
{ "type": "Feature", "properties": { "@id": "way/158694852", "amenity": null, "building": "university", "name": "Mathematics Building", "GEOID": "39049001121" }, "geometry": { "type": "Polygon", "coordinates": [ [ [ -83.014566, 40.0014364 ], [ -83.0149431, 40.0013933 ], [ -83.0149686, 40.0015243 ], [ -83.0147152, 40.0015533 ], [ -83.0147182, 40.001569 ], [ -83.014698, 40.0015713 ], [ -83.014679, 40.0015736 ], [ -83.0145917, 40.001584 ], [ -83.0145854, 40.001553 ], [ -83.0145522, 40.001557 ], [ -83.0145306, 40.0014509 ], [ -83.0145499, 40.0014485 ], [ -83.014568, 40.0014465 ], [ -83.014566, 40.0014364 ] ] ] } },
{ "type": "Feature", "properties": { "@id": "way/158742503", "amenity": null, "building": "university", "name": "Fisher Hall", "GEOID": "39049001121" }, "geometry": { "type": "Polygon", "coordinates": [ [ [ -83.0163746, 40.0049473 ], [ -83.0163539, 40.0049465 ], [ -83.0161871, 40.0049397 ], [ -83.0161336, 40.0046812 ], [ -83.0157721, 40.004729 ], [ -83.0158361, 40.0050524 ], [ -83.0158619, 40.0050539 ], [ -83.0158644, 40.0050869 ], [ -83.0163646, 40.0051095 ], [ -83.0163746, 40.0049473 ] ] ] } },
{ "type": "Feature", "properties": { "@id": "way/224748030", "amenity": null, "building": "university", "name": "Sports and Recreation Center", "GEOID": "39049002510" }, "geometry": { "type": "Polygon", "coordinates": [ [ [ -82.9447679, 39.9940149 ], [ -82.9447945, 39.9942328 ], [ -82.9445507, 39.994245 ], [ -82.9445248, 39.9940328 ], [ -82.9447679, 39.9940149 ] ] ] } },
{ "type": "Feature", "properties": { "@id": "way/300842706", "amenity": null, "building": "university", "name": "Dreese Laboratories", "GEOID": "39049001121" }, "geometry": { "type": "Polygon", "coordinates": [ [ [ -83.0157487, 40.0024943 ], [ -83.0156954, 40.0022334 ], [ -83.0156947, 40.0022296 ], [ -83.0156932, 40.0022215 ], [ -83.0156909, 40.0022092 ], [ -83.0156838, 40.0021656 ], [ -83.0157049, 40.0021636 ], [ -83.0158932, 40.0021475 ], [ -83.0159156, 40.0021454 ], [ -83.0159092, 40.0021055 ], [ -83.0158994, 40.0021064 ], [ -83.0158676, 40.0021094 ], [ -83.0158625, 40.0020779 ], [ -83.0158414, 40.0020422 ], [ -83.0158385, 40.0020172 ], [ -83.0158473, 40.0019903 ], [ -83.0158406, 40.001948 ], [ -83.0158719, 40.0019458 ], [ -83.0158671, 40.0019141 ], [ -83.0159084, 40.0019094 ], [ -83.0161266, 40.0018823 ], [ -83.0161868, 40.0018756 ], [ -83.016167, 40.00177 ], [ -83.016235, 40.0017622 ], [ -83.0162475, 40.001822 ], [ -83.016258, 40.0018721 ], [ -83.0163011, 40.0018674 ], [ -83.0163113, 40.0019163 ], [ -83.0163145, 40.0019315 ], [ -83.0163173, 40.0019446 ], [ -83.0163223, 40.0019683 ], [ -83.0163355, 40.0020314 ], [ -83.0162601, 40.0020395 ], [ -83.0162647, 40.0020623 ], [ -83.016238, 40.0020651 ], [ -83.0162405, 40.0020768 ], [ -83.0162138, 40.0020797 ], [ -83.016197, 40.0020876 ], [ -83.0161755, 40.0020934 ], [ -83.0161616, 40.0020952 ], [ -83.0161474, 40.0020955 ], [ -83.0161258, 40.0020947 ], [ -83.0161076, 40.0020916 ], [ -83.0160878, 40.0020938 ], [ -83.0160857, 40.0020831 ], [ -83.0160482, 40.0020874 ], [ -83.0160439, 40.0020651 ], [ -83.0159827, 40.0020725 ], [ -83.0159912, 40.0021163 ], [ -83.015999, 40.0021568 ], [ -83.0160042, 40.0021839 ], [ -83.0160292, 40.002181 ], [ -83.0160355, 40.0022108 ], [ -83.0160728, 40.0022072 ], [ -83.0161543, 40.0021993 ], [ -83.01616, 40.0022302 ], [ -83.0161902, 40.0022269 ], [ -83.016213, 40.0023348 ], [ -83.0161451, 40.0023427 ], [ -83.0161484, 40.0023612 ], [ -83.0163159, 40.0023421 ], [ -83.016318, 40.002353 ], [ -83.01633, 40.0023515 ], [ -83.0163347, 40.0023757 ], [ -83.016354, 40.0023738 ], [ -83.0163743, 40.0024812 ], [ -83.0163522, 40.0024836 ], [ -83.0163579, 40.0025119 ], [ -83.0163152, 40.0025166 ], [ -83.0162923, 40.0025191 ], [ -83.0162937, 40.002528 ], [ -83.0162475, 40.0025336 ], [ -83.0162263, 40.0025362 ], [ -83.0162044, 40.002539 ], [ -83.0162069, 40.0025508 ], [ -83.0160784, 40.0025657 ], [ -83.016076, 40.0025536 ], [ -83.0160329, 40.002559 ], [ -83.016023, 40.0025137 ], [ -83.0159864, 40.0025181 ], [ -83.0159815, 40.0024924 ], [ -83.0159767, 40.0024665 ], [ -83.0157977, 40.0024936 ], [ -83.0157487, 40.0024943 ] ] ] } },
{ "type": "Feature", "properties": { "@id": "way/331932595", "amenity": null, "building": "university", "name": "CBEC", "GEOID": "39049001121" }, "geometry": { "type": "Polygon", "coordinates": [ [ [ -83.0137436, 40.0037675 ], [ -83.0133263, 40.0038139 ], [ -83.0132617, 40.0035015 ], [ -83.0131548, 40.0035151 ], [ -83.01317, 40.0035983 ], [ -83.013092, 40.0036067 ], [ -83.0130717, 40.0036089 ], [ -83.0130558, 40.0036106 ], [ -83.0130437, 40.0036119 ], [ -83.0130208, 40.0036144 ], [ -83.0129641, 40.0036204 ], [ -83.0129544, 40.0035674 ], [ -83.0129454, 40.003518 ], [ -83.0129312, 40.0034408 ], [ -83.0129235, 40.0033984 ], [ -83.0131029, 40.0033791 ], [ -83.0131183, 40.0033612 ], [ -83.0131237, 40.0033417 ], [ -83.0131245, 40.0033158 ], [ -83.0131183, 40.0032963 ], [ -83.013106, 40.0032715 ], [ -83.0131075, 40.0032579 ], [ -83.0131152, 40.0032438 ], [ -83.0131345, 40.003219 ], [ -83.0131468, 40.0031801 ], [ -83.0131422, 40.0031588 ], [ -83.0131322, 40.0031405 ], [ -83.0131145, 40.0031169 ], [ -83.0131283, 40.0031051 ], [ -83.0131476, 40.0031128 ], [ -83.0131792, 40.0031069 ], [ -83.0131684, 40.0030361 ], [ -83.0132046, 40.0030302 ], [ -83.0132123, 40.0030691 ], [ -83.0135891, 40.0030263 ], [ -83.0136363, 40.0032525 ], [ -83.0137293, 40.003699 ], [ -83.013737, 40.0037359 ], [ -83.0137436, 40.0037675 ] ] ] } },
{ "type": "Feature", "properties": { "@id": "way/375728895", "amenity": null, "building": "university", "name": "Curl Hall", "GEOID": "39049001121" }, "geometry": { "type": "Polygon", "coordinates": [ [ [ -83.0108356, 40.0041303 ], [ -83.010916, 40.0041339 ], [ -83.0109186, 40.0040991 ], [ -83.0111056, 40.0041075 ], [ -83.0111049, 40.0041162 ], [ -83.0110812, 40.0044278 ], [ -83.0110592, 40.0044268 ], [ -83.0110561, 40.0044659 ], [ -83.0109701, 40.0044614 ], [ -83.0109408, 40.0044605 ], [ -83.0109003, 40.0044587 ], [ -83.0108109, 40.0044548 ], [ -83.0108356, 40.0041303 ] ] ] } },
{ "type": "Feature", "properties": { "@id": "way/377400312", "amenity": null, "building": "university", "name": "Neil Building", "GEOID": "39049001810" }, "geometry": { "type": "Polygon", "coordinates": [ [ [ -83.0142085, 39.9941056 ], [ -83.0141989, 39.994262 ], [ -83.0138072, 39.9942478 ], [ -83.0138114, 39.9941786 ], [ -83.0137689, 39.9941771 ], [ -83.0137749, 39.9940797 ], [ -83.0139008, 39.9940843 ], [ -83.0139185, 39.9940849 ], [ -83.0139355, 39.9938097 ], [ -83.0136879, 39.9938007 ], [ -83.0136883, 39.9937941 ], [ -83.0136548, 39.9937929 ], [ -83.0136596, 39.9937156 ], [ -83.0136516, 39.9937153 ], [ -83.0136526, 39.9936999 ], [ -83.0136738, 39.9937006 ], [ -83.0136773, 39.9936453 ], [ -83.0139002, 39.9936534 ], [ -83.0139014, 39.9936337 ], [ -83.013884, 39.993633 ], [ -83.0138905, 39.9935279 ], [ -83.0138545, 39.9935266 ], [ -83.0138651, 39.9933545 ], [ -83.013947, 39.9933575 ], [ -83.0139475, 39.993349 ], [ -83.0140891, 39.9933541 ], [ -83.0140785, 39.9935262 ], [ -83.0141169, 39.9935276 ], [ -83.0141085, 39.9936634 ], [ -83.0141497, 39.9936649 ], [ -83.0141407, 39.9938109 ], [ -83.0141709, 39.993812 ], [ -83.0141685, 39.9938505 ], [ -83.0141804, 39.993884 ], [ -83.0141908, 39.9939184 ], [ -83.0141983, 39.9939495 ], [ -83.0142034, 39.9939816 ], [ -83.0142077, 39.994018 ], [ -83.0142092, 39.9940562 ], [ -83.0142085, 39.9941056 ] ] ] } },
{ "type": "Feature", "properties": { "@id": "way/433859940", "amenity": null, "building": "university", "name": "Fechko Alumnae Scholarship House", "GEOID": "39049001121" }, "geometry": { "type": "Polygon", "coordinates": [ [ [ -83.0131993, 39.9959245 ], [ -83.0133069, 39.9959281 ], [ -83.0133153, 39.9957841 ], [ -83.0133047, 39.9957838 ], [ -83.0133076, 39.9957328 ], [ -83.0132347, 39.9957303 ], [ -83.0132317, 39.9957824 ], [ -83.0132076, 39.9957815 ], [ -83.0131993, 39.9959245 ] ] ] } },
{ "type": "Feature", "properties": { "@id": "way/445050069", "amenity": null, "building": "university", "name": "Kennedy Commons", "GEOID": "39049001121" }, "geometry": { "type": "Polygon", "coordinates": [ [ [ -83.0137704, 39.996832 ], [ -83.0139091, 39.9968295 ], [ -83.0139313, 39.9968282 ], [ -83.0139454, 39.9968274 ], [ -83.0140181, 39.9968232 ], [ -83.0142311, 39.9967979 ], [ -83.0142185, 39.9967286 ], [ -83.0142116, 39.9966938 ], [ -83.0141902, 39.9966963 ], [ -83.0141679, 39.9965852 ], [ -83.0141184, 39.9963227 ], [ -83.014155, 39.9962929 ], [ -83.0140752, 39.9963 ], [ -83.0140324, 39.9962723 ], [ -83.0140377, 39.996294 ], [ -83.0139921, 39.9963006 ], [ -83.0139783, 39.9963207 ], [ -83.0139545, 39.9963403 ], [ -83.0139676, 39.9964077 ], [ -83.0139314, 39.9964118 ], [ -83.0139421, 39.9964589 ], [ -83.0138992, 39.9964614 ], [ -83.0138975, 39.9964032 ], [ -83.0137555, 39.9964057 ], [ -83.0137592, 39.9965803 ], [ -83.0137206, 39.9965791 ], [ -83.013672, 39.9965776 ], [ -83.0136561, 39.9966902 ], [ -83.0137159, 39.9966933 ], [ -83.0137656, 39.9966958 ], [ -83.0137704, 39.996832 ] ] ] } },
{ "type": "Feature", "properties": { "@id": "way/445050070", "amenity": null, "building": "university", "name": "Oxley Hall", "GEOID": "39049001121" }, "geometry": { "type": "Polygon", "coordinates": [ [ [ -83.0142185, 39.9967286 ], [ -83.0143014, 39.9967189 ], [ -83.0143084, 39.9967542 ], [ -83.0143406, 39.9967505 ], [ -83.014353, 39.996813 ], [ -83.0143634, 39.9968118 ], [ -83.0144314, 39.9968038 ], [ -83.0144498, 39.9968017 ], [ -83.0144522, 39.9968136 ], [ -83.0144617, 39.9968125 ], [ -83.0145877, 39.9967979 ], [ -83.0145674, 39.9966949 ], [ -83.0145118, 39.9967012 ], [ -83.014507, 39.9966725 ], [ -83.0144689, 39.9964841 ], [ -83.0145064, 39.9964797 ], [ -83.0144995, 39.9964455 ], [ -83.014479, 39.996448 ], [ -83.0144651, 39.9963809 ], [ -83.0144822, 39.9963651 ], [ -83.0144812, 39.9963604 ], [ -83.0144773, 39.9963416 ], [ -83.0144536, 39.9963312 ], [ -83.0144279, 39.9963332 ], [ -83.0144104, 39.9963539 ], [ -83.0143842, 39.9963566 ], [ -83.0143833, 39.9963517 ], [ -83.0143724, 39.9963528 ], [ -83.0143672, 39.9963228 ], [ -83.0144232, 39.9963171 ], [ -83.0144225, 39.9963128 ], [ -83.01442, 39.996293 ], [ -83.014419, 39.9962871 ], [ -83.0144091, 39.9962881 ], [ -83.0144061, 39.996271 ], [ -83.014375, 39.996274 ], [ -83.0143775, 39.9962933 ], [ -83.0143216, 39.9962987 ], [ -83.0143261, 39.9963292 ], [ -83.0143372, 39.9963283 ], [ -83.0143431, 39.9963566 ], [ -83.0141667, 39.9963761 ], [ -83.0141876, 39.9964804 ], [ -83.0142737, 39.9964703 ], [ -83.0142937, 39.9965704 ], [ -83.0141679, 39.9965852 ], [ -83.0141902, 39.9966963 ], [ -83.0142116, 39.9966938 ], [ -83.0142185, 39.9967286 ] ] ] } },
{ "type": "Feature", "properties": { "@id": "way/537538846", "amenity": null, "building": "university", "name": "Weigel Hall", "GEOID": "39049001121" }, "geometry": { "type": "Polygon", "coordinates": [ [ [ -83.0097994, 40.0011902 ], [ -83.0097734, 40.001189 ], [ -83.0095521, 40.0011779 ], [ -83.0095329, 40.0010808 ], [ -83.009618, 40.0010709 ], [ -83.0095842, 40.0008888 ], [ -83.0094879, 40.0008827 ], [ -83.009421, 40.0005119 ], [ -83.0096658, 40.0004823 ], [ -83.0096754, 40.0005415 ], [ -83.0097618, 40.0005316 ], [ -83.0097592, 40.0005094 ], [ -83.009969, 40.0004842 ], [ -83.0100329, 40.000819 ], [ -83.0097908, 40.0008461 ], [ -83.0097944, 40.0008652 ], [ -83.0097366, 40.0008622 ], [ -83.0097402, 40.0008816 ], [ -83.0097432, 40.0008978 ], [ -83.0097552, 40.0009618 ], [ -83.0097729, 40.0010566 ], [ -83.0096555, 40.0010708 ], [ -83.0096479, 40.0010903 ], [ -83.0096418, 40.0011062 ], [ -83.009781, 40.0010937 ], [ -83.0097994, 40.0011902 ] ] ] } },
{ "type": "Feature", "properties": { "@id": "way/537538847", "amenity": "arts_centre", "building": "university", "name": "Wexner Center for the Arts", "GEOID": "39049001121" }, "geometry": { "type": "Polygon", "coordinates": [ [ [ -83.0096658, 40.0004823 ], [ -83.0096971, 40.0004786 ], [ -83.0096988, 40.0004616 ], [ -83.0097004, 40.0004459 ], [ -83.0096489, 40.0004509 ], [ -83.0096194, 40.0002856 ], [ -83.0097114, 40.0002931 ], [ -83.0097133, 40.0002714 ], [ -83.0097212, 40.000179 ], [ -83.0097442, 40.0001757 ], [ -83.0097431, 40.0001429 ], [ -83.0097234, 40.0001446 ], [ -83.0097267, 40.0001186 ], [ -83.0097081, 40.0001228 ], [ -83.0097004, 40.0000699 ], [ -83.0096763, 40.0000699 ], [ -83.0096577, 40.0000775 ], [ -83.009638, 40.0000951 ], [ -83.0094719, 40.0000838 ], [ -83.0094793, 40.0000107 ], [ -83.009484, 39.9999878 ], [ -83.0093661, 39.9999783 ], [ -83.0093499, 39.9999775 ], [ -83.0093469, 40.0000148 ], [ -83.0093025, 40.0005582 ], [ -83.0092743, 40.0007983 ], [ -83.0092568, 40.0009547 ], [ -83.0092392, 40.0011119 ], [ -83.0092369, 40.0011321 ], [ -83.0092351, 40.0011478 ], [ -83.009208, 40.0013895 ], [ -83.0092344, 40.0013902 ], [ -83.0093688, 40.0013982 ], [ -83.0093709, 40.0013842 ], [ -83.0097983, 40.0013315 ], [ -83.0097734, 40.001189 ], [ -83.0095521, 40.0011779 ], [ -83.0095329, 40.0010808 ], [ -83.009618, 40.0010709 ], [ -83.0095842, 40.0008888 ], [ -83.0094879, 40.0008827 ], [ -83.009421, 40.0005119 ], [ -83.0096658, 40.0004823 ] ] ] } },
{ "type": "Feature", "properties": { "@id": "way/539545941", "amenity": null, "building": "university", "name": "Ohio State University Extension", "GEOID": "39049001700" }, "geometry": { "type": "Polygon", "coordinates": [ [ [ -83.0044101, 39.9932719 ], [ -83.0044234, 39.9930776 ], [ -83.0043844, 39.993076 ], [ -83.0043828, 39.993099 ], [ -83.004299, 39.9930956 ], [ -83.0042997, 39.9930855 ], [ -83.0041462, 39.9930792 ], [ -83.0041456, 39.9930874 ], [ -83.0040526, 39.9930836 ], [ -83.0040565, 39.9930285 ], [ -83.0040675, 39.9930289 ], [ -83.0040761, 39.9929093 ], [ -83.0040639, 39.9929087 ], [ -83.004066, 39.9928794 ], [ -83.0040553, 39.9928789 ], [ -83.0040572, 39.9928524 ], [ -83.003961, 39.9928483 ], [ -83.0039624, 39.9928302 ], [ -83.0038414, 39.992825 ], [ -83.0038353, 39.9929078 ], [ -83.0038479, 39.9929084 ], [ -83.0038462, 39.9929325 ], [ -83.0038398, 39.9929322 ], [ -83.0038368, 39.9929742 ], [ -83.0038445, 39.9929745 ], [ -83.0038401, 39.993037 ], [ -83.0038319, 39.9930367 ], [ -83.0038289, 39.9930788 ], [ -83.003836, 39.9930791 ], [ -83.0038345, 39.9931008 ], [ -83.0038239, 39.9931003 ], [ -83.0038183, 39.9931835 ], [ -83.0039273, 39.9931879 ], [ -83.0039282, 39.9931745 ], [ -83.0039462, 39.9931752 ], [ -83.0039444, 39.9932017 ], [ -83.0039351, 39.9932014 ], [ -83.0039341, 39.993216 ], [ -83.0039431, 39.9932163 ], [ -83.0039406, 39.9932533 ], [ -83.0040529, 39.9932578 ], [ -83.0040534, 39.9932503 ], [ -83.0043005, 39.9932601 ], [ -83.0043, 39.9932675 ], [ -83.0044101, 39.9932719 ] ] ] } },
{ "type": "Feature", "properties": { "@id": "way/613110560", "amenity": null, "building": "university", "name": null, "GEOID": "39049001200" }, "geometry": { "type": "Polygon", "coordinates": [ [ [ -82.9965353, 40.0040824 ], [ -82.9965693, 40.003698 ], [ -82.9968604, 40.0037131 ], [ -82.9970725, 40.0037241 ], [ -82.9970851, 40.0035818 ], [ -82.9971037, 40.0035688 ], [ -82.9971459, 40.0035675 ], [ -82.9971628, 40.0035882 ], [ -82.9972026, 40.0035902 ], [ -82.9975739, 40.0036088 ], [ -82.9975603, 40.0037683 ], [ -82.99729, 40.0037547 ], [ -82.9972731, 40.0039531 ], [ -82.997543, 40.0039667 ], [ -82.9975294, 40.0041245 ], [ -82.9971194, 40.0041038 ], [ -82.9971138, 40.004169 ], [ -82.9970402, 40.0041653 ], [ -82.9970578, 40.0039626 ], [ -82.9968937, 40.0039543 ], [ -82.9968827, 40.0040809 ], [ -82.9966856, 40.0040709 ], [ -82.9966839, 40.0040901 ], [ -82.9965353, 40.0040824 ] ] ] } },
{ "type": "Feature", "properties": { "@id": "way/636732817", "amenity": null, "building": "university", "name": "Fontana Laboratories", "GEOID": "39049001121" }, "geometry": { "type": "Polygon", "coordinates": [ [ [ -83.0126176, 40.0034364 ], [ -83.0126746, 40.0034301 ], [ -83.0126927, 40.0035238 ], [ -83.0126454, 40.0035291 ], [ -83.0122005, 40.0035771 ], [ -83.012184, 40.0034874 ], [ -83.0121621, 40.0033685 ], [ -83.011868, 40.0034003 ], [ -83.0118741, 40.0034334 ], [ -83.0117828, 40.0034433 ], [ -83.0117762, 40.0034071 ], [ -83.0117603, 40.0034088 ], [ -83.0117341, 40.0032651 ], [ -83.0118004, 40.0032581 ], [ -83.0117975, 40.0032421 ], [ -83.0118331, 40.0032383 ], [ -83.0118315, 40.0032293 ], [ -83.0119235, 40.0032195 ], [ -83.0119718, 40.0032141 ], [ -83.0125651, 40.0031502 ], [ -83.0126176, 40.0034364 ] ] ] } },
{ "type": "Feature", "properties": { "@id": "way/693909170", "amenity": null, "building": "university", "name": "Theatre, Film and Media Arts Building", "GEOID": "39049001121" }, "geometry": { "type": "Polygon", "coordinates": [ [ [ -83.0104394, 40.0020358 ], [ -83.0104316, 40.0019936 ], [ -83.010457, 40.0019908 ], [ -83.0103604, 40.001469 ], [ -83.0099441, 40.0015142 ], [ -83.0099535, 40.0015652 ], [ -83.0098966, 40.0015714 ], [ -83.0099885, 40.0020676 ], [ -83.0101552, 40.0020495 ], [ -83.0101583, 40.0020664 ], [ -83.0104394, 40.0020358 ] ] ] } },
{ "type": "Feature", "properties": { "@id": "way/693909171", "amenity": null, "building": "university", "name": "Timashev Family Music Building", "GEOID": "39049001121" }, "geometry": { "type": "Polygon", "coordinates": [ [ [ -83.0097944, 40.0008652 ], [ -83.0097366, 40.0008622 ], [ -83.0097402, 40.0008816 ], [ -83.0097432, 40.0008978 ], [ -83.0097552, 40.0009618 ], [ -83.0098098, 40.0009561 ], [ -83.0098285, 40.0010512 ], [ -83.0098809, 40.0013183 ], [ -83.0103192, 40.0012723 ], [ -83.0101637, 40.000492 ], [ -83.01002, 40.0005116 ], [ -83.0100117, 40.000478 ], [ -83.009969, 40.0004842 ], [ -83.0100329, 40.000819 ], [ -83.0097908, 40.0008461 ], [ -83.0097944, 40.0008652 ] ] ] } },
{ "type": "Feature", "properties": { "@id": "way/699283035", "amenity": null, "building": "university", "name": "Optometry Clinic and Healh Sciences Office Building", "GEOID": "39049001121" }, "geometry": { "type": "Polygon", "coordinates": [ [ [ -83.0144806, 39.9952224 ], [ -83.0145235, 39.9954331 ], [ -83.0144068, 39.9954464 ], [ -83.0144041, 39.9954711 ], [ -83.0139537, 39.9954543 ], [ -83.0136626, 39.9954453 ], [ -83.0136784, 39.995219 ], [ -83.013841, 39.9952255 ], [ -83.0138597, 39.9952985 ], [ -83.0139225, 39.9952911 ], [ -83.0144806, 39.9952224 ] ] ] } },
{ "type": "Feature", "properties": { "@id": "way/770472407", "amenity": null, "building": "university", "name": "University Square North", "GEOID": "39049001300" }, "geometry": { "type": "Polygon", "coordinates": [ [ [ -83.0079703, 40.0003894 ], [ -83.0077797, 40.0004111 ], [ -83.0077653, 40.0004128 ], [ -83.0077583, 40.0003759 ], [ -83.0076161, 40.0003924 ], [ -83.0075795, 40.0003966 ], [ -83.0075384, 40.0004013 ], [ -83.0073737, 40.0004201 ], [ -83.0073866, 40.0005034 ], [ -83.0073611, 40.000506 ], [ -83.0074232, 40.0008066 ], [ -83.0080406, 40.0007318 ], [ -83.0079703, 40.0003894 ] ] ] } },
{ "type": "Feature", "properties": { "@id": "way/770472412", "amenity": null, "building": "university", "name": "University Square South", "GEOID": "39049001300" }, "geometry": { "type": "Polygon", "coordinates": [ [ [ -83.0078598, 39.999848 ], [ -83.007797, 39.9995096 ], [ -83.00762, 39.9995289 ], [ -83.0076176, 39.9995156 ], [ -83.0071718, 39.9995643 ], [ -83.0072302, 39.999878 ], [ -83.0072562, 39.9998752 ], [ -83.0072668, 39.9999321 ], [ -83.0076922, 39.9998857 ], [ -83.0076887, 39.9998666 ], [ -83.0078598, 39.999848 ] ] ] } },
{ "type": "Feature", "properties": { "@id": "way/827080898", "amenity": null, "building": "university", "name": "Pennsylvania Place", "GEOID": "39049001810" }, "geometry": { "type": "Polygon", "coordinates": [ [ [ -83.0147682, 39.991695 ], [ -83.0146991, 39.9916425 ], [ -83.0147336, 39.9916159 ], [ -83.014755, 39.9916322 ], [ -83.0147738, 39.9916176 ], [ -83.0147876, 39.9914221 ], [ -83.0147641, 39.9914023 ], [ -83.0148004, 39.9913784 ], [ -83.0147572, 39.991343 ], [ -83.014743, 39.9913529 ], [ -83.0147133, 39.9913276 ], [ -83.0147013, 39.9913359 ], [ -83.0146563, 39.991298 ], [ -83.0147261, 39.9912485 ], [ -83.0147792, 39.991251 ], [ -83.0148376, 39.9913059 ], [ -83.0149108, 39.9913084 ], [ -83.0149066, 39.9913816 ], [ -83.0148897, 39.9913925 ], [ -83.0148883, 39.9914239 ], [ -83.0149045, 39.991435 ], [ -83.0148949, 39.9916103 ], [ -83.0148522, 39.9916404 ], [ -83.0148734, 39.991658 ], [ -83.0148142, 39.9916997 ], [ -83.0147682, 39.991695 ] ] ] } },
{ "type": "Feature", "properties": { "@id": "way/1187042125", "amenity": null, "building": "university", "name": "Columbus State 356 Grant Ave", "GEOID": "39049003000" }, "geometry": { "type": "Polygon", "coordinates": [ [ [ -82.99144, 39.9708027 ], [ -82.9914488, 39.9707 ], [ -82.9918004, 39.9707178 ], [ -82.9917915, 39.9708205 ], [ -82.99144, 39.9708027 ] ] ] } },
{ "type": "Feature", "properties": { "@id": "way/1187042126", "amenity": null, "building": "university", "name": "Columbus State 400 Grove Building", "GEOID": "39049003000" }, "geometry": { "type": "Polygon", "coordinates": [ [ [ -82.9911809, 39.9707602 ], [ -82.991204, 39.9704886 ], [ -82.9912997, 39.9704934 ], [ -82.9912766, 39.970765 ], [ -82.9911809, 39.9707602 ] ] ] } },
{ "type": "Feature", "properties": { "@id": "way/1187042139", "amenity": null, "building": "university", "name": "Columbus College Of Art & Design Grant Lab", "GEOID": "39049003000" }, "geometry": { "type": "Polygon", "coordinates": [ [ [ -82.990864, 39.965004 ], [ -82.9912607, 39.9649575 ], [ -82.9913064, 39.9651862 ], [ -82.9909096, 39.9652327 ], [ -82.990864, 39.965004 ] ] ] } }
]
}
