{
"type": "FeatureCollection",
"name": "community_centre_location_data",
"crs": { "type": "name", "properties": { "name": "urn:ogc:def:crs:EPSG::4269" } },
"features": [
{ "type": "Feature", "properties": { "@id": "way/53584355", "amenity": "community_centre", "building": "public", "name": "Lincoln Park Cultural Center", "GEOID": "17031071400" }, "geometry": { "type": "Polygon", "coordinates": [ [ [ -87.6359137, 41.9198785 ], [ -87.6357854, 41.9197016 ], [ -87.6356584, 41.9195264 ], [ -87.6358181, 41.9194623 ], [ -87.6359372, 41.9196266 ], [ -87.6360734, 41.9198144 ], [ -87.6360152, 41.9198377 ], [ -87.6359137, 41.9198785 ] ] ] } },
{ "type": "Feature", "properties": { "@id": "way/210326654", "amenity": "community_centre", "building": "church", "name": "Chabad East Lakeview Community Center", "GEOID": "17031063400" }, "geometry": { "type": "Polygon", "coordinates": [ [ [ -87.645088, 41.9361801 ], [ -87.6450218, 41.9361838 ], [ -87.6450127, 41.9361837 ], [ -87.645014, 41.9362304 ], [ -87.6449681, 41.9362301 ], [ -87.644971, 41.9362932 ], [ -87.6449876, 41.936292 ], [ -87.6449921, 41.9363894 ], [ -87.6447697, 41.9363936 ], [ -87.6447651, 41.9363016 ], [ -87.6447707, 41.9363016 ], [ -87.6447634, 41.9361205 ], [ -87.6447708, 41.9361205 ], [ -87.6447679, 41.9360437 ], [ -87.6451171, 41.9360375 ], [ -87.6451215, 41.9361432 ], [ -87.6450866, 41.9361444 ], [ -87.645088, 41.9361801 ] ] ] } }
]
}
