{
"type": "FeatureCollection",
"name": "detached_location_data",
"crs": { "type": "name", "properties": { "name": "urn:ogc:def:crs:EPSG::4269" } },
"features": [
{ "type": "Feature", "properties": { "@id": "way/210316076", "amenity": null, "building": "detached", "name": null, "GEOID": "17031071600" }, "geometry": { "type": "Polygon", "coordinates": [ [ [ -87.6408985, 41.9159313 ], [ -87.6408984, 41.9159382 ], [ -87.640926, 41.915937 ], [ -87.6409275, 41.9159699 ], [ -87.6409073, 41.9159712 ], [ -87.6409071, 41.915989 ], [ -87.6407307, 41.9159907 ], [ -87.6407309, 41.9159729 ], [ -87.6407181, 41.9159632 ], [ -87.6407202, 41.915944 ], [ -87.6407295, 41.9159331 ], [ -87.6408985, 41.9159313 ] ] ] } },
{ "type": "Feature", "properties": { "@id": "way/210320067", "amenity": null, "building": "detached", "name": null, "GEOID": "17031071600" }, "geometry": { "type": "Polygon", "coordinates": [ [ [ -87.6431906, 41.9176246 ], [ -87.6430653, 41.9176263 ], [ -87.6430649, 41.9175923 ], [ -87.6430704, 41.9175923 ], [ -87.6430707, 41.9175635 ], [ -87.6431901, 41.9175642 ], [ -87.6431906, 41.9176246 ] ] ] } },
{ "type": "Feature", "properties": { "@id": "way/210326288", "amenity": null, "building": "detached", "name": null, "GEOID": "17031062900" }, "geometry": { "type": "Polygon", "coordinates": [ [ [ -87.6562541, 41.9390867 ], [ -87.6562541, 41.9390895 ], [ -87.6563055, 41.9390884 ], [ -87.6563073, 41.9390953 ], [ -87.6563128, 41.9390953 ], [ -87.6563142, 41.9391433 ], [ -87.6561248, 41.9391463 ], [ -87.6561236, 41.9390914 ], [ -87.6561934, 41.9390905 ], [ -87.6561934, 41.9390877 ], [ -87.6562541, 41.9390867 ] ] ] } },
{ "type": "Feature", "properties": { "@id": "way/210326545", "amenity": null, "building": "detached", "name": null, "GEOID": "17031063200" }, "geometry": { "type": "Polygon", "coordinates": [ [ [ -87.6421868, 41.9373289 ], [ -87.6421959, 41.9375074 ], [ -87.6421573, 41.9375085 ], [ -87.642159, 41.9375222 ], [ -87.642091, 41.9375232 ], [ -87.6420912, 41.9375108 ], [ -87.6420856, 41.9375108 ], [ -87.6420825, 41.9374573 ], [ -87.6420789, 41.9374573 ], [ -87.6420775, 41.9374147 ], [ -87.6421014, 41.9374135 ], [ -87.6420968, 41.9373325 ], [ -87.6421868, 41.9373289 ] ] ] } },
{ "type": "Feature", "properties": { "@id": "way/210326743", "amenity": null, "building": "detached", "name": null, "GEOID": "17031063100" }, "geometry": { "type": "Polygon", "coordinates": [ [ [ -87.6463327, 41.9397262 ], [ -87.6463341, 41.9397591 ], [ -87.6463249, 41.9397673 ], [ -87.6463248, 41.9397769 ], [ -87.6463338, 41.9397893 ], [ -87.6463366, 41.9398716 ], [ -87.6462962, 41.9398728 ], [ -87.646296, 41.9398865 ], [ -87.6462611, 41.9398877 ], [ -87.6462598, 41.9398383 ], [ -87.6462489, 41.9398272 ], [ -87.646251, 41.9398039 ], [ -87.6462603, 41.9397944 ], [ -87.6462591, 41.9397271 ], [ -87.6463327, 41.9397262 ] ] ] } },
{ "type": "Feature", "properties": { "@id": "way/210326782", "amenity": null, "building": "detached", "name": null, "GEOID": "17031063100" }, "geometry": { "type": "Polygon", "coordinates": [ [ [ -87.6472336, 41.9396835 ], [ -87.647239, 41.9398702 ], [ -87.6471563, 41.9398697 ], [ -87.6471489, 41.9398751 ], [ -87.647136, 41.9398778 ], [ -87.647125, 41.939875 ], [ -87.6471195, 41.9398695 ], [ -87.6471159, 41.9398626 ], [ -87.6471197, 41.9398503 ], [ -87.6471345, 41.9398421 ], [ -87.64714, 41.9398422 ], [ -87.6471402, 41.9398243 ], [ -87.6471108, 41.9398241 ], [ -87.6471095, 41.9397734 ], [ -87.6471334, 41.9397735 ], [ -87.6471321, 41.9397268 ], [ -87.6471652, 41.9397257 ], [ -87.6471638, 41.9396845 ], [ -87.6472336, 41.9396835 ] ] ] } },
{ "type": "Feature", "properties": { "@id": "way/210326951", "amenity": null, "building": "detached", "name": null, "GEOID": "17031063000" }, "geometry": { "type": "Polygon", "coordinates": [ [ [ -87.6508649, 41.9355573 ], [ -87.6508741, 41.9355574 ], [ -87.6508869, 41.935567 ], [ -87.6509328, 41.9355659 ], [ -87.6509398, 41.9357759 ], [ -87.6508515, 41.9357781 ], [ -87.6508446, 41.9355668 ], [ -87.6508556, 41.9355669 ], [ -87.6508649, 41.9355573 ] ] ] } },
{ "type": "Feature", "properties": { "@id": "way/210328686", "amenity": null, "building": "detached", "name": null, "GEOID": "17031062200" }, "geometry": { "type": "Polygon", "coordinates": [ [ [ -87.657349, 41.9432973 ], [ -87.657355, 41.9434291 ], [ -87.6572759, 41.9434313 ], [ -87.6572745, 41.9433902 ], [ -87.6572653, 41.9433901 ], [ -87.6572656, 41.9433654 ], [ -87.6572748, 41.9433655 ], [ -87.6572718, 41.9432982 ], [ -87.657349, 41.9432973 ] ] ] } },
{ "type": "Feature", "properties": { "@id": "way/210329052", "amenity": null, "building": "detached", "name": null, "GEOID": "17031062100" }, "geometry": { "type": "Polygon", "coordinates": [ [ [ -87.6527285, 41.9403749 ], [ -87.6527298, 41.9404215 ], [ -87.6524743, 41.9404255 ], [ -87.652473, 41.9403788 ], [ -87.6527285, 41.9403749 ] ] ] } },
{ "type": "Feature", "properties": { "@id": "way/210329055", "amenity": null, "building": "detached", "name": null, "GEOID": "17031062100" }, "geometry": { "type": "Polygon", "coordinates": [ [ [ -87.6527259, 41.9404435 ], [ -87.6527272, 41.9404942 ], [ -87.6524386, 41.9404994 ], [ -87.6524374, 41.9404472 ], [ -87.6527259, 41.9404435 ] ] ] } },
{ "type": "Feature", "properties": { "@id": "way/210329068", "amenity": null, "building": "detached", "name": null, "GEOID": "17031062100" }, "geometry": { "type": "Polygon", "coordinates": [ [ [ -87.6527331, 41.9405648 ], [ -87.6524107, 41.9405678 ], [ -87.6524091, 41.9405132 ], [ -87.6527094, 41.9405103 ], [ -87.6527324, 41.9405247 ], [ -87.6527331, 41.9405648 ] ] ] } },
{ "type": "Feature", "properties": { "@id": "way/210329093", "amenity": null, "building": "detached", "name": null, "GEOID": "17031062100" }, "geometry": { "type": "Polygon", "coordinates": [ [ [ -87.6527447, 41.9405808 ], [ -87.6527477, 41.9406384 ], [ -87.6525419, 41.9406413 ], [ -87.6525388, 41.9405837 ], [ -87.6527447, 41.9405808 ] ] ] } },
{ "type": "Feature", "properties": { "@id": "way/210329104", "amenity": null, "building": "detached", "name": null, "GEOID": "17031062100" }, "geometry": { "type": "Polygon", "coordinates": [ [ [ -87.6527017, 41.940645 ], [ -87.6527029, 41.9407068 ], [ -87.6524989, 41.9407097 ], [ -87.6524977, 41.9406479 ], [ -87.6527017, 41.940645 ] ] ] } },
{ "type": "Feature", "properties": { "@id": "way/210329109", "amenity": null, "building": "detached", "name": null, "GEOID": "17031062100" }, "geometry": { "type": "Polygon", "coordinates": [ [ [ -87.6526367, 41.9407119 ], [ -87.6526624, 41.940712 ], [ -87.6526862, 41.940719 ], [ -87.6527359, 41.9407179 ], [ -87.6527468, 41.9407276 ], [ -87.6527484, 41.9407468 ], [ -87.6527355, 41.9407522 ], [ -87.6527371, 41.9407756 ], [ -87.6525974, 41.9407775 ], [ -87.6525976, 41.9407638 ], [ -87.6525755, 41.940765 ], [ -87.6525754, 41.9407774 ], [ -87.6525037, 41.9407783 ], [ -87.6525024, 41.940722 ], [ -87.6526164, 41.94072 ], [ -87.6526367, 41.9407119 ] ] ] } },
{ "type": "Feature", "properties": { "@id": "way/210329131", "amenity": null, "building": "detached", "name": null, "GEOID": "17031062100" }, "geometry": { "type": "Polygon", "coordinates": [ [ [ -87.6527609, 41.9407826 ], [ -87.6527606, 41.94081 ], [ -87.6527753, 41.9408101 ], [ -87.6527768, 41.940843 ], [ -87.6525691, 41.9408459 ], [ -87.6525679, 41.9407855 ], [ -87.6527609, 41.9407826 ] ] ] } },
{ "type": "Feature", "properties": { "@id": "way/210329141", "amenity": null, "building": "detached", "name": null, "GEOID": "17031062100" }, "geometry": { "type": "Polygon", "coordinates": [ [ [ -87.6527357, 41.9409092 ], [ -87.6526701, 41.9409097 ], [ -87.6526273, 41.94091 ], [ -87.6524148, 41.9409117 ], [ -87.6524135, 41.9408568 ], [ -87.6527344, 41.9408546 ], [ -87.6527357, 41.9409092 ] ] ] } },
{ "type": "Feature", "properties": { "@id": "way/210330809", "amenity": null, "building": "detached", "name": null, "GEOID": "17031062000" }, "geometry": { "type": "Polygon", "coordinates": [ [ [ -87.6455756, 41.9407398 ], [ -87.6455806, 41.9409648 ], [ -87.6454795, 41.9409669 ], [ -87.6454727, 41.9407405 ], [ -87.6455756, 41.9407398 ] ] ] } },
{ "type": "Feature", "properties": { "@id": "way/210330816", "amenity": null, "building": "detached", "name": null, "GEOID": "17031062000" }, "geometry": { "type": "Polygon", "coordinates": [ [ [ -87.6456945, 41.9407926 ], [ -87.645702, 41.9409518 ], [ -87.6456689, 41.9409516 ], [ -87.6456688, 41.9409626 ], [ -87.6456155, 41.9409636 ], [ -87.64561, 41.9407948 ], [ -87.6456945, 41.9407926 ] ] ] } },
{ "type": "Feature", "properties": { "@id": "way/210330822", "amenity": null, "building": "detached", "name": null, "GEOID": "17031062000" }, "geometry": { "type": "Polygon", "coordinates": [ [ [ -87.6458229, 41.9408208 ], [ -87.6458268, 41.9409635 ], [ -87.6457386, 41.9409644 ], [ -87.6457346, 41.9408217 ], [ -87.6458229, 41.9408208 ] ] ] } },
{ "type": "Feature", "properties": { "@id": "way/210330824", "amenity": null, "building": "detached", "name": null, "GEOID": "17031062000" }, "geometry": { "type": "Polygon", "coordinates": [ [ [ -87.6459301, 41.9419576 ], [ -87.645934, 41.9421113 ], [ -87.6458605, 41.9421122 ], [ -87.6458566, 41.9419585 ], [ -87.6459301, 41.9419576 ] ] ] } },
{ "type": "Feature", "properties": { "@id": "way/210330834", "amenity": null, "building": "detached", "name": null, "GEOID": "17031062000" }, "geometry": { "type": "Polygon", "coordinates": [ [ [ -87.6459361, 41.9412318 ], [ -87.6459378, 41.9412441 ], [ -87.6459745, 41.941243 ], [ -87.6459803, 41.9413912 ], [ -87.6458939, 41.941392 ], [ -87.6458901, 41.9412329 ], [ -87.6459361, 41.9412318 ] ] ] } },
{ "type": "Feature", "properties": { "@id": "way/210330844", "amenity": null, "building": "detached", "name": null, "GEOID": "17031062000" }, "geometry": { "type": "Polygon", "coordinates": [ [ [ -87.6461108, 41.9412205 ], [ -87.6461131, 41.9413426 ], [ -87.6460341, 41.9413449 ], [ -87.6460327, 41.9413051 ], [ -87.6460143, 41.9413049 ], [ -87.6460132, 41.9412391 ], [ -87.6460316, 41.9412392 ], [ -87.6460317, 41.9412214 ], [ -87.6461108, 41.9412205 ] ] ] } },
{ "type": "Feature", "properties": { "@id": "way/210330864", "amenity": null, "building": "detached", "name": null, "GEOID": "17031062000" }, "geometry": { "type": "Polygon", "coordinates": [ [ [ -87.6463903, 41.941207 ], [ -87.6463973, 41.9414074 ], [ -87.6463569, 41.9414085 ], [ -87.6463571, 41.9413893 ], [ -87.6463185, 41.9413891 ], [ -87.6463131, 41.9412079 ], [ -87.6463903, 41.941207 ] ] ] } },
{ "type": "Feature", "properties": { "@id": "way/210330871", "amenity": null, "building": "detached", "name": null, "GEOID": "17031062000" }, "geometry": { "type": "Polygon", "coordinates": [ [ [ -87.6464673, 41.9412226 ], [ -87.6464712, 41.9413735 ], [ -87.6464069, 41.9413745 ], [ -87.6464011, 41.9412236 ], [ -87.6464673, 41.9412226 ] ] ] } },
{ "type": "Feature", "properties": { "@id": "way/210330877", "amenity": null, "building": "detached", "name": null, "GEOID": "17031062000" }, "geometry": { "type": "Polygon", "coordinates": [ [ [ -87.6465317, 41.9412161 ], [ -87.6465519, 41.9412162 ], [ -87.6465665, 41.9412273 ], [ -87.6465697, 41.9412712 ], [ -87.6465806, 41.9412795 ], [ -87.6465804, 41.9412987 ], [ -87.6465675, 41.9413041 ], [ -87.6465703, 41.9413879 ], [ -87.6464931, 41.9413901 ], [ -87.6464918, 41.9413352 ], [ -87.6465066, 41.9413271 ], [ -87.6465066, 41.941323 ], [ -87.6464901, 41.9413229 ], [ -87.6464874, 41.9412282 ], [ -87.6465205, 41.941227 ], [ -87.6465317, 41.9412161 ] ] ] } },
{ "type": "Feature", "properties": { "@id": "way/210330891", "amenity": null, "building": "detached", "name": null, "GEOID": "17031062000" }, "geometry": { "type": "Polygon", "coordinates": [ [ [ -87.6466658, 41.9412238 ], [ -87.6466714, 41.9413816 ], [ -87.6465905, 41.9413825 ], [ -87.6465867, 41.9412247 ], [ -87.6466658, 41.9412238 ] ] ] } },
{ "type": "Feature", "properties": { "@id": "way/210330898", "amenity": null, "building": "detached", "name": null, "GEOID": "17031062000" }, "geometry": { "type": "Polygon", "coordinates": [ [ [ -87.6467578, 41.9412092 ], [ -87.6467618, 41.9413506 ], [ -87.6466791, 41.9413515 ], [ -87.6466751, 41.9412101 ], [ -87.6467578, 41.9412092 ] ] ] } },
{ "type": "Feature", "properties": { "@id": "way/210330902", "amenity": null, "building": "detached", "name": null, "GEOID": "17031062000" }, "geometry": { "type": "Polygon", "coordinates": [ [ [ -87.6468587, 41.9412249 ], [ -87.6468627, 41.9413649 ], [ -87.646769, 41.9413657 ], [ -87.6467631, 41.9412271 ], [ -87.6468587, 41.9412249 ] ] ] } },
{ "type": "Feature", "properties": { "@id": "way/210330906", "amenity": null, "building": "detached", "name": null, "GEOID": "17031062000" }, "geometry": { "type": "Polygon", "coordinates": [ [ [ -87.6468951, 41.9419441 ], [ -87.646895, 41.9419578 ], [ -87.6469115, 41.9419579 ], [ -87.6469243, 41.9419676 ], [ -87.6469257, 41.9420061 ], [ -87.6469367, 41.9420116 ], [ -87.6469382, 41.9420391 ], [ -87.6469271, 41.94205 ], [ -87.646928, 41.9421364 ], [ -87.6468416, 41.9421386 ], [ -87.6468363, 41.9419451 ], [ -87.6468951, 41.9419441 ] ] ] } },
{ "type": "Feature", "properties": { "@id": "way/210330912", "amenity": null, "building": "detached", "name": null, "GEOID": "17031062000" }, "geometry": { "type": "Polygon", "coordinates": [ [ [ -87.6470272, 41.9407649 ], [ -87.6470308, 41.9409447 ], [ -87.6469977, 41.9409445 ], [ -87.6469903, 41.9409513 ], [ -87.6469682, 41.9409525 ], [ -87.6469573, 41.9409429 ], [ -87.64695, 41.9409428 ], [ -87.6469487, 41.940892 ], [ -87.6469396, 41.9408838 ], [ -87.6469416, 41.9408687 ], [ -87.646949, 41.9408632 ], [ -87.6469463, 41.9407658 ], [ -87.6470272, 41.9407649 ] ] ] } },
{ "type": "Feature", "properties": { "@id": "way/210330918", "amenity": null, "building": "detached", "name": null, "GEOID": "17031062000" }, "geometry": { "type": "Polygon", "coordinates": [ [ [ -87.647096, 41.941203 ], [ -87.6470991, 41.9412565 ], [ -87.6470844, 41.9412565 ], [ -87.6470872, 41.9413429 ], [ -87.6470247, 41.9413439 ], [ -87.6470232, 41.9413096 ], [ -87.647014, 41.9413109 ], [ -87.6470095, 41.9412149 ], [ -87.6470463, 41.9412137 ], [ -87.6470446, 41.9412041 ], [ -87.647096, 41.941203 ] ] ] } },
{ "type": "Feature", "properties": { "@id": "way/210330923", "amenity": null, "building": "detached", "name": null, "GEOID": "17031062000" }, "geometry": { "type": "Polygon", "coordinates": [ [ [ -87.6471986, 41.9415755 ], [ -87.6472029, 41.9416921 ], [ -87.6471147, 41.9416943 ], [ -87.6471122, 41.9415763 ], [ -87.6471986, 41.9415755 ] ] ] } },
{ "type": "Feature", "properties": { "@id": "way/210330947", "amenity": null, "building": "detached", "name": null, "GEOID": "17031062000" }, "geometry": { "type": "Polygon", "coordinates": [ [ [ -87.6474672, 41.9412121 ], [ -87.6474697, 41.9413219 ], [ -87.6474605, 41.9413232 ], [ -87.6474621, 41.9413452 ], [ -87.6473849, 41.9413461 ], [ -87.6473808, 41.941213 ], [ -87.6474672, 41.9412121 ] ] ] } },
{ "type": "Feature", "properties": { "@id": "way/210330961", "amenity": null, "building": "detached", "name": null, "GEOID": "17031062000" }, "geometry": { "type": "Polygon", "coordinates": [ [ [ -87.6475078, 41.9415348 ], [ -87.6475089, 41.9416034 ], [ -87.6475198, 41.9416144 ], [ -87.6475213, 41.9416515 ], [ -87.6475138, 41.9416611 ], [ -87.6475134, 41.9417036 ], [ -87.6474803, 41.9417048 ], [ -87.6474692, 41.9417129 ], [ -87.6474416, 41.9417114 ], [ -87.6474251, 41.9417031 ], [ -87.6474255, 41.9416688 ], [ -87.6474201, 41.9416591 ], [ -87.6474151, 41.9416152 ], [ -87.6474262, 41.9416056 ], [ -87.6474248, 41.9415631 ], [ -87.6474524, 41.9415633 ], [ -87.6474527, 41.9415358 ], [ -87.6475078, 41.9415348 ] ] ] } },
{ "type": "Feature", "properties": { "@id": "way/210330971", "amenity": null, "building": "detached", "name": null, "GEOID": "17031062000" }, "geometry": { "type": "Polygon", "coordinates": [ [ [ -87.647642, 41.9421187 ], [ -87.6476415, 41.9420968 ], [ -87.647647, 41.9420968 ], [ -87.6476469, 41.9421037 ], [ -87.6476506, 41.9421037 ], [ -87.6476494, 41.9420419 ], [ -87.6476647, 41.9420415 ], [ -87.6477285, 41.9420397 ], [ -87.647734, 41.9422057 ], [ -87.6476458, 41.9422066 ], [ -87.647642, 41.9421187 ] ] ] } },
{ "type": "Feature", "properties": { "@id": "way/210330996", "amenity": null, "building": "detached", "name": null, "GEOID": "17031062000" }, "geometry": { "type": "Polygon", "coordinates": [ [ [ -87.6480067, 41.942147 ], [ -87.6480092, 41.9422499 ], [ -87.6479192, 41.9422507 ], [ -87.6479166, 41.9421478 ], [ -87.6480067, 41.942147 ] ] ] } },
{ "type": "Feature", "properties": { "@id": "way/210330997", "amenity": null, "building": "detached", "name": null, "GEOID": "17031062000" }, "geometry": { "type": "Polygon", "coordinates": [ [ [ -87.6480051, 41.9419494 ], [ -87.6480074, 41.9420811 ], [ -87.6479963, 41.9420811 ], [ -87.647998, 41.9421003 ], [ -87.6479208, 41.9421012 ], [ -87.6479169, 41.9419502 ], [ -87.6480051, 41.9419494 ] ] ] } },
{ "type": "Feature", "properties": { "@id": "way/210331005", "amenity": null, "building": "detached", "name": null, "GEOID": "17031062000" }, "geometry": { "type": "Polygon", "coordinates": [ [ [ -87.647971, 41.9411877 ], [ -87.6479709, 41.9411959 ], [ -87.6479929, 41.941196 ], [ -87.6480039, 41.9412043 ], [ -87.6480086, 41.9412826 ], [ -87.6480159, 41.9412881 ], [ -87.6480156, 41.9413087 ], [ -87.6480045, 41.9413182 ], [ -87.6480074, 41.941391 ], [ -87.6479302, 41.9413932 ], [ -87.6479287, 41.9413576 ], [ -87.647938, 41.941348 ], [ -87.6479381, 41.9413411 ], [ -87.647929, 41.9413315 ], [ -87.6479273, 41.9413164 ], [ -87.6479329, 41.9413082 ], [ -87.647935, 41.9412862 ], [ -87.647926, 41.9412738 ], [ -87.6479232, 41.9411887 ], [ -87.647971, 41.9411877 ] ] ] } },
{ "type": "Feature", "properties": { "@id": "way/210331031", "amenity": null, "building": "detached", "name": null, "GEOID": "17031062000" }, "geometry": { "type": "Polygon", "coordinates": [ [ [ -87.6483237, 41.9411994 ], [ -87.648328, 41.9413147 ], [ -87.6482379, 41.9413169 ], [ -87.6482337, 41.9412002 ], [ -87.6483237, 41.9411994 ] ] ] } },
{ "type": "Feature", "properties": { "@id": "way/210331118", "amenity": null, "building": "detached", "name": null, "GEOID": "17031062100" }, "geometry": { "type": "Polygon", "coordinates": [ [ [ -87.650332, 41.9419276 ], [ -87.6503359, 41.9420813 ], [ -87.650244, 41.9420821 ], [ -87.6502441, 41.942067 ], [ -87.6502111, 41.9420668 ], [ -87.6502097, 41.9420215 ], [ -87.6502428, 41.9420217 ], [ -87.6502411, 41.9420121 ], [ -87.65023, 41.942012 ], [ -87.6502305, 41.9419723 ], [ -87.6502396, 41.9419723 ], [ -87.6502383, 41.9419298 ], [ -87.650332, 41.9419276 ] ] ] } },
{ "type": "Feature", "properties": { "@id": "way/210684916", "amenity": null, "building": "detached", "name": null, "GEOID": "17031071500" }, "geometry": { "type": "Polygon", "coordinates": [ [ [ -87.6384529, 41.911405 ], [ -87.6384525, 41.9114339 ], [ -87.6384489, 41.9114338 ], [ -87.6384485, 41.9114654 ], [ -87.6382299, 41.9114682 ], [ -87.6382287, 41.9114064 ], [ -87.6384529, 41.911405 ] ] ] } },
{ "type": "Feature", "properties": { "@id": "way/210684919", "amenity": null, "building": "detached", "name": null, "GEOID": "17031071500" }, "geometry": { "type": "Polygon", "coordinates": [ [ [ -87.6384595, 41.9114709 ], [ -87.6384592, 41.9115025 ], [ -87.6384518, 41.9115025 ], [ -87.6384515, 41.911534 ], [ -87.6382328, 41.9115368 ], [ -87.6382317, 41.9114737 ], [ -87.6384595, 41.9114709 ] ] ] } },
{ "type": "Feature", "properties": { "@id": "way/210684922", "amenity": null, "building": "detached", "name": null, "GEOID": "17031071500" }, "geometry": { "type": "Polygon", "coordinates": [ [ [ -87.6384385, 41.9115408 ], [ -87.6384383, 41.91156 ], [ -87.638453, 41.9115601 ], [ -87.6384544, 41.9116026 ], [ -87.6382358, 41.9116068 ], [ -87.6382346, 41.9115437 ], [ -87.6384385, 41.9115408 ] ] ] } },
{ "type": "Feature", "properties": { "@id": "way/210684926", "amenity": null, "building": "detached", "name": null, "GEOID": "17031071500" }, "geometry": { "type": "Polygon", "coordinates": [ [ [ -87.6383048, 41.9116731 ], [ -87.6382387, 41.9116741 ], [ -87.6382375, 41.9116137 ], [ -87.6384543, 41.9116109 ], [ -87.6384558, 41.9116383 ], [ -87.6384503, 41.9116369 ], [ -87.6384537, 41.9116699 ], [ -87.6383839, 41.9116694 ], [ -87.6383048, 41.9116731 ] ] ] } },
{ "type": "Feature", "properties": { "@id": "way/210684959", "amenity": null, "building": "detached", "name": null, "GEOID": "17031071500" }, "geometry": { "type": "Polygon", "coordinates": [ [ [ -87.6384304, 41.9122899 ], [ -87.6383036, 41.9122933 ], [ -87.6383025, 41.9122315 ], [ -87.6383502, 41.9122291 ], [ -87.6383651, 41.9122168 ], [ -87.6383908, 41.912217 ], [ -87.6384036, 41.9122253 ], [ -87.6384752, 41.912223 ], [ -87.6384745, 41.9122902 ], [ -87.6384304, 41.9122899 ] ] ] } },
{ "type": "Feature", "properties": { "@id": "way/210684965", "amenity": null, "building": "detached", "name": null, "GEOID": "17031071500" }, "geometry": { "type": "Polygon", "coordinates": [ [ [ -87.6382955, 41.9123605 ], [ -87.6382772, 41.9123603 ], [ -87.6382761, 41.9122931 ], [ -87.6383036, 41.9122933 ], [ -87.6384304, 41.9122899 ], [ -87.6384315, 41.9123585 ], [ -87.6382955, 41.9123605 ] ] ] } },
{ "type": "Feature", "properties": { "@id": "way/210685797", "amenity": null, "building": "detached", "name": null, "GEOID": "17031071500" }, "geometry": { "type": "Polygon", "coordinates": [ [ [ -87.6354726, 41.914842 ], [ -87.6355498, 41.9148424 ], [ -87.6355515, 41.9150249 ], [ -87.6354725, 41.9150258 ], [ -87.6354726, 41.914842 ] ] ] } },
{ "type": "Feature", "properties": { "@id": "way/210685818", "amenity": null, "building": "detached", "name": null, "GEOID": "17031071500" }, "geometry": { "type": "Polygon", "coordinates": [ [ [ -87.6356212, 41.9148662 ], [ -87.6356223, 41.9149334 ], [ -87.6356425, 41.9149335 ], [ -87.6356452, 41.9150241 ], [ -87.6355717, 41.915025 ], [ -87.6355679, 41.9148672 ], [ -87.6356212, 41.9148662 ] ] ] } },
{ "type": "Feature", "properties": { "@id": "way/565599330", "amenity": null, "building": "detached", "name": null, "GEOID": "17031062000" }, "geometry": { "type": "Polygon", "coordinates": [ [ [ -87.648205, 41.9411939 ], [ -87.6482092, 41.9413174 ], [ -87.6481357, 41.9413183 ], [ -87.6481315, 41.9411948 ], [ -87.648205, 41.9411939 ] ] ] } }
]
}
