{
"type": "FeatureCollection",
"name": "dormitory_location_data",
"crs": { "type": "name", "properties": { "name": "urn:ogc:def:crs:EPSG::4269" } },
"features": [
{ "type": "Feature", "properties": { "@id": "way/28010796", "amenity": null, "building": "dormitory", "name": "Francis X. McCabe Hall", "GEOID": "17031071100" }, "geometry": { "type": "Polygon", "coordinates": [ [ [ -87.6514724, 41.9242203 ], [ -87.6515997, 41.9242189 ], [ -87.6516316, 41.9242185 ], [ -87.65162, 41.9239112 ], [ -87.6516191, 41.9238864 ], [ -87.6516948, 41.9238853 ], [ -87.6516928, 41.9238171 ], [ -87.651623, 41.9238177 ], [ -87.6516191, 41.9237285 ], [ -87.6514574, 41.923729 ], [ -87.6514576, 41.923737 ], [ -87.6514724, 41.9242203 ] ] ] } },
{ "type": "Feature", "properties": { "@id": "way/28100377", "amenity": null, "building": "dormitory", "name": "Sanctuary Hall", "GEOID": "17031071000" }, "geometry": { "type": "Polygon", "coordinates": [ [ [ -87.6540561, 41.9245306 ], [ -87.6537936, 41.9245329 ], [ -87.6537952, 41.924637 ], [ -87.6538974, 41.9246361 ], [ -87.653898, 41.9246746 ], [ -87.6538144, 41.9246754 ], [ -87.6538162, 41.9247927 ], [ -87.6538552, 41.9247924 ], [ -87.6538557, 41.9248248 ], [ -87.6538966, 41.9248245 ], [ -87.6538982, 41.9249274 ], [ -87.6538356, 41.9249279 ], [ -87.6538371, 41.9250282 ], [ -87.653905, 41.9250276 ], [ -87.6539066, 41.9251381 ], [ -87.6538795, 41.9251383 ], [ -87.65388, 41.9251699 ], [ -87.6538374, 41.9251703 ], [ -87.6538389, 41.925275 ], [ -87.6538586, 41.9252891 ], [ -87.653912, 41.9252897 ], [ -87.6539364, 41.925273 ], [ -87.6542049, 41.925275 ], [ -87.654205, 41.9252655 ], [ -87.6542638, 41.925266 ], [ -87.6542643, 41.9252273 ], [ -87.654263, 41.9251627 ], [ -87.6541277, 41.9251642 ], [ -87.6541253, 41.9250462 ], [ -87.6540353, 41.9250472 ], [ -87.6540349, 41.9250298 ], [ -87.6542568, 41.9250274 ], [ -87.654328, 41.9249894 ], [ -87.6543237, 41.924951 ], [ -87.6542521, 41.924921 ], [ -87.6540293, 41.9249229 ], [ -87.654029, 41.9249051 ], [ -87.6541183, 41.9249044 ], [ -87.6541167, 41.9248036 ], [ -87.6541821, 41.924803 ], [ -87.6541802, 41.9246842 ], [ -87.6539578, 41.9246861 ], [ -87.6539569, 41.9246293 ], [ -87.6540576, 41.9246284 ], [ -87.6540561, 41.9245306 ] ] ] } },
{ "type": "Feature", "properties": { "@id": "way/158977044", "amenity": null, "building": "dormitory", "name": "Seton Hall", "GEOID": "17031070300" }, "geometry": { "type": "Polygon", "coordinates": [ [ [ -87.6535128, 41.9259422 ], [ -87.6535212, 41.9262576 ], [ -87.6530146, 41.9262659 ], [ -87.6530041, 41.9259501 ], [ -87.6535128, 41.9259422 ] ] ] } },
{ "type": "Feature", "properties": { "@id": "way/173393199", "amenity": null, "building": "dormitory", "name": "Corcoran Hall", "GEOID": "17031071100" }, "geometry": { "type": "Polygon", "coordinates": [ [ [ -87.6524318, 41.924912 ], [ -87.6515672, 41.9249293 ], [ -87.6515637, 41.924833 ], [ -87.6518738, 41.924831 ], [ -87.6518723, 41.924766 ], [ -87.6518722, 41.9247516 ], [ -87.6520794, 41.9247476 ], [ -87.6520791, 41.9247607 ], [ -87.6520808, 41.924828 ], [ -87.6524283, 41.9248158 ], [ -87.6524318, 41.924912 ] ] ] } },
{ "type": "Feature", "properties": { "@id": "way/210314885", "amenity": null, "building": "dormitory", "name": "Munroe Hall", "GEOID": "17031071000" }, "geometry": { "type": "Polygon", "coordinates": [ [ [ -87.6576373, 41.9236968 ], [ -87.6576379, 41.9237127 ], [ -87.6577329, 41.9237109 ], [ -87.6577352, 41.9237587 ], [ -87.657756, 41.9241912 ], [ -87.6574474, 41.9241922 ], [ -87.6574401, 41.9241306 ], [ -87.6573967, 41.9241314 ], [ -87.65739, 41.9239435 ], [ -87.6574379, 41.9239425 ], [ -87.657434, 41.9238311 ], [ -87.6573405, 41.9238329 ], [ -87.6573349, 41.9236725 ], [ -87.6575126, 41.9236691 ], [ -87.6575137, 41.9236992 ], [ -87.6576373, 41.9236968 ] ] ] } },
{ "type": "Feature", "properties": { "@id": "way/210318228", "amenity": null, "building": "dormitory", "name": "LeCompte Hall", "GEOID": "17031071000" }, "geometry": { "type": "Polygon", "coordinates": [ [ [ -87.6582813, 41.9241182 ], [ -87.6582691, 41.9241206 ], [ -87.6582655, 41.9241862 ], [ -87.6581777, 41.9241903 ], [ -87.6581713, 41.9241994 ], [ -87.6580894, 41.9241989 ], [ -87.6580895, 41.9241898 ], [ -87.6578407, 41.9241927 ], [ -87.6578412, 41.9241428 ], [ -87.657832, 41.9241428 ], [ -87.6578328, 41.9240681 ], [ -87.6578574, 41.9240683 ], [ -87.6578605, 41.9240502 ], [ -87.6579667, 41.9240508 ], [ -87.6579696, 41.9240621 ], [ -87.6580849, 41.9240649 ], [ -87.6580829, 41.9239722 ], [ -87.6580767, 41.9239699 ], [ -87.658077, 41.9239403 ], [ -87.6580834, 41.9239291 ], [ -87.6580378, 41.9239288 ], [ -87.6580392, 41.9239049 ], [ -87.6580415, 41.9238633 ], [ -87.6580749, 41.9238656 ], [ -87.6580763, 41.9237342 ], [ -87.658055, 41.9237341 ], [ -87.6580556, 41.9236682 ], [ -87.6580736, 41.9236708 ], [ -87.6580686, 41.9235915 ], [ -87.6582505, 41.9235901 ], [ -87.658256, 41.9236581 ], [ -87.6582652, 41.9236582 ], [ -87.6582703, 41.9237307 ], [ -87.6582552, 41.9237331 ], [ -87.6582573, 41.923819 ], [ -87.6582664, 41.923819 ], [ -87.658269, 41.9238555 ], [ -87.6582752, 41.9238556 ], [ -87.6582774, 41.9239258 ], [ -87.6582712, 41.923928 ], [ -87.6582669, 41.9240526 ], [ -87.6582791, 41.9240526 ], [ -87.6582813, 41.9241182 ] ] ] } },
{ "type": "Feature", "properties": { "@id": "way/210320781", "amenity": null, "building": "dormitory", "name": "Sheffield Square", "GEOID": "17031071000" }, "geometry": { "type": "Polygon", "coordinates": [ [ [ -87.6539833, 41.9241365 ], [ -87.6540072, 41.9241367 ], [ -87.6540071, 41.9241449 ], [ -87.6540199, 41.924145 ], [ -87.6540198, 41.9241587 ], [ -87.6541466, 41.9241581 ], [ -87.654153, 41.9244133 ], [ -87.6540318, 41.924414 ], [ -87.6540316, 41.9244291 ], [ -87.6540169, 41.924429 ], [ -87.6540168, 41.9244372 ], [ -87.6539819, 41.9244384 ], [ -87.6539802, 41.9244288 ], [ -87.6539655, 41.92443 ], [ -87.6539656, 41.9244136 ], [ -87.6538517, 41.9244156 ], [ -87.6538533, 41.9244349 ], [ -87.6538203, 41.9244347 ], [ -87.6538202, 41.9244429 ], [ -87.6537191, 41.924445 ], [ -87.6537166, 41.9243325 ], [ -87.6540749, 41.9243291 ], [ -87.6540722, 41.9242427 ], [ -87.6537157, 41.9242474 ], [ -87.6537131, 41.9241431 ], [ -87.6538418, 41.9241412 ], [ -87.6538415, 41.9241617 ], [ -87.6539536, 41.9241597 ], [ -87.6539538, 41.9241487 ], [ -87.6539795, 41.9241475 ], [ -87.6539796, 41.9241365 ], [ -87.6539833, 41.9241365 ] ] ] } },
{ "type": "Feature", "properties": { "@id": "way/210321276", "amenity": null, "building": "dormitory", "name": "Ozanam Hall", "GEOID": "17031071000" }, "geometry": { "type": "Polygon", "coordinates": [ [ [ -87.6583219, 41.9249838 ], [ -87.6583234, 41.9250255 ], [ -87.6583088, 41.9250258 ], [ -87.658313, 41.9251423 ], [ -87.6583271, 41.9251527 ], [ -87.6583264, 41.9251799 ], [ -87.658299, 41.9252012 ], [ -87.6582645, 41.9252014 ], [ -87.658252, 41.9251927 ], [ -87.6581109, 41.9251941 ], [ -87.6581111, 41.9252043 ], [ -87.6580252, 41.9252051 ], [ -87.6580249, 41.9251923 ], [ -87.6579887, 41.9251926 ], [ -87.6579888, 41.9251984 ], [ -87.6579237, 41.925199 ], [ -87.6579235, 41.9251907 ], [ -87.6577689, 41.9251921 ], [ -87.6577691, 41.9252002 ], [ -87.657676, 41.925201 ], [ -87.6576762, 41.9252129 ], [ -87.6575885, 41.9252136 ], [ -87.6575883, 41.9252056 ], [ -87.6574647, 41.9252066 ], [ -87.6574646, 41.9251977 ], [ -87.6574563, 41.9251978 ], [ -87.6574314, 41.9252157 ], [ -87.6573985, 41.9252155 ], [ -87.6573674, 41.9251948 ], [ -87.6573691, 41.9251702 ], [ -87.6573829, 41.9251588 ], [ -87.6573793, 41.9250577 ], [ -87.6573564, 41.9250581 ], [ -87.6573539, 41.9249877 ], [ -87.6573673, 41.9249875 ], [ -87.6573655, 41.9249365 ], [ -87.6578076, 41.9249277 ], [ -87.6583009, 41.9249178 ], [ -87.6583033, 41.9249841 ], [ -87.6583219, 41.9249838 ] ] ] } },
{ "type": "Feature", "properties": { "@id": "way/210323166", "amenity": null, "building": "dormitory", "name": "University Hall", "GEOID": "17031071000" }, "geometry": { "type": "Polygon", "coordinates": [ [ [ -87.6569851, 41.9244314 ], [ -87.6569858, 41.9244576 ], [ -87.6570036, 41.9244577 ], [ -87.6570081, 41.9245517 ], [ -87.6569903, 41.9245518 ], [ -87.6569921, 41.9245992 ], [ -87.65701, 41.9245997 ], [ -87.6570145, 41.9246969 ], [ -87.6569936, 41.924697 ], [ -87.6569957, 41.9247514 ], [ -87.6570501, 41.9247515 ], [ -87.6570503, 41.9247776 ], [ -87.6570638, 41.9247773 ], [ -87.6570659, 41.9248712 ], [ -87.6570516, 41.9248712 ], [ -87.6570527, 41.9248993 ], [ -87.6569985, 41.924899 ], [ -87.6570008, 41.9249546 ], [ -87.6570228, 41.9249547 ], [ -87.6570254, 41.9250507 ], [ -87.6570033, 41.9250506 ], [ -87.6570047, 41.9250986 ], [ -87.6570267, 41.9250988 ], [ -87.6570312, 41.9251928 ], [ -87.6570111, 41.9251926 ], [ -87.6570117, 41.9252233 ], [ -87.656838, 41.9252253 ], [ -87.6568365, 41.9251937 ], [ -87.6568052, 41.9251949 ], [ -87.6568025, 41.9251029 ], [ -87.6568338, 41.925103 ], [ -87.6568325, 41.9250554 ], [ -87.6568023, 41.9250562 ], [ -87.6568004, 41.924959 ], [ -87.6568279, 41.9249588 ], [ -87.6568284, 41.9249068 ], [ -87.6567682, 41.9249071 ], [ -87.6567685, 41.9248841 ], [ -87.6567537, 41.9248837 ], [ -87.6567481, 41.9248549 ], [ -87.6567441, 41.9248346 ], [ -87.6567461, 41.9248126 ], [ -87.6567518, 41.9247816 ], [ -87.656766, 41.9247816 ], [ -87.6567644, 41.9247587 ], [ -87.6568216, 41.9247583 ], [ -87.6568191, 41.924699 ], [ -87.656798, 41.9246988 ], [ -87.6567921, 41.9246083 ], [ -87.6568159, 41.9246082 ], [ -87.6568137, 41.9245556 ], [ -87.6567941, 41.9245558 ], [ -87.656791, 41.9244642 ], [ -87.6568158, 41.9244648 ], [ -87.6568142, 41.9244306 ], [ -87.6569851, 41.9244314 ] ] ] } },
{ "type": "Feature", "properties": { "@id": "way/307986253", "amenity": null, "building": "dormitory", "name": "Sanctuary Townhomes", "GEOID": "17031071000" }, "geometry": { "type": "Polygon", "coordinates": [ [ [ -87.6541654, 41.9245168 ], [ -87.6546299, 41.9245093 ], [ -87.6546489, 41.9251584 ], [ -87.654536, 41.9251602 ], [ -87.6545371, 41.9251987 ], [ -87.6545728, 41.9251982 ], [ -87.6545748, 41.9252689 ], [ -87.6542808, 41.9252736 ], [ -87.6542788, 41.9252032 ], [ -87.6543799, 41.9252016 ], [ -87.6543789, 41.9251668 ], [ -87.6543571, 41.9251671 ], [ -87.6543561, 41.9251341 ], [ -87.6544379, 41.9251328 ], [ -87.6544386, 41.9251562 ], [ -87.6544917, 41.9251553 ], [ -87.6544758, 41.9246115 ], [ -87.6541683, 41.9246165 ], [ -87.6541654, 41.9245168 ] ] ] } }
]
}
