{
"type": "FeatureCollection",
"name": "hospital_location_data",
"crs": { "type": "name", "properties": { "name": "urn:ogc:def:crs:EPSG::4269" } },
"features": [
{ "type": "Feature", "properties": { "@id": "way/24826061", "amenity": null, "building": "hospital", "name": "Conservation & Science Building / Zoo Hospital", "GEOID": "17031071400" }, "geometry": { "type": "Polygon", "coordinates": [ [ [ -87.6329639, 41.9236634 ], [ -87.6327752, 41.9232165 ], [ -87.6328935, 41.9231894 ], [ -87.6329674, 41.9231724 ], [ -87.6329811, 41.9231693 ], [ -87.6330309, 41.9231579 ], [ -87.6330844, 41.9232857 ], [ -87.632966, 41.9233151 ], [ -87.6329902, 41.923377 ], [ -87.6330197, 41.9233702 ], [ -87.6330702, 41.9234798 ], [ -87.6330263, 41.9234905 ], [ -87.6330386, 41.9235186 ], [ -87.6330533, 41.9235525 ], [ -87.6330757, 41.9235473 ], [ -87.6330914, 41.9235867 ], [ -87.6331091, 41.9236324 ], [ -87.6329639, 41.9236634 ] ] ] } },
{ "type": "Feature", "properties": { "@id": "way/210324969", "amenity": null, "building": "hospital", "name": "Barr Tower", "GEOID": "17031063000" }, "geometry": { "type": "Polygon", "coordinates": [ [ [ -87.6513238, 41.9373328 ], [ -87.6513237, 41.9373424 ], [ -87.6513862, 41.93734 ], [ -87.6513876, 41.9373826 ], [ -87.6513986, 41.9373826 ], [ -87.651403, 41.9374828 ], [ -87.651392, 41.9374828 ], [ -87.6513992, 41.9376694 ], [ -87.6510867, 41.9376758 ], [ -87.6510809, 41.9375303 ], [ -87.6510681, 41.9375302 ], [ -87.6510667, 41.9374891 ], [ -87.6510538, 41.9374904 ], [ -87.6510512, 41.9373902 ], [ -87.6510622, 41.9373889 ], [ -87.651059, 41.9373449 ], [ -87.6511233, 41.937344 ], [ -87.6511234, 41.9373371 ], [ -87.6513238, 41.9373328 ] ] ] } },
{ "type": "Feature", "properties": { "@id": "way/210326864", "amenity": null, "building": "hospital", "name": "Dental Center", "GEOID": "17031063000" }, "geometry": { "type": "Polygon", "coordinates": [ [ [ -87.6495289, 41.9360075 ], [ -87.6495795, 41.936007 ], [ -87.6497132, 41.9360056 ], [ -87.6497181, 41.9362722 ], [ -87.6495339, 41.9362741 ], [ -87.6495289, 41.9360075 ] ] ] } },
{ "type": "Feature", "properties": { "@id": "way/210327007", "amenity": null, "building": "hospital", "name": "Wellington Counseling & Pediatric Development Center", "GEOID": "17031063000" }, "geometry": { "type": "Polygon", "coordinates": [ [ [ -87.6520965, 41.9358849 ], [ -87.6521069, 41.9362054 ], [ -87.6520838, 41.936206 ], [ -87.6520282, 41.9362072 ], [ -87.652023, 41.9362077 ], [ -87.6520208, 41.9362183 ], [ -87.6517166, 41.9362219 ], [ -87.6517031, 41.9358929 ], [ -87.6520965, 41.9358849 ] ] ] } },
{ "type": "Feature", "properties": { "@id": "way/210327105", "amenity": null, "building": "hospital", "name": "Medical Office Center", "GEOID": "17031063000" }, "geometry": { "type": "Polygon", "coordinates": [ [ [ -87.6502046, 41.9366112 ], [ -87.6502052, 41.9366248 ], [ -87.6502048, 41.936643 ], [ -87.6496105, 41.9366555 ], [ -87.6494953, 41.9367438 ], [ -87.6495045, 41.9369952 ], [ -87.6495065, 41.9370608 ], [ -87.6493035, 41.9370642 ], [ -87.6492863, 41.9366537 ], [ -87.6493513, 41.9366529 ], [ -87.6493518, 41.9366391 ], [ -87.6493546, 41.9366274 ], [ -87.6493629, 41.9366119 ], [ -87.6493752, 41.9365962 ], [ -87.6493943, 41.9365808 ], [ -87.6494127, 41.9365706 ], [ -87.6494222, 41.9365668 ], [ -87.649444, 41.9365613 ], [ -87.6494814, 41.9365564 ], [ -87.6494756, 41.9364819 ], [ -87.6501957, 41.936466 ], [ -87.6502043, 41.9365904 ], [ -87.6502048, 41.9365972 ], [ -87.6502046, 41.9366112 ] ] ] } },
{ "type": "Feature", "properties": { "@id": "way/210686888", "amenity": null, "building": "hospital", "name": "Ascension Saint Joseph - Chicago", "GEOID": "17031063303" }, "geometry": { "type": "Polygon", "coordinates": [ [ [ -87.6374799, 41.9334962 ], [ -87.637664, 41.9334918 ], [ -87.6378578, 41.9334872 ], [ -87.6378788, 41.9341026 ], [ -87.6378821, 41.9341992 ], [ -87.6376045, 41.9342044 ], [ -87.6375934, 41.9342112 ], [ -87.6375787, 41.9342166 ], [ -87.6375603, 41.9342192 ], [ -87.6375382, 41.9342191 ], [ -87.6375162, 41.9342176 ], [ -87.637496, 41.9342133 ], [ -87.6374759, 41.9342064 ], [ -87.6372664, 41.9342106 ], [ -87.6372693, 41.9342778 ], [ -87.6370928, 41.9342823 ], [ -87.6370912, 41.934263 ], [ -87.637025, 41.934264 ], [ -87.6370235, 41.9342352 ], [ -87.636961, 41.9342362 ], [ -87.636953, 41.933959 ], [ -87.6369496, 41.9339329 ], [ -87.6369497, 41.933926 ], [ -87.6369462, 41.9339095 ], [ -87.636939, 41.933893 ], [ -87.6369263, 41.9338778 ], [ -87.63691, 41.933864 ], [ -87.6368899, 41.9338516 ], [ -87.6368771, 41.9338432 ], [ -87.6366762, 41.9337268 ], [ -87.6367042, 41.9336899 ], [ -87.6366512, 41.9336676 ], [ -87.6367332, 41.9335542 ], [ -87.636777, 41.9335819 ], [ -87.636792, 41.9335601 ], [ -87.6374812, 41.9335478 ], [ -87.6374799, 41.9334962 ] ] ] } },
{ "type": "Feature", "properties": { "@id": "way/210686959", "amenity": null, "building": "hospital", "name": "Presence Medical Group", "GEOID": "17031063302" }, "geometry": { "type": "Polygon", "coordinates": [ [ [ -87.6401734, 41.9330319 ], [ -87.640178, 41.9331127 ], [ -87.6401874, 41.93322 ], [ -87.639784, 41.9332266 ], [ -87.6397862, 41.9333565 ], [ -87.6395419, 41.9333629 ], [ -87.6395325, 41.9331109 ], [ -87.6394711, 41.9331119 ], [ -87.6394682, 41.933096 ], [ -87.6394714, 41.9330782 ], [ -87.6394828, 41.9330583 ], [ -87.6394981, 41.9330385 ], [ -87.6395114, 41.9330255 ], [ -87.6395298, 41.9330167 ], [ -87.6395506, 41.933005 ], [ -87.6395697, 41.9330024 ], [ -87.6395926, 41.9329997 ], [ -87.639619, 41.9330014 ], [ -87.6396203, 41.9330432 ], [ -87.6401734, 41.9330319 ] ] ] } },
{ "type": "Feature", "properties": { "@id": "way/304730318", "amenity": null, "building": "hospital", "name": "AMITA Center for Advanced Care", "GEOID": "17031063302" }, "geometry": { "type": "Polygon", "coordinates": [ [ [ -87.6391674, 41.9341489 ], [ -87.6390072, 41.9341527 ], [ -87.6390095, 41.9341962 ], [ -87.6388035, 41.9341991 ], [ -87.6388055, 41.9342532 ], [ -87.6388061, 41.9342679 ], [ -87.6384004, 41.9342763 ], [ -87.6383997, 41.9342602 ], [ -87.6383974, 41.9342064 ], [ -87.6381768, 41.9342092 ], [ -87.6381766, 41.9341695 ], [ -87.638142, 41.9341689 ], [ -87.6381194, 41.9341688 ], [ -87.6381102, 41.9340991 ], [ -87.6381146, 41.9337191 ], [ -87.6391457, 41.9337077 ], [ -87.6391674, 41.9341489 ] ] ] } },
{ "type": "Feature", "properties": { "@id": "way/330293600", "amenity": null, "building": "hospital", "name": "Center for Advanced Care", "GEOID": "17031063000" }, "geometry": { "type": "Polygon", "coordinates": [ [ [ -87.6516495, 41.9371535 ], [ -87.6516489, 41.9372602 ], [ -87.6516015, 41.9372608 ], [ -87.6516128, 41.9374252 ], [ -87.6516541, 41.9374258 ], [ -87.6516573, 41.9375915 ], [ -87.6516602, 41.937675 ], [ -87.6516151, 41.937676 ], [ -87.6516184, 41.937789 ], [ -87.651659, 41.9377921 ], [ -87.6516603, 41.9378521 ], [ -87.6518208, 41.9378479 ], [ -87.6518219, 41.9378722 ], [ -87.6518517, 41.9378726 ], [ -87.6518584, 41.9379801 ], [ -87.6519273, 41.9379866 ], [ -87.6519865, 41.9379835 ], [ -87.6520621, 41.9379727 ], [ -87.6521049, 41.9379705 ], [ -87.6521337, 41.9379732 ], [ -87.652161, 41.9379788 ], [ -87.6521562, 41.9378674 ], [ -87.6522365, 41.9378651 ], [ -87.6522366, 41.9378498 ], [ -87.6523137, 41.9378437 ], [ -87.6523758, 41.9378459 ], [ -87.652443, 41.9378518 ], [ -87.6525098, 41.9378646 ], [ -87.652527, 41.9378344 ], [ -87.6525656, 41.9378433 ], [ -87.6525528, 41.9375144 ], [ -87.6525514, 41.9374776 ], [ -87.6525005, 41.9374788 ], [ -87.6524855, 41.9374792 ], [ -87.6524705, 41.9374796 ], [ -87.6523815, 41.9374818 ], [ -87.6523746, 41.9374721 ], [ -87.6523012, 41.93749 ], [ -87.6522426, 41.9374991 ], [ -87.6521903, 41.9374991 ], [ -87.6521441, 41.9374785 ], [ -87.6521163, 41.9374464 ], [ -87.6521009, 41.9374097 ], [ -87.6521009, 41.9373639 ], [ -87.6521102, 41.9373249 ], [ -87.6521194, 41.9372814 ], [ -87.6521194, 41.937231 ], [ -87.652104, 41.9371783 ], [ -87.6520976, 41.9371458 ], [ -87.6520511, 41.9371466 ], [ -87.6516495, 41.9371535 ] ] ] } },
{ "type": "Feature", "properties": { "@id": "way/1223130590", "amenity": null, "building": "hospital", "name": "St. Joseph Medical Building", "GEOID": "17031063303" }, "geometry": { "type": "Polygon", "coordinates": [ [ [ -87.6377867, 41.9345498 ], [ -87.6376486, 41.9345532 ], [ -87.6376544, 41.9346831 ], [ -87.6375931, 41.9346846 ], [ -87.6375965, 41.9347601 ], [ -87.6375596, 41.934761 ], [ -87.6375667, 41.9349184 ], [ -87.6376346, 41.9349167 ], [ -87.6376578, 41.9354288 ], [ -87.6376805, 41.9354282 ], [ -87.6376836, 41.9354977 ], [ -87.6378291, 41.9354941 ], [ -87.6377867, 41.9345498 ] ] ] } }
]
}
