{
"type": "FeatureCollection",
"name": "hotel_location_data",
"crs": { "type": "name", "properties": { "name": "urn:ogc:def:crs:EPSG::4269" } },
"features": [
{ "type": "Feature", "properties": { "@id": "way/210322659", "amenity": null, "building": "hotel", "name": null, "GEOID": "17031070102" }, "geometry": { "type": "Polygon", "coordinates": [ [ [ -87.6440854, 41.9323582 ], [ -87.6440882, 41.9324406 ], [ -87.6438199, 41.9324458 ], [ -87.6438269, 41.9326407 ], [ -87.6438435, 41.9326408 ], [ -87.6438512, 41.9327289 ], [ -87.6436954, 41.9327359 ], [ -87.643681, 41.9323668 ], [ -87.6440854, 41.9323582 ] ] ] } },
{ "type": "Feature", "properties": { "@id": "way/210326714", "amenity": null, "building": "hotel", "name": "Hotel Versey", "GEOID": "17031063400" }, "geometry": { "type": "Polygon", "coordinates": [ [ [ -87.6458716, 41.9332015 ], [ -87.6455996, 41.9332043 ], [ -87.6455996, 41.9332111 ], [ -87.6454415, 41.9332143 ], [ -87.6454413, 41.9332308 ], [ -87.6453825, 41.9332318 ], [ -87.645114, 41.9329091 ], [ -87.6451271, 41.9328872 ], [ -87.6458606, 41.9328799 ], [ -87.6458716, 41.9332015 ] ] ] } },
{ "type": "Feature", "properties": { "@id": "way/210327088", "amenity": null, "building": "hotel", "name": null, "GEOID": "17031063000" }, "geometry": { "type": "Polygon", "coordinates": [ [ [ -87.6529517, 41.9394349 ], [ -87.6529545, 41.9395173 ], [ -87.6529343, 41.9395171 ], [ -87.6529443, 41.939782 ], [ -87.6529627, 41.9397821 ], [ -87.6529639, 41.9398356 ], [ -87.6527893, 41.9398401 ], [ -87.6527882, 41.9397742 ], [ -87.6528066, 41.939773 ], [ -87.6527966, 41.939504 ], [ -87.6527782, 41.9395052 ], [ -87.652777, 41.939438 ], [ -87.6529517, 41.9394349 ] ] ] } },
{ "type": "Feature", "properties": { "@id": "way/210329540", "amenity": null, "building": "hotel", "name": "Best Western Plus Hawthorne Terrace", "GEOID": "17031062000" }, "geometry": { "type": "Polygon", "coordinates": [ [ [ -87.6462493, 41.9440629 ], [ -87.6462861, 41.9440631 ], [ -87.6463129, 41.9441388 ], [ -87.6463126, 41.9441662 ], [ -87.6463291, 41.9441649 ], [ -87.6463289, 41.9441814 ], [ -87.646248, 41.9441837 ], [ -87.6462482, 41.944174 ], [ -87.645693, 41.9441831 ], [ -87.6456929, 41.944194 ], [ -87.6456047, 41.9441963 ], [ -87.6456023, 41.9440714 ], [ -87.6456998, 41.9440692 ], [ -87.6456996, 41.9440816 ], [ -87.6461757, 41.9440735 ], [ -87.6461756, 41.9440872 ], [ -87.6462509, 41.9440862 ], [ -87.6462493, 41.9440629 ] ] ] } }
]
}
