{
"type": "FeatureCollection",
"name": "house_location_data",
"crs": { "type": "name", "properties": { "name": "urn:ogc:def:crs:EPSG::4269" } },
"features": [
{ "type": "Feature", "properties": { "@id": "way/210316717", "amenity": null, "building": "house", "name": "Steel and Glass House", "GEOID": "17031071600" }, "geometry": { "type": "Polygon", "coordinates": [ [ [ -87.6433718, 41.9178252 ], [ -87.6434408, 41.9178251 ], [ -87.643441, 41.9179621 ], [ -87.6433682, 41.9179622 ], [ -87.6433683, 41.9179719 ], [ -87.6432556, 41.917972 ], [ -87.6432556, 41.9179639 ], [ -87.6431832, 41.917964 ], [ -87.643183, 41.9178271 ], [ -87.6432549, 41.917827 ], [ -87.643255, 41.9179085 ], [ -87.6433719, 41.9179084 ], [ -87.6433718, 41.9178252 ] ] ] } },
{ "type": "Feature", "properties": { "@id": "way/210320787", "amenity": null, "building": "house", "name": "Francis J. Dewes House", "GEOID": "17031070102" }, "geometry": { "type": "Polygon", "coordinates": [ [ [ -87.6415667, 41.9302684 ], [ -87.6416658, 41.9304433 ], [ -87.6415478, 41.930481 ], [ -87.6415403, 41.9305002 ], [ -87.6415146, 41.9304931 ], [ -87.6414927, 41.9304848 ], [ -87.6415039, 41.9304615 ], [ -87.6414823, 41.9304216 ], [ -87.641464, 41.9304187 ], [ -87.641455, 41.9304022 ], [ -87.6414606, 41.9303885 ], [ -87.6414372, 41.9303472 ], [ -87.6414188, 41.9303526 ], [ -87.6414007, 41.9303209 ], [ -87.6415169, 41.9302832 ], [ -87.6415667, 41.9302684 ] ] ] } },
{ "type": "Feature", "properties": { "@id": "way/210320996", "amenity": null, "building": "house", "name": null, "GEOID": "17031070400" }, "geometry": { "type": "Polygon", "coordinates": [ [ [ -87.6578018, 41.9276838 ], [ -87.6578058, 41.9277595 ], [ -87.65782, 41.9277582 ], [ -87.6578071, 41.9278916 ], [ -87.6576864, 41.9278936 ], [ -87.6576782, 41.9276931 ], [ -87.6577648, 41.9276965 ], [ -87.6577629, 41.9276833 ], [ -87.6578018, 41.9276838 ] ] ] } },
{ "type": "Feature", "properties": { "@id": "way/210321036", "amenity": null, "building": "house", "name": null, "GEOID": "17031070400" }, "geometry": { "type": "Polygon", "coordinates": [ [ [ -87.6582811, 41.9294151 ], [ -87.6582857, 41.9295097 ], [ -87.658301, 41.9295093 ], [ -87.6583091, 41.929679 ], [ -87.6583013, 41.9296792 ], [ -87.6583019, 41.9296921 ], [ -87.6582056, 41.9296946 ], [ -87.6582049, 41.9296806 ], [ -87.6581668, 41.9296816 ], [ -87.6581593, 41.9295263 ], [ -87.6582319, 41.9295244 ], [ -87.65823, 41.929485 ], [ -87.6582126, 41.9294855 ], [ -87.6582093, 41.929417 ], [ -87.6582811, 41.9294151 ] ] ] } },
{ "type": "Feature", "properties": { "@id": "way/210322555", "amenity": null, "building": "house", "name": "August Dewes House", "GEOID": "17031070102" }, "geometry": { "type": "Polygon", "coordinates": [ [ [ -87.6416228, 41.9301755 ], [ -87.6417546, 41.9303903 ], [ -87.6416827, 41.9304146 ], [ -87.6416773, 41.9304036 ], [ -87.6416644, 41.9304076 ], [ -87.6416102, 41.9303208 ], [ -87.6416231, 41.9303127 ], [ -87.6415636, 41.9302135 ], [ -87.6415986, 41.9302014 ], [ -87.6415896, 41.9301862 ], [ -87.6416228, 41.9301755 ] ] ] } },
{ "type": "Feature", "properties": { "@id": "way/210325586", "amenity": null, "building": "house", "name": null, "GEOID": "17031063302" }, "geometry": { "type": "Polygon", "coordinates": [ [ [ -87.6411664, 41.9334715 ], [ -87.6409407, 41.9334759 ], [ -87.6409403, 41.9334726 ], [ -87.6408999, 41.9334738 ], [ -87.6408984, 41.9334408 ], [ -87.6409407, 41.9334397 ], [ -87.6409409, 41.9334205 ], [ -87.6411633, 41.9334136 ], [ -87.6411664, 41.9334715 ] ] ] } },
{ "type": "Feature", "properties": { "@id": "way/210325592", "amenity": null, "building": "house", "name": null, "GEOID": "17031063302" }, "geometry": { "type": "Polygon", "coordinates": [ [ [ -87.6411695, 41.9335234 ], [ -87.6410776, 41.9335256 ], [ -87.6410611, 41.9335159 ], [ -87.6409435, 41.9335179 ], [ -87.6409407, 41.9334759 ], [ -87.6411664, 41.9334715 ], [ -87.6411695, 41.9335234 ] ] ] } },
{ "type": "Feature", "properties": { "@id": "way/210325600", "amenity": null, "building": "house", "name": null, "GEOID": "17031063302" }, "geometry": { "type": "Polygon", "coordinates": [ [ [ -87.6410776, 41.9335256 ], [ -87.6411695, 41.9335234 ], [ -87.6411695, 41.9335248 ], [ -87.6411805, 41.9335249 ], [ -87.6411915, 41.9335304 ], [ -87.6411912, 41.9335524 ], [ -87.6411801, 41.9335605 ], [ -87.6411672, 41.9335605 ], [ -87.6411685, 41.93358 ], [ -87.6409009, 41.9335847 ], [ -87.6409006, 41.9335822 ], [ -87.6408877, 41.9335821 ], [ -87.6408845, 41.9335409 ], [ -87.6410609, 41.9335351 ], [ -87.6410776, 41.9335256 ] ] ] } },
{ "type": "Feature", "properties": { "@id": "way/210325606", "amenity": null, "building": "house", "name": null, "GEOID": "17031063302" }, "geometry": { "type": "Polygon", "coordinates": [ [ [ -87.6411904, 41.9336319 ], [ -87.6411903, 41.9336341 ], [ -87.641079, 41.9336348 ], [ -87.6410637, 41.9336243 ], [ -87.6409037, 41.9336288 ], [ -87.6409009, 41.9335847 ], [ -87.6411685, 41.93358 ], [ -87.6411688, 41.9335824 ], [ -87.6411799, 41.9335825 ], [ -87.641183, 41.9336319 ], [ -87.6411904, 41.9336319 ] ] ] } },
{ "type": "Feature", "properties": { "@id": "way/210325615", "amenity": null, "building": "house", "name": null, "GEOID": "17031063302" }, "geometry": { "type": "Polygon", "coordinates": [ [ [ -87.6411919, 41.9336635 ], [ -87.6411735, 41.9336648 ], [ -87.6411743, 41.9336862 ], [ -87.6408939, 41.9336905 ], [ -87.6408907, 41.933648 ], [ -87.6410653, 41.9336435 ], [ -87.6410801, 41.9336354 ], [ -87.641079, 41.9336348 ], [ -87.6411903, 41.9336341 ], [ -87.6411919, 41.9336635 ] ] ] } },
{ "type": "Feature", "properties": { "@id": "way/210325634", "amenity": null, "building": "house", "name": null, "GEOID": "17031063302" }, "geometry": { "type": "Polygon", "coordinates": [ [ [ -87.6411781, 41.9337471 ], [ -87.6410825, 41.9337493 ], [ -87.6410643, 41.9337341 ], [ -87.6410458, 41.9337436 ], [ -87.6410311, 41.9337449 ], [ -87.6410091, 41.9337379 ], [ -87.6410091, 41.933742 ], [ -87.6408712, 41.9337467 ], [ -87.6408681, 41.9336918 ], [ -87.6408939, 41.9336905 ], [ -87.6411743, 41.9336862 ], [ -87.641175, 41.9336977 ], [ -87.6411842, 41.9336964 ], [ -87.6411857, 41.9337239 ], [ -87.6411765, 41.9337238 ], [ -87.6411781, 41.9337471 ] ] ] } },
{ "type": "Feature", "properties": { "@id": "way/210325641", "amenity": null, "building": "house", "name": null, "GEOID": "17031063302" }, "geometry": { "type": "Polygon", "coordinates": [ [ [ -87.6410825, 41.9337493 ], [ -87.6411781, 41.9337471 ], [ -87.6411891, 41.9337458 ], [ -87.6412001, 41.9337555 ], [ -87.6411998, 41.9337761 ], [ -87.6411906, 41.9337829 ], [ -87.641174, 41.9337842 ], [ -87.6411756, 41.9338089 ], [ -87.640933, 41.9338123 ], [ -87.640933, 41.9338088 ], [ -87.6408926, 41.9338099 ], [ -87.6408912, 41.9337646 ], [ -87.6410181, 41.9337613 ], [ -87.6410273, 41.9337572 ], [ -87.6410494, 41.9337573 ], [ -87.6410658, 41.9337629 ], [ -87.6410825, 41.9337493 ] ] ] } },
{ "type": "Feature", "properties": { "@id": "way/210325647", "amenity": null, "building": "house", "name": null, "GEOID": "17031063302" }, "geometry": { "type": "Polygon", "coordinates": [ [ [ -87.6411786, 41.9338665 ], [ -87.6410849, 41.9338687 ], [ -87.6410722, 41.9338576 ], [ -87.6408828, 41.9338634 ], [ -87.6408796, 41.9338222 ], [ -87.6409329, 41.9338211 ], [ -87.640933, 41.9338123 ], [ -87.6411756, 41.9338089 ], [ -87.6411786, 41.9338665 ] ] ] } },
{ "type": "Feature", "properties": { "@id": "way/210326461", "amenity": null, "building": "house", "name": null, "GEOID": "17031063200" }, "geometry": { "type": "Polygon", "coordinates": [ [ [ -87.6401794, 41.9370493 ], [ -87.6402254, 41.9370471 ], [ -87.6402291, 41.9370468 ], [ -87.6403151, 41.9370446 ], [ -87.6403177, 41.9371132 ], [ -87.6401824, 41.9371165 ], [ -87.6401794, 41.9370493 ] ] ] } },
{ "type": "Feature", "properties": { "@id": "way/210326462", "amenity": null, "building": "house", "name": null, "GEOID": "17031063200" }, "geometry": { "type": "Polygon", "coordinates": [ [ [ -87.6403633, 41.9370435 ], [ -87.6404055, 41.9370462 ], [ -87.6404066, 41.937111 ], [ -87.6403177, 41.9371132 ], [ -87.6403151, 41.9370446 ], [ -87.6403633, 41.9370435 ] ] ] } },
{ "type": "Feature", "properties": { "@id": "way/210326464", "amenity": null, "building": "house", "name": null, "GEOID": "17031063200" }, "geometry": { "type": "Polygon", "coordinates": [ [ [ -87.6404055, 41.9370462 ], [ -87.6403633, 41.9370435 ], [ -87.6403594, 41.9369603 ], [ -87.6404605, 41.936959 ], [ -87.6404643, 41.9370455 ], [ -87.6404099, 41.9370465 ], [ -87.6404055, 41.9370462 ] ] ] } },
{ "type": "Feature", "properties": { "@id": "way/210326467", "amenity": null, "building": "house", "name": null, "GEOID": "17031063200" }, "geometry": { "type": "Polygon", "coordinates": [ [ [ -87.6404605, 41.936959 ], [ -87.6403594, 41.9369603 ], [ -87.6403558, 41.9368838 ], [ -87.6404572, 41.9368846 ], [ -87.6404605, 41.936959 ] ] ] } },
{ "type": "Feature", "properties": { "@id": "way/210326472", "amenity": null, "building": "house", "name": null, "GEOID": "17031063200" }, "geometry": { "type": "Polygon", "coordinates": [ [ [ -87.6403558, 41.9368838 ], [ -87.6403529, 41.9368171 ], [ -87.6403271, 41.9368183 ], [ -87.6403269, 41.9368073 ], [ -87.6404541, 41.9368061 ], [ -87.6404572, 41.9368846 ], [ -87.6403558, 41.9368838 ] ] ] } },
{ "type": "Feature", "properties": { "@id": "way/210326479", "amenity": null, "building": "house", "name": null, "GEOID": "17031063200" }, "geometry": { "type": "Polygon", "coordinates": [ [ [ -87.6404541, 41.9368061 ], [ -87.6403269, 41.9368073 ], [ -87.6403257, 41.9367812 ], [ -87.6403442, 41.9367676 ], [ -87.6403429, 41.9367196 ], [ -87.6404642, 41.9367162 ], [ -87.6404672, 41.9367752 ], [ -87.6404525, 41.9367751 ], [ -87.6404541, 41.9368061 ] ] ] } },
{ "type": "Feature", "properties": { "@id": "way/210326483", "amenity": null, "building": "house", "name": null, "GEOID": "17031063200" }, "geometry": { "type": "Polygon", "coordinates": [ [ [ -87.6406096, 41.9368351 ], [ -87.6404901, 41.9368343 ], [ -87.6404875, 41.936774 ], [ -87.6406069, 41.9367728 ], [ -87.6406096, 41.9368351 ] ] ] } },
{ "type": "Feature", "properties": { "@id": "way/210326484", "amenity": null, "building": "house", "name": null, "GEOID": "17031063200" }, "geometry": { "type": "Polygon", "coordinates": [ [ [ -87.6406069, 41.9367728 ], [ -87.6404875, 41.936774 ], [ -87.6404845, 41.9367067 ], [ -87.640604, 41.9367047 ], [ -87.6406069, 41.9367728 ] ] ] } },
{ "type": "Feature", "properties": { "@id": "way/210326489", "amenity": null, "building": "house", "name": null, "GEOID": "17031063200" }, "geometry": { "type": "Polygon", "coordinates": [ [ [ -87.6404901, 41.9368343 ], [ -87.6406096, 41.9368351 ], [ -87.6406119, 41.9368913 ], [ -87.6404924, 41.9368928 ], [ -87.6404901, 41.9368343 ] ] ] } },
{ "type": "Feature", "properties": { "@id": "way/210326490", "amenity": null, "building": "house", "name": null, "GEOID": "17031063200" }, "geometry": { "type": "Polygon", "coordinates": [ [ [ -87.6406149, 41.9369558 ], [ -87.6404951, 41.9369554 ], [ -87.6404924, 41.9368928 ], [ -87.6406119, 41.9368913 ], [ -87.6406149, 41.9369558 ] ] ] } },
{ "type": "Feature", "properties": { "@id": "way/210326491", "amenity": null, "building": "house", "name": null, "GEOID": "17031063200" }, "geometry": { "type": "Polygon", "coordinates": [ [ [ -87.6404977, 41.9370177 ], [ -87.6406175, 41.9370162 ], [ -87.6406201, 41.9370807 ], [ -87.6405007, 41.9370841 ], [ -87.6404977, 41.9370177 ] ] ] } },
{ "type": "Feature", "properties": { "@id": "way/210326492", "amenity": null, "building": "house", "name": null, "GEOID": "17031063200" }, "geometry": { "type": "Polygon", "coordinates": [ [ [ -87.6406175, 41.9370162 ], [ -87.6404977, 41.9370177 ], [ -87.6404951, 41.9369554 ], [ -87.6406149, 41.9369558 ], [ -87.6406175, 41.9370162 ] ] ] } },
{ "type": "Feature", "properties": { "@id": "way/210326540", "amenity": null, "building": "house", "name": null, "GEOID": "17031063301" }, "geometry": { "type": "Polygon", "coordinates": [ [ [ -87.6420123, 41.935422 ], [ -87.6419391, 41.9354229 ], [ -87.6419369, 41.9352912 ], [ -87.6420078, 41.9352903 ], [ -87.6420123, 41.935422 ] ] ] } },
{ "type": "Feature", "properties": { "@id": "way/210326546", "amenity": null, "building": "house", "name": null, "GEOID": "17031063301" }, "geometry": { "type": "Polygon", "coordinates": [ [ [ -87.6420806, 41.9354213 ], [ -87.6420123, 41.935422 ], [ -87.6420078, 41.9352903 ], [ -87.6420762, 41.9352896 ], [ -87.6420806, 41.9354213 ] ] ] } },
{ "type": "Feature", "properties": { "@id": "way/210326549", "amenity": null, "building": "house", "name": null, "GEOID": "17031063301" }, "geometry": { "type": "Polygon", "coordinates": [ [ [ -87.6421468, 41.9354206 ], [ -87.6420806, 41.9354213 ], [ -87.6420762, 41.9352896 ], [ -87.6421457, 41.9352889 ], [ -87.6421468, 41.9354206 ] ] ] } },
{ "type": "Feature", "properties": { "@id": "way/210326554", "amenity": null, "building": "house", "name": null, "GEOID": "17031063301" }, "geometry": { "type": "Polygon", "coordinates": [ [ [ -87.642217, 41.93542 ], [ -87.6421468, 41.9354206 ], [ -87.6421457, 41.9352889 ], [ -87.6422129, 41.9352882 ], [ -87.642217, 41.93542 ] ] ] } },
{ "type": "Feature", "properties": { "@id": "way/210326557", "amenity": null, "building": "house", "name": null, "GEOID": "17031063301" }, "geometry": { "type": "Polygon", "coordinates": [ [ [ -87.6422935, 41.935419 ], [ -87.642217, 41.93542 ], [ -87.6422129, 41.9352882 ], [ -87.642289, 41.9352873 ], [ -87.6422935, 41.935419 ] ] ] } },
{ "type": "Feature", "properties": { "@id": "way/210326565", "amenity": null, "building": "house", "name": null, "GEOID": "17031063301" }, "geometry": { "type": "Polygon", "coordinates": [ [ [ -87.6423611, 41.9354184 ], [ -87.6422935, 41.935419 ], [ -87.642289, 41.9352873 ], [ -87.6423566, 41.9352866 ], [ -87.6423611, 41.9354184 ] ] ] } },
{ "type": "Feature", "properties": { "@id": "way/210326568", "amenity": null, "building": "house", "name": null, "GEOID": "17031063301" }, "geometry": { "type": "Polygon", "coordinates": [ [ [ -87.6424298, 41.9354174 ], [ -87.6423611, 41.9354184 ], [ -87.6423566, 41.9352866 ], [ -87.6424254, 41.9352856 ], [ -87.6424298, 41.9354174 ] ] ] } },
{ "type": "Feature", "properties": { "@id": "way/210326574", "amenity": null, "building": "house", "name": null, "GEOID": "17031063301" }, "geometry": { "type": "Polygon", "coordinates": [ [ [ -87.6424905, 41.9354167 ], [ -87.6424298, 41.9354174 ], [ -87.6424254, 41.9352856 ], [ -87.6424864, 41.9352849 ], [ -87.6424905, 41.9354167 ] ] ] } },
{ "type": "Feature", "properties": { "@id": "way/210326837", "amenity": null, "building": "house", "name": null, "GEOID": "17031063100" }, "geometry": { "type": "Polygon", "coordinates": [ [ [ -87.6482234, 41.9395865 ], [ -87.6482249, 41.9396181 ], [ -87.6482524, 41.9396169 ], [ -87.6482537, 41.9396745 ], [ -87.6482242, 41.9396757 ], [ -87.6482258, 41.9397059 ], [ -87.6482533, 41.9397061 ], [ -87.6482549, 41.9397281 ], [ -87.6482678, 41.9397281 ], [ -87.6482676, 41.9397501 ], [ -87.6482547, 41.93975 ], [ -87.648256, 41.9397994 ], [ -87.648267, 41.9397995 ], [ -87.6482699, 41.9398736 ], [ -87.6482534, 41.9398735 ], [ -87.6482531, 41.9398982 ], [ -87.6481998, 41.9398992 ], [ -87.6482001, 41.9398732 ], [ -87.6481743, 41.9398744 ], [ -87.648173, 41.9398319 ], [ -87.6481602, 41.9398235 ], [ -87.6481571, 41.9397673 ], [ -87.6481442, 41.9397672 ], [ -87.6481315, 41.9397603 ], [ -87.6481298, 41.9397452 ], [ -87.6481354, 41.9397383 ], [ -87.6481326, 41.939656 ], [ -87.6480921, 41.9396571 ], [ -87.6480892, 41.9395885 ], [ -87.6482234, 41.9395865 ] ] ] } },
{ "type": "Feature", "properties": { "@id": "way/210327923", "amenity": null, "building": "house", "name": null, "GEOID": "17031063302" }, "geometry": { "type": "Polygon", "coordinates": [ [ [ -87.6408937, 41.9338744 ], [ -87.6410536, 41.9338754 ], [ -87.6410533, 41.9339001 ], [ -87.641046, 41.9339 ], [ -87.6410456, 41.9339357 ], [ -87.6408931, 41.9339348 ], [ -87.6408937, 41.9338744 ] ] ] } },
{ "type": "Feature", "properties": { "@id": "way/210329185", "amenity": null, "building": "house", "name": null, "GEOID": "17031062100" }, "geometry": { "type": "Polygon", "coordinates": [ [ [ -87.652808, 41.9411755 ], [ -87.652641, 41.9411783 ], [ -87.6526448, 41.9411606 ], [ -87.6526432, 41.9411331 ], [ -87.6528068, 41.9411314 ], [ -87.652808, 41.9411755 ] ] ] } },
{ "type": "Feature", "properties": { "@id": "way/210329199", "amenity": null, "building": "house", "name": null, "GEOID": "17031062100" }, "geometry": { "type": "Polygon", "coordinates": [ [ [ -87.6526386, 41.9412223 ], [ -87.6526371, 41.9411962 ], [ -87.652641, 41.9411783 ], [ -87.652808, 41.9411755 ], [ -87.6528093, 41.9412267 ], [ -87.6526386, 41.9412223 ] ] ] } },
{ "type": "Feature", "properties": { "@id": "way/210329207", "amenity": null, "building": "house", "name": null, "GEOID": "17031062100" }, "geometry": { "type": "Polygon", "coordinates": [ [ [ -87.6526386, 41.9412223 ], [ -87.6528093, 41.9412267 ], [ -87.6528107, 41.9412823 ], [ -87.65266, 41.9412842 ], [ -87.6526603, 41.9412567 ], [ -87.6525868, 41.9412577 ], [ -87.6525871, 41.9412234 ], [ -87.6526386, 41.9412223 ] ] ] } },
{ "type": "Feature", "properties": { "@id": "way/210330833", "amenity": null, "building": "house", "name": null, "GEOID": "17031062000" }, "geometry": { "type": "Polygon", "coordinates": [ [ [ -87.6461094, 41.9428876 ], [ -87.646115, 41.9430564 ], [ -87.6459716, 41.9430582 ], [ -87.6459661, 41.9428894 ], [ -87.6461094, 41.9428876 ] ] ] } },
{ "type": "Feature", "properties": { "@id": "way/210330894", "amenity": null, "building": "house", "name": null, "GEOID": "17031062000" }, "geometry": { "type": "Polygon", "coordinates": [ [ [ -87.6466498, 41.9408244 ], [ -87.6466526, 41.9409081 ], [ -87.6466635, 41.9409178 ], [ -87.6466633, 41.9409411 ], [ -87.6466503, 41.940952 ], [ -87.6466518, 41.9409863 ], [ -87.6466407, 41.9409945 ], [ -87.6466204, 41.9409957 ], [ -87.6466077, 41.9409874 ], [ -87.6465782, 41.9409872 ], [ -87.6465755, 41.9409022 ], [ -87.6465848, 41.940894 ], [ -87.6465849, 41.9408857 ], [ -87.6465702, 41.9408788 ], [ -87.646569, 41.9408253 ], [ -87.6466498, 41.9408244 ] ] ] } },
{ "type": "Feature", "properties": { "@id": "way/210685004", "amenity": null, "building": "house", "name": "Hery Gerber House", "GEOID": "17031071500" }, "geometry": { "type": "Polygon", "coordinates": [ [ [ -87.6361373, 41.9131846 ], [ -87.6361369, 41.9132187 ], [ -87.6360285, 41.9132221 ], [ -87.6360211, 41.9132317 ], [ -87.6358991, 41.913234 ], [ -87.6358981, 41.9131867 ], [ -87.6361373, 41.9131846 ] ] ] } },
{ "type": "Feature", "properties": { "@id": "way/210685519", "amenity": null, "building": "house", "name": null, "GEOID": "17031071500" }, "geometry": { "type": "Polygon", "coordinates": [ [ [ -87.6365182, 41.9162514 ], [ -87.6364566, 41.9162523 ], [ -87.636455, 41.9162351 ], [ -87.6364311, 41.9162364 ], [ -87.6364298, 41.9161869 ], [ -87.6365162, 41.9161861 ], [ -87.6365182, 41.9162514 ] ] ] } },
{ "type": "Feature", "properties": { "@id": "way/210685941", "amenity": null, "building": "house", "name": null, "GEOID": "17031071500" }, "geometry": { "type": "Polygon", "coordinates": [ [ [ -87.6372283, 41.91641 ], [ -87.6371335, 41.9164116 ], [ -87.6371284, 41.9161742 ], [ -87.6372217, 41.9161725 ], [ -87.6372283, 41.91641 ] ] ] } },
{ "type": "Feature", "properties": { "@id": "way/210686879", "amenity": null, "building": "house", "name": "Theurer-Wrigley House", "GEOID": "17031070101" }, "geometry": { "type": "Polygon", "coordinates": [ [ [ -87.6396535, 41.9275909 ], [ -87.6395687, 41.9276164 ], [ -87.6395759, 41.9276302 ], [ -87.6395832, 41.9276289 ], [ -87.6395951, 41.9276501 ], [ -87.6395111, 41.927671 ], [ -87.6394949, 41.9276407 ], [ -87.6393972, 41.9276717 ], [ -87.6393737, 41.9276331 ], [ -87.6393608, 41.9276385 ], [ -87.6393374, 41.9275958 ], [ -87.6393484, 41.9275918 ], [ -87.639325, 41.9275532 ], [ -87.6393342, 41.9275505 ], [ -87.6393252, 41.927534 ], [ -87.639445, 41.9274977 ], [ -87.6394414, 41.9274867 ], [ -87.6395226, 41.9274611 ], [ -87.6395298, 41.9274749 ], [ -87.6395703, 41.9274628 ], [ -87.6395757, 41.927471 ], [ -87.6395831, 41.9274683 ], [ -87.6396535, 41.9275909 ] ] ] } },
{ "type": "Feature", "properties": { "@id": "way/210686907", "amenity": null, "building": "house", "name": null, "GEOID": "17031063302" }, "geometry": { "type": "Polygon", "coordinates": [ [ [ -87.6390954, 41.9360167 ], [ -87.6390531, 41.9360161 ], [ -87.6390502, 41.9359502 ], [ -87.6392413, 41.9359487 ], [ -87.6392428, 41.9360179 ], [ -87.6390954, 41.9360167 ] ] ] } },
{ "type": "Feature", "properties": { "@id": "way/210686908", "amenity": null, "building": "house", "name": null, "GEOID": "17031063302" }, "geometry": { "type": "Polygon", "coordinates": [ [ [ -87.6392443, 41.9360865 ], [ -87.6390965, 41.9360875 ], [ -87.6390954, 41.9360167 ], [ -87.6392428, 41.9360179 ], [ -87.6392443, 41.9360865 ] ] ] } },
{ "type": "Feature", "properties": { "@id": "way/210686909", "amenity": null, "building": "house", "name": null, "GEOID": "17031063302" }, "geometry": { "type": "Polygon", "coordinates": [ [ [ -87.6392455, 41.9361418 ], [ -87.6390995, 41.9361426 ], [ -87.6387195, 41.9361447 ], [ -87.6387171, 41.936092 ], [ -87.6390965, 41.9360875 ], [ -87.6392443, 41.9360865 ], [ -87.6392455, 41.9361418 ] ] ] } },
{ "type": "Feature", "properties": { "@id": "way/210686911", "amenity": null, "building": "house", "name": null, "GEOID": "17031063302" }, "geometry": { "type": "Polygon", "coordinates": [ [ [ -87.639101, 41.9362137 ], [ -87.6390995, 41.9361426 ], [ -87.6392455, 41.9361418 ], [ -87.6392471, 41.9362147 ], [ -87.639101, 41.9362137 ] ] ] } },
{ "type": "Feature", "properties": { "@id": "way/210686912", "amenity": null, "building": "house", "name": null, "GEOID": "17031063302" }, "geometry": { "type": "Polygon", "coordinates": [ [ [ -87.6392482, 41.9362685 ], [ -87.639078, 41.9362687 ], [ -87.6390633, 41.9362686 ], [ -87.6387244, 41.9362693 ], [ -87.638722, 41.9362183 ], [ -87.639101, 41.9362137 ], [ -87.6392471, 41.9362147 ], [ -87.6392482, 41.9362685 ] ] ] } },
{ "type": "Feature", "properties": { "@id": "way/210686913", "amenity": null, "building": "house", "name": null, "GEOID": "17031063302" }, "geometry": { "type": "Polygon", "coordinates": [ [ [ -87.6392497, 41.9363373 ], [ -87.6390799, 41.9363391 ], [ -87.639078, 41.9362687 ], [ -87.6392482, 41.9362685 ], [ -87.6392497, 41.9363373 ] ] ] } },
{ "type": "Feature", "properties": { "@id": "way/210686914", "amenity": null, "building": "house", "name": null, "GEOID": "17031063302" }, "geometry": { "type": "Polygon", "coordinates": [ [ [ -87.6392511, 41.9363992 ], [ -87.6390817, 41.9364024 ], [ -87.6390799, 41.9363391 ], [ -87.6392497, 41.9363373 ], [ -87.6392511, 41.9363992 ] ] ] } },
{ "type": "Feature", "properties": { "@id": "way/210686945", "amenity": null, "building": "house", "name": null, "GEOID": "17031063302" }, "geometry": { "type": "Polygon", "coordinates": [ [ [ -87.6390817, 41.9364024 ], [ -87.6392511, 41.9363992 ], [ -87.6392523, 41.9364564 ], [ -87.6390832, 41.9364581 ], [ -87.6390817, 41.9364024 ] ] ] } },
{ "type": "Feature", "properties": { "@id": "way/210686948", "amenity": null, "building": "house", "name": null, "GEOID": "17031063302" }, "geometry": { "type": "Polygon", "coordinates": [ [ [ -87.6395919, 41.9344848 ], [ -87.6395948, 41.9345658 ], [ -87.6395117, 41.9345672 ], [ -87.6395089, 41.9344862 ], [ -87.6395919, 41.9344848 ] ] ] } },
{ "type": "Feature", "properties": { "@id": "way/210686950", "amenity": null, "building": "house", "name": null, "GEOID": "17031063302" }, "geometry": { "type": "Polygon", "coordinates": [ [ [ -87.6395919, 41.9344848 ], [ -87.6396799, 41.9344832 ], [ -87.6396827, 41.9345642 ], [ -87.6395948, 41.9345658 ], [ -87.6395919, 41.9344848 ] ] ] } },
{ "type": "Feature", "properties": { "@id": "way/210686951", "amenity": null, "building": "house", "name": null, "GEOID": "17031063302" }, "geometry": { "type": "Polygon", "coordinates": [ [ [ -87.6396799, 41.9344832 ], [ -87.6397667, 41.9344817 ], [ -87.6397695, 41.9345627 ], [ -87.6396827, 41.9345642 ], [ -87.6396799, 41.9344832 ] ] ] } },
{ "type": "Feature", "properties": { "@id": "way/210686952", "amenity": null, "building": "house", "name": null, "GEOID": "17031063200" }, "geometry": { "type": "Polygon", "coordinates": [ [ [ -87.6401161, 41.9368219 ], [ -87.6401144, 41.9367813 ], [ -87.6401015, 41.9367812 ], [ -87.6400985, 41.9367195 ], [ -87.6401886, 41.9367173 ], [ -87.6401903, 41.9367228 ], [ -87.6402234, 41.9367216 ], [ -87.6402266, 41.9367696 ], [ -87.6402412, 41.9367807 ], [ -87.6402426, 41.9368191 ], [ -87.640215, 41.9368203 ], [ -87.6402153, 41.9368247 ], [ -87.6401161, 41.9368219 ] ] ] } },
{ "type": "Feature", "properties": { "@id": "way/210686953", "amenity": null, "building": "house", "name": null, "GEOID": "17031063302" }, "geometry": { "type": "Polygon", "coordinates": [ [ [ -87.6397667, 41.9344817 ], [ -87.6398534, 41.9344802 ], [ -87.6398563, 41.9345612 ], [ -87.6397695, 41.9345627 ], [ -87.6397667, 41.9344817 ] ] ] } },
{ "type": "Feature", "properties": { "@id": "way/210686954", "amenity": null, "building": "house", "name": null, "GEOID": "17031063200" }, "geometry": { "type": "Polygon", "coordinates": [ [ [ -87.6401161, 41.9368219 ], [ -87.6402153, 41.9368247 ], [ -87.6402183, 41.9368912 ], [ -87.6401191, 41.9368903 ], [ -87.6401161, 41.9368219 ] ] ] } },
{ "type": "Feature", "properties": { "@id": "way/210686956", "amenity": null, "building": "house", "name": null, "GEOID": "17031063302" }, "geometry": { "type": "Polygon", "coordinates": [ [ [ -87.6398534, 41.9344802 ], [ -87.6399414, 41.9344787 ], [ -87.6399431, 41.9345597 ], [ -87.6398563, 41.9345612 ], [ -87.6398534, 41.9344802 ] ] ] } },
{ "type": "Feature", "properties": { "@id": "way/210686957", "amenity": null, "building": "house", "name": null, "GEOID": "17031063200" }, "geometry": { "type": "Polygon", "coordinates": [ [ [ -87.6401191, 41.9368903 ], [ -87.6402183, 41.9368912 ], [ -87.6402219, 41.9369677 ], [ -87.6401223, 41.9369649 ], [ -87.6401191, 41.9368903 ] ] ] } },
{ "type": "Feature", "properties": { "@id": "way/210686960", "amenity": null, "building": "house", "name": null, "GEOID": "17031063302" }, "geometry": { "type": "Polygon", "coordinates": [ [ [ -87.6399414, 41.9344787 ], [ -87.6400346, 41.9344771 ], [ -87.6400374, 41.934558 ], [ -87.6399431, 41.9345597 ], [ -87.6399414, 41.9344787 ] ] ] } },
{ "type": "Feature", "properties": { "@id": "way/210686961", "amenity": null, "building": "house", "name": null, "GEOID": "17031063200" }, "geometry": { "type": "Polygon", "coordinates": [ [ [ -87.6401223, 41.9369649 ], [ -87.6402219, 41.9369677 ], [ -87.6402254, 41.9370471 ], [ -87.6401794, 41.9370493 ], [ -87.6401261, 41.9370503 ], [ -87.6401223, 41.9369649 ] ] ] } },
{ "type": "Feature", "properties": { "@id": "way/304730801", "amenity": null, "building": "house", "name": null, "GEOID": "17031071800" }, "geometry": { "type": "Polygon", "coordinates": [ [ [ -87.6474354, 41.9171964 ], [ -87.6474315, 41.916986 ], [ -87.6475205, 41.916985 ], [ -87.6475189, 41.9168969 ], [ -87.6477312, 41.9168947 ], [ -87.6477367, 41.9171933 ], [ -87.6474354, 41.9171964 ] ] ] } },
{ "type": "Feature", "properties": { "@id": "way/316988552", "amenity": null, "building": "house", "name": null, "GEOID": "17031071100" }, "geometry": { "type": "Polygon", "coordinates": [ [ [ -87.6502037, 41.92013 ], [ -87.6502015, 41.9200733 ], [ -87.6499428, 41.9200789 ], [ -87.649945, 41.9201357 ], [ -87.6502037, 41.92013 ] ] ] } },
{ "type": "Feature", "properties": { "@id": "way/327134030", "amenity": null, "building": "house", "name": "Morningstar Mansion", "GEOID": "17031070102" }, "geometry": { "type": "Polygon", "coordinates": [ [ [ -87.6405873, 41.9284891 ], [ -87.6404935, 41.9285196 ], [ -87.640467, 41.9284744 ], [ -87.6402903, 41.9285318 ], [ -87.6403201, 41.9285825 ], [ -87.6401318, 41.9286437 ], [ -87.6401057, 41.9285993 ], [ -87.6399312, 41.928656 ], [ -87.6399566, 41.9286993 ], [ -87.6398594, 41.9287309 ], [ -87.6397879, 41.928609 ], [ -87.6398811, 41.9285787 ], [ -87.6399066, 41.928622 ], [ -87.6400844, 41.9285643 ], [ -87.6400546, 41.9285135 ], [ -87.6402461, 41.9284513 ], [ -87.6402722, 41.9284957 ], [ -87.6404496, 41.928438 ], [ -87.6404228, 41.9283923 ], [ -87.6405132, 41.928363 ], [ -87.6405873, 41.9284891 ] ] ] } },
{ "type": "Feature", "properties": { "@id": "way/381342899", "amenity": null, "building": "house", "name": null, "GEOID": "17031071300" }, "geometry": { "type": "Polygon", "coordinates": [ [ [ -87.6434521, 41.9204245 ], [ -87.6432264, 41.9204283 ], [ -87.6432194, 41.9202007 ], [ -87.6434453, 41.9201968 ], [ -87.6434478, 41.9202766 ], [ -87.6433575, 41.9202781 ], [ -87.6433596, 41.9203453 ], [ -87.6434496, 41.9203438 ], [ -87.6434521, 41.9204245 ] ] ] } },
{ "type": "Feature", "properties": { "@id": "way/549475031", "amenity": null, "building": "house", "name": null, "GEOID": "17031832600" }, "geometry": { "type": "Polygon", "coordinates": [ [ [ -87.6543934, 41.9153909 ], [ -87.6543304, 41.915349 ], [ -87.6544691, 41.9152335 ], [ -87.6545321, 41.9152754 ], [ -87.6543934, 41.9153909 ] ] ] } },
{ "type": "Feature", "properties": { "@id": "way/565599321", "amenity": null, "building": "house", "name": null, "GEOID": "17031070300" }, "geometry": { "type": "Polygon", "coordinates": [ [ [ -87.6527191, 41.9301171 ], [ -87.652717, 41.9300482 ], [ -87.6529603, 41.9300441 ], [ -87.6529624, 41.9301129 ], [ -87.6527191, 41.9301171 ] ] ] } },
{ "type": "Feature", "properties": { "@id": "way/617021715", "amenity": null, "building": "house", "name": null, "GEOID": "17031071800" }, "geometry": { "type": "Polygon", "coordinates": [ [ [ -87.6474514, 41.9168042 ], [ -87.64745, 41.9167369 ], [ -87.6477383, 41.9167335 ], [ -87.6477397, 41.9168008 ], [ -87.6474514, 41.9168042 ] ] ] } },
{ "type": "Feature", "properties": { "@id": "way/617021719", "amenity": null, "building": "house", "name": null, "GEOID": "17031832600" }, "geometry": { "type": "Polygon", "coordinates": [ [ [ -87.649497, 41.915338 ], [ -87.6492374, 41.9153417 ], [ -87.6492359, 41.9152818 ], [ -87.6494954, 41.9152781 ], [ -87.649497, 41.915338 ] ] ] } },
{ "type": "Feature", "properties": { "@id": "way/617021721", "amenity": null, "building": "house", "name": null, "GEOID": "17031071200" }, "geometry": { "type": "Polygon", "coordinates": [ [ [ -87.6475239, 41.9191625 ], [ -87.6475225, 41.9191089 ], [ -87.6478508, 41.9191044 ], [ -87.6478521, 41.919158 ], [ -87.6475239, 41.9191625 ] ] ] } },
{ "type": "Feature", "properties": { "@id": "way/618338914", "amenity": null, "building": "house", "name": null, "GEOID": "17031071800" }, "geometry": { "type": "Polygon", "coordinates": [ [ [ -87.6447207, 41.9181467 ], [ -87.6447128, 41.9179871 ], [ -87.6447783, 41.9179853 ], [ -87.6447863, 41.9181448 ], [ -87.6447207, 41.9181467 ] ] ] } },
{ "type": "Feature", "properties": { "@id": "way/618338916", "amenity": null, "building": "house", "name": null, "GEOID": "17031071800" }, "geometry": { "type": "Polygon", "coordinates": [ [ [ -87.6459095, 41.9167616 ], [ -87.6456226, 41.916766 ], [ -87.6456205, 41.9166902 ], [ -87.6459074, 41.9166858 ], [ -87.6459095, 41.9167616 ] ] ] } },
{ "type": "Feature", "properties": { "@id": "way/618338918", "amenity": null, "building": "house", "name": null, "GEOID": "17031071800" }, "geometry": { "type": "Polygon", "coordinates": [ [ [ -87.6449672, 41.9153468 ], [ -87.6449652, 41.9152891 ], [ -87.645236, 41.915284 ], [ -87.645238, 41.9153418 ], [ -87.6449672, 41.9153468 ] ] ] } },
{ "type": "Feature", "properties": { "@id": "way/644481286", "amenity": null, "building": "house", "name": null, "GEOID": "17031070400" }, "geometry": { "type": "Polygon", "coordinates": [ [ [ -87.6559917, 41.9274762 ], [ -87.6558985, 41.9274788 ], [ -87.6558888, 41.9272861 ], [ -87.6559819, 41.9272834 ], [ -87.6559917, 41.9274762 ] ] ] } },
{ "type": "Feature", "properties": { "@id": "way/719450254", "amenity": null, "building": "house", "name": null, "GEOID": "17031832600" }, "geometry": { "type": "Polygon", "coordinates": [ [ [ -87.6543274, 41.9153415 ], [ -87.6542644, 41.9152996 ], [ -87.654403, 41.9151841 ], [ -87.6544661, 41.915226 ], [ -87.6543274, 41.9153415 ] ] ] } },
{ "type": "Feature", "properties": { "@id": "way/809609968", "amenity": null, "building": "house", "name": null, "GEOID": "17031070400" }, "geometry": { "type": "Polygon", "coordinates": [ [ [ -87.6570662, 41.9254324 ], [ -87.6569874, 41.9254344 ], [ -87.6569948, 41.9255936 ], [ -87.6570087, 41.9255933 ], [ -87.6570127, 41.9256787 ], [ -87.6570777, 41.925677 ], [ -87.6570662, 41.9254324 ] ] ] } },
{ "type": "Feature", "properties": { "@id": "way/1256776264", "amenity": null, "building": "house", "name": null, "GEOID": "17031071300" }, "geometry": { "type": "Polygon", "coordinates": [ [ [ -87.6429646, 41.9226801 ], [ -87.6428604, 41.9226833 ], [ -87.642852, 41.9225322 ], [ -87.6429562, 41.922529 ], [ -87.6429646, 41.9226801 ] ] ] } }
]
}
