{
"type": "FeatureCollection",
"name": "office_location_data",
"crs": { "type": "name", "properties": { "name": "urn:ogc:def:crs:EPSG::4269" } },
"features": [
{ "type": "Feature", "properties": { "@id": "way/53584351", "amenity": null, "building": "office", "name": "Lincoln Park Zoo Administration Building", "shop": null, "GEOID": "17031071400" }, "geometry": { "type": "Polygon", "coordinates": [ [ [ -87.6356401, 41.9189123 ], [ -87.6354271, 41.9189852 ], [ -87.6353572, 41.9188721 ], [ -87.6353355, 41.9188795 ], [ -87.6352648, 41.9187652 ], [ -87.6352841, 41.9187586 ], [ -87.635214, 41.9186453 ], [ -87.6354327, 41.9185704 ], [ -87.6355033, 41.9186844 ], [ -87.635537, 41.9186729 ], [ -87.6356069, 41.9187859 ], [ -87.6355698, 41.9187986 ], [ -87.6356401, 41.9189123 ] ] ] } },
{ "type": "Feature", "properties": { "@id": "way/210316886", "amenity": null, "building": "office", "name": null, "shop": null, "GEOID": "17031071200" }, "geometry": { "type": "Polygon", "coordinates": [ [ [ -87.6483758, 41.9182829 ], [ -87.6483843, 41.9185478 ], [ -87.6481124, 41.9185527 ], [ -87.6481038, 41.9182878 ], [ -87.6483758, 41.9182829 ] ] ] } },
{ "type": "Feature", "properties": { "@id": "way/210318224", "amenity": null, "building": "office", "name": null, "shop": null, "GEOID": "17031071200" }, "geometry": { "type": "Polygon", "coordinates": [ [ [ -87.6461344, 41.9231642 ], [ -87.6460117, 41.923167 ], [ -87.6458861, 41.9232642 ], [ -87.6458737, 41.9232554 ], [ -87.6458811, 41.9232458 ], [ -87.645841, 41.9232222 ], [ -87.6458299, 41.923229 ], [ -87.6458109, 41.9232155 ], [ -87.6459765, 41.9230864 ], [ -87.646136, 41.9230846 ], [ -87.6461344, 41.9231642 ] ] ] } },
{ "type": "Feature", "properties": { "@id": "way/210320785", "amenity": "social_centre", "building": "office", "name": "Elks Lodge", "shop": null, "GEOID": "17031070101" }, "geometry": { "type": "Polygon", "coordinates": [ [ [ -87.6406966, 41.9325628 ], [ -87.6407037, 41.9327522 ], [ -87.6403619, 41.9327584 ], [ -87.6403547, 41.932569 ], [ -87.6406966, 41.9325628 ] ] ] } },
{ "type": "Feature", "properties": { "@id": "way/210321287", "amenity": null, "building": "office", "name": null, "shop": null, "GEOID": "17031071200" }, "geometry": { "type": "Polygon", "coordinates": [ [ [ -87.6479611, 41.9246527 ], [ -87.6482767, 41.9244058 ], [ -87.6485355, 41.9245855 ], [ -87.6482989, 41.9247731 ], [ -87.6481575, 41.9248853 ], [ -87.647897, 41.9247035 ], [ -87.6479611, 41.9246527 ] ] ] } },
{ "type": "Feature", "properties": { "@id": "way/210321653", "amenity": null, "building": "office", "name": "Former North Chicago Hospital Building", "shop": null, "GEOID": "17031070102" }, "geometry": { "type": "Polygon", "coordinates": [ [ [ -87.6424622, 41.9291789 ], [ -87.6425309, 41.9292904 ], [ -87.6421199, 41.9294298 ], [ -87.6419942, 41.9294724 ], [ -87.6419346, 41.9293733 ], [ -87.6421483, 41.9293005 ], [ -87.6423975, 41.9292155 ], [ -87.6423903, 41.9292031 ], [ -87.6424622, 41.9291789 ] ] ] } },
{ "type": "Feature", "properties": { "@id": "way/210329737", "amenity": null, "building": "office", "name": "AT&T Lakeview Central Office", "shop": null, "GEOID": "17031832000" }, "geometry": { "type": "Polygon", "coordinates": [ [ [ -87.6546364, 41.9462354 ], [ -87.6546362, 41.9462533 ], [ -87.6550113, 41.9462459 ], [ -87.655014, 41.9463337 ], [ -87.6550067, 41.9463337 ], [ -87.6550166, 41.9466123 ], [ -87.654443, 41.9466226 ], [ -87.6544304, 41.9462548 ], [ -87.6545554, 41.9462528 ], [ -87.6545555, 41.9462377 ], [ -87.6546364, 41.9462354 ] ] ] } },
{ "type": "Feature", "properties": { "@id": "way/210684980", "amenity": null, "building": "office", "name": "Rollin Contracting", "shop": null, "GEOID": "17031071500" }, "geometry": { "type": "Polygon", "coordinates": [ [ [ -87.6384673, 41.9126595 ], [ -87.6382617, 41.9126634 ], [ -87.6382594, 41.9126054 ], [ -87.6384649, 41.9126007 ], [ -87.6384673, 41.9126595 ] ] ] } }
]
}
