{
"type": "FeatureCollection",
"name": "residential_location_data",
"crs": { "type": "name", "properties": { "name": "urn:ogc:def:crs:EPSG::4269" } },
"features": [
{ "type": "Feature", "properties": { "@id": "way/198549309", "amenity": null, "building": "residential", "name": null, "shop": null, "GEOID": "17031071500" }, "geometry": { "type": "Polygon", "coordinates": [ [ [ -87.6351265, 41.9134736 ], [ -87.6352699, 41.9134717 ], [ -87.6352713, 41.9135345 ], [ -87.635128, 41.9135364 ], [ -87.6351265, 41.9134736 ] ] ] } },
{ "type": "Feature", "properties": { "@id": "way/199382158", "amenity": null, "building": "residential", "name": null, "shop": null, "GEOID": "17031071500" }, "geometry": { "type": "Polygon", "coordinates": [ [ [ -87.6345544, 41.9131591 ], [ -87.6344907, 41.9131599 ], [ -87.6344867, 41.9129869 ], [ -87.6345504, 41.912986 ], [ -87.6345544, 41.9131591 ] ] ] } },
{ "type": "Feature", "properties": { "@id": "way/199382159", "amenity": null, "building": "residential", "name": null, "shop": null, "GEOID": "17031071500" }, "geometry": { "type": "Polygon", "coordinates": [ [ [ -87.6344907, 41.9131599 ], [ -87.6344243, 41.9131607 ], [ -87.6344203, 41.9129877 ], [ -87.6344867, 41.9129869 ], [ -87.6344907, 41.9131599 ] ] ] } },
{ "type": "Feature", "properties": { "@id": "way/199382160", "amenity": null, "building": "residential", "name": null, "shop": null, "GEOID": "17031071500" }, "geometry": { "type": "Polygon", "coordinates": [ [ [ -87.6344243, 41.9131607 ], [ -87.6343518, 41.9131617 ], [ -87.6343478, 41.9129886 ], [ -87.6344203, 41.9129877 ], [ -87.6344243, 41.9131607 ] ] ] } },
{ "type": "Feature", "properties": { "@id": "way/199382161", "amenity": null, "building": "residential", "name": null, "shop": null, "GEOID": "17031071500" }, "geometry": { "type": "Polygon", "coordinates": [ [ [ -87.6345504, 41.912986 ], [ -87.634624, 41.9129851 ], [ -87.634628, 41.9131581 ], [ -87.6345544, 41.9131591 ], [ -87.6345504, 41.912986 ] ] ] } },
{ "type": "Feature", "properties": { "@id": "way/199382162", "amenity": null, "building": "residential", "name": null, "shop": null, "GEOID": "17031071500" }, "geometry": { "type": "Polygon", "coordinates": [ [ [ -87.6343518, 41.9131617 ], [ -87.6342815, 41.9131626 ], [ -87.6342804, 41.9131173 ], [ -87.6342779, 41.9130078 ], [ -87.6342775, 41.9129895 ], [ -87.6343478, 41.9129886 ], [ -87.6343518, 41.9131617 ] ] ] } },
{ "type": "Feature", "properties": { "@id": "way/199382164", "amenity": null, "building": "residential", "name": null, "shop": null, "GEOID": "17031071500" }, "geometry": { "type": "Polygon", "coordinates": [ [ [ -87.6342804, 41.9131173 ], [ -87.6335753, 41.9131263 ], [ -87.6335744, 41.9130899 ], [ -87.633556, 41.9130901 ], [ -87.6335564, 41.9131054 ], [ -87.6335345, 41.9131056 ], [ -87.6335418, 41.9134188 ], [ -87.633609, 41.913418 ], [ -87.633611, 41.9135041 ], [ -87.6333901, 41.9135069 ], [ -87.6333788, 41.9130193 ], [ -87.6342779, 41.9130078 ], [ -87.6342804, 41.9131173 ] ] ] } },
{ "type": "Feature", "properties": { "@id": "way/199382165", "amenity": null, "building": "residential", "name": null, "shop": null, "GEOID": "17031071500" }, "geometry": { "type": "Polygon", "coordinates": [ [ [ -87.633609, 41.913418 ], [ -87.6340576, 41.9134122 ], [ -87.634058, 41.9134291 ], [ -87.6343861, 41.9134249 ], [ -87.6343877, 41.9134941 ], [ -87.633611, 41.9135041 ], [ -87.633609, 41.913418 ] ] ] } },
{ "type": "Feature", "properties": { "@id": "way/199735858", "amenity": "bank", "building": "residential", "name": "Chase", "shop": null, "GEOID": "17031071500" }, "geometry": { "type": "Polygon", "coordinates": [ [ [ -87.6350627, 41.9130298 ], [ -87.634928, 41.9130319 ], [ -87.6349261, 41.912964 ], [ -87.6350609, 41.9129619 ], [ -87.6350627, 41.9130298 ] ] ] } },
{ "type": "Feature", "properties": { "@id": "way/199735859", "amenity": null, "building": "residential", "name": null, "shop": null, "GEOID": "17031071500" }, "geometry": { "type": "Polygon", "coordinates": [ [ [ -87.6352562, 41.9130269 ], [ -87.6352565, 41.9130464 ], [ -87.6352323, 41.9130467 ], [ -87.6352332, 41.9130868 ], [ -87.6349292, 41.9130908 ], [ -87.634928, 41.9130319 ], [ -87.6350627, 41.9130298 ], [ -87.6351594, 41.9130284 ], [ -87.6352562, 41.9130269 ] ] ] } },
{ "type": "Feature", "properties": { "@id": "way/199735860", "amenity": null, "building": "residential", "name": null, "shop": null, "GEOID": "17031071500" }, "geometry": { "type": "Polygon", "coordinates": [ [ [ -87.6352332, 41.9130868 ], [ -87.6352344, 41.9131387 ], [ -87.6349305, 41.9131427 ], [ -87.6349292, 41.9130908 ], [ -87.6352332, 41.9130868 ] ] ] } },
{ "type": "Feature", "properties": { "@id": "way/199735861", "amenity": null, "building": "residential", "name": null, "shop": null, "GEOID": "17031071500" }, "geometry": { "type": "Polygon", "coordinates": [ [ [ -87.6352344, 41.9131387 ], [ -87.6352358, 41.9131972 ], [ -87.6349319, 41.9132012 ], [ -87.6349305, 41.9131427 ], [ -87.6352344, 41.9131387 ] ] ] } },
{ "type": "Feature", "properties": { "@id": "way/199735862", "amenity": null, "building": "residential", "name": null, "shop": null, "GEOID": "17031071500" }, "geometry": { "type": "Polygon", "coordinates": [ [ [ -87.6352358, 41.9131972 ], [ -87.6352371, 41.913251 ], [ -87.6349331, 41.913255 ], [ -87.6349319, 41.9132012 ], [ -87.6352358, 41.9131972 ] ] ] } },
{ "type": "Feature", "properties": { "@id": "way/199735863", "amenity": null, "building": "residential", "name": null, "shop": null, "GEOID": "17031071500" }, "geometry": { "type": "Polygon", "coordinates": [ [ [ -87.6352371, 41.913251 ], [ -87.6352384, 41.9133081 ], [ -87.6349345, 41.9133121 ], [ -87.6349331, 41.913255 ], [ -87.6352371, 41.913251 ] ] ] } },
{ "type": "Feature", "properties": { "@id": "way/199735864", "amenity": null, "building": "residential", "name": null, "shop": null, "GEOID": "17031071500" }, "geometry": { "type": "Polygon", "coordinates": [ [ [ -87.6352384, 41.9133081 ], [ -87.6352397, 41.9133619 ], [ -87.6349358, 41.9133659 ], [ -87.6349345, 41.9133121 ], [ -87.6352384, 41.9133081 ] ] ] } },
{ "type": "Feature", "properties": { "@id": "way/199735865", "amenity": null, "building": "residential", "name": null, "shop": null, "GEOID": "17031071500" }, "geometry": { "type": "Polygon", "coordinates": [ [ [ -87.6352397, 41.9133619 ], [ -87.6352411, 41.9134213 ], [ -87.6349372, 41.9134253 ], [ -87.6349358, 41.9133659 ], [ -87.6352397, 41.9133619 ] ] ] } },
{ "type": "Feature", "properties": { "@id": "way/199735866", "amenity": null, "building": "residential", "name": null, "shop": "florist", "GEOID": "17031071500" }, "geometry": { "type": "Polygon", "coordinates": [ [ [ -87.635128, 41.9135364 ], [ -87.6349398, 41.9135388 ], [ -87.6349384, 41.913476 ], [ -87.6351265, 41.9134736 ], [ -87.635128, 41.9135364 ] ] ] } },
{ "type": "Feature", "properties": { "@id": "way/199735867", "amenity": null, "building": "residential", "name": null, "shop": null, "GEOID": "17031071500" }, "geometry": { "type": "Polygon", "coordinates": [ [ [ -87.6344654, 41.9140852 ], [ -87.6344334, 41.9131926 ], [ -87.6345918, 41.9131894 ], [ -87.6346237, 41.9140818 ], [ -87.6344654, 41.9140852 ] ] ] } },
{ "type": "Feature", "properties": { "@id": "way/199735868", "amenity": null, "building": "residential", "name": null, "shop": null, "GEOID": "17031071500" }, "geometry": { "type": "Polygon", "coordinates": [ [ [ -87.6352411, 41.9134213 ], [ -87.6352418, 41.9134502 ], [ -87.6352694, 41.9134499 ], [ -87.6352699, 41.9134717 ], [ -87.6351265, 41.9134736 ], [ -87.6349384, 41.913476 ], [ -87.6349372, 41.9134253 ], [ -87.6352411, 41.9134213 ] ] ] } },
{ "type": "Feature", "properties": { "@id": "way/199735870", "amenity": null, "building": "residential", "name": null, "shop": null, "GEOID": "17031071500" }, "geometry": { "type": "Polygon", "coordinates": [ [ [ -87.6351594, 41.9130284 ], [ -87.6350627, 41.9130298 ], [ -87.6350609, 41.9129619 ], [ -87.6351575, 41.9129605 ], [ -87.6351594, 41.9130284 ] ] ] } },
{ "type": "Feature", "properties": { "@id": "way/199735871", "amenity": null, "building": "residential", "name": null, "shop": null, "GEOID": "17031071500" }, "geometry": { "type": "Polygon", "coordinates": [ [ [ -87.6351575, 41.9129605 ], [ -87.6352543, 41.912959 ], [ -87.6352562, 41.9130269 ], [ -87.6351594, 41.9130284 ], [ -87.6351575, 41.9129605 ] ] ] } },
{ "type": "Feature", "properties": { "@id": "way/199738130", "amenity": null, "building": "residential", "name": null, "shop": null, "GEOID": "17031071500" }, "geometry": { "type": "Polygon", "coordinates": [ [ [ -87.635102, 41.9120204 ], [ -87.6350147, 41.9120202 ], [ -87.6349993, 41.9120308 ], [ -87.6348983, 41.9120327 ], [ -87.6348928, 41.9119624 ], [ -87.6350181, 41.9119606 ], [ -87.6350324, 41.9119721 ], [ -87.6351022, 41.9119716 ], [ -87.635102, 41.9120204 ] ] ] } },
{ "type": "Feature", "properties": { "@id": "way/200654148", "amenity": null, "building": "residential", "name": null, "shop": null, "GEOID": "17031071200" }, "geometry": { "type": "Polygon", "coordinates": [ [ [ -87.6441655, 41.9240862 ], [ -87.6441658, 41.9241585 ], [ -87.6439887, 41.924159 ], [ -87.6439884, 41.9240866 ], [ -87.6441655, 41.9240862 ] ] ] } },
{ "type": "Feature", "properties": { "@id": "way/200654149", "amenity": null, "building": "residential", "name": null, "shop": null, "GEOID": "17031071200" }, "geometry": { "type": "Polygon", "coordinates": [ [ [ -87.644224, 41.9228954 ], [ -87.6442237, 41.9228333 ], [ -87.6439598, 41.922834 ], [ -87.6439599, 41.9228479 ], [ -87.6439358, 41.9228479 ], [ -87.6439359, 41.9228711 ], [ -87.6439607, 41.922871 ], [ -87.6439608, 41.9228961 ], [ -87.6439817, 41.9228965 ], [ -87.644224, 41.9228954 ] ] ] } },
{ "type": "Feature", "properties": { "@id": "way/200654154", "amenity": null, "building": "residential", "name": null, "shop": null, "GEOID": "17031071200" }, "geometry": { "type": "Polygon", "coordinates": [ [ [ -87.6441602, 41.9228187 ], [ -87.6439723, 41.9228187 ], [ -87.6439723, 41.9227604 ], [ -87.6441602, 41.9227604 ], [ -87.6441602, 41.9228187 ] ] ] } },
{ "type": "Feature", "properties": { "@id": "way/200654157", "amenity": null, "building": "residential", "name": null, "shop": null, "GEOID": "17031071200" }, "geometry": { "type": "Polygon", "coordinates": [ [ [ -87.6439295, 41.9223292 ], [ -87.6440408, 41.9223246 ], [ -87.6441209, 41.922263 ], [ -87.6439455, 41.9221391 ], [ -87.6439171, 41.922151 ], [ -87.6439295, 41.9223292 ] ] ] } },
{ "type": "Feature", "properties": { "@id": "way/200656222", "amenity": null, "building": "residential", "name": null, "shop": null, "GEOID": "17031071100" }, "geometry": { "type": "Polygon", "coordinates": [ [ [ -87.6502023, 41.9184839 ], [ -87.6501995, 41.9183347 ], [ -87.6502147, 41.9183345 ], [ -87.6502134, 41.9182651 ], [ -87.6501407, 41.9182658 ], [ -87.6501411, 41.9182827 ], [ -87.6501057, 41.918283 ], [ -87.6501053, 41.9182646 ], [ -87.6500335, 41.9182654 ], [ -87.6500348, 41.9183361 ], [ -87.6500525, 41.9183359 ], [ -87.6500553, 41.9184853 ], [ -87.6501128, 41.9184847 ], [ -87.6501126, 41.91847 ], [ -87.6501468, 41.9184697 ], [ -87.650147, 41.9184845 ], [ -87.6502023, 41.9184839 ] ] ] } },
{ "type": "Feature", "properties": { "@id": "way/200656223", "amenity": null, "building": "residential", "name": null, "shop": null, "GEOID": "17031071100" }, "geometry": { "type": "Polygon", "coordinates": [ [ [ -87.650301, 41.9184484 ], [ -87.6502968, 41.9182834 ], [ -87.6502177, 41.9182845 ], [ -87.6502219, 41.9184495 ], [ -87.650301, 41.9184484 ] ] ] } },
{ "type": "Feature", "properties": { "@id": "way/200656224", "amenity": null, "building": "residential", "name": null, "shop": null, "GEOID": "17031071100" }, "geometry": { "type": "Polygon", "coordinates": [ [ [ -87.650392, 41.918465 ], [ -87.6503864, 41.9182383 ], [ -87.6502989, 41.9182395 ], [ -87.6503045, 41.9184662 ], [ -87.650392, 41.918465 ] ] ] } },
{ "type": "Feature", "properties": { "@id": "way/200656230", "amenity": null, "building": "residential", "name": null, "shop": null, "GEOID": "17031071100" }, "geometry": { "type": "Polygon", "coordinates": [ [ [ -87.6505145, 41.9184814 ], [ -87.6505093, 41.918241 ], [ -87.6504202, 41.9182421 ], [ -87.6504254, 41.9184825 ], [ -87.6505145, 41.9184814 ] ] ] } },
{ "type": "Feature", "properties": { "@id": "way/200656233", "amenity": null, "building": "residential", "name": null, "shop": null, "GEOID": "17031071100" }, "geometry": { "type": "Polygon", "coordinates": [ [ [ -87.6506263, 41.9182442 ], [ -87.6506315, 41.9185013 ], [ -87.6505391, 41.9185023 ], [ -87.6505339, 41.9182452 ], [ -87.6506263, 41.9182442 ] ] ] } },
{ "type": "Feature", "properties": { "@id": "way/200656236", "amenity": null, "building": "residential", "name": null, "shop": null, "GEOID": "17031071100" }, "geometry": { "type": "Polygon", "coordinates": [ [ [ -87.6508435, 41.9185416 ], [ -87.6508312, 41.9182377 ], [ -87.6507447, 41.9182397 ], [ -87.6507571, 41.9185436 ], [ -87.6508435, 41.9185416 ] ] ] } },
{ "type": "Feature", "properties": { "@id": "way/200656245", "amenity": null, "building": "residential", "name": null, "shop": null, "GEOID": "17031071100" }, "geometry": { "type": "Polygon", "coordinates": [ [ [ -87.650733, 41.9184002 ], [ -87.6507299, 41.9182378 ], [ -87.6506482, 41.9182387 ], [ -87.6506509, 41.9183827 ], [ -87.650674, 41.9183825 ], [ -87.6506743, 41.9184008 ], [ -87.650733, 41.9184002 ] ] ] } },
{ "type": "Feature", "properties": { "@id": "way/200743574", "amenity": null, "building": "residential", "name": null, "shop": null, "GEOID": "17031071500" }, "geometry": { "type": "Polygon", "coordinates": [ [ [ -87.6337704, 41.9141 ], [ -87.6337676, 41.914028 ], [ -87.6343797, 41.914015 ], [ -87.6343825, 41.9140869 ], [ -87.6337704, 41.9141 ] ] ] } },
{ "type": "Feature", "properties": { "@id": "way/201049907", "amenity": null, "building": "residential", "name": null, "shop": null, "GEOID": "17031071500" }, "geometry": { "type": "Polygon", "coordinates": [ [ [ -87.636564, 41.9130623 ], [ -87.6363111, 41.9130644 ], [ -87.6363092, 41.9129411 ], [ -87.6365621, 41.9129389 ], [ -87.636564, 41.9130623 ] ] ] } },
{ "type": "Feature", "properties": { "@id": "way/206929251", "amenity": null, "building": "residential", "name": null, "shop": null, "GEOID": "17031071500" }, "geometry": { "type": "Polygon", "coordinates": [ [ [ -87.6358449, 41.9127435 ], [ -87.6358415, 41.9125856 ], [ -87.6357589, 41.9125866 ], [ -87.6357623, 41.9127444 ], [ -87.6358449, 41.9127435 ] ] ] } },
{ "type": "Feature", "properties": { "@id": "way/206929252", "amenity": null, "building": "residential", "name": null, "shop": null, "GEOID": "17031071500" }, "geometry": { "type": "Polygon", "coordinates": [ [ [ -87.6354773, 41.9127509 ], [ -87.6354734, 41.9126393 ], [ -87.635386, 41.912641 ], [ -87.6353899, 41.9127526 ], [ -87.6354773, 41.9127509 ] ] ] } },
{ "type": "Feature", "properties": { "@id": "way/206929253", "amenity": null, "building": "residential", "name": null, "shop": null, "GEOID": "17031071500" }, "geometry": { "type": "Polygon", "coordinates": [ [ [ -87.6359355, 41.9127599 ], [ -87.6359317, 41.9126181 ], [ -87.635852, 41.9126194 ], [ -87.6358559, 41.9127611 ], [ -87.6359355, 41.9127599 ] ] ] } },
{ "type": "Feature", "properties": { "@id": "way/206929254", "amenity": null, "building": "residential", "name": null, "shop": null, "GEOID": "17031071500" }, "geometry": { "type": "Polygon", "coordinates": [ [ [ -87.6355644, 41.9127515 ], [ -87.635563, 41.9126213 ], [ -87.6354839, 41.9126218 ], [ -87.6354852, 41.912752 ], [ -87.6355644, 41.9127515 ] ] ] } },
{ "type": "Feature", "properties": { "@id": "way/206929255", "amenity": null, "building": "residential", "name": null, "shop": null, "GEOID": "17031071500" }, "geometry": { "type": "Polygon", "coordinates": [ [ [ -87.6360285, 41.9127797 ], [ -87.6360263, 41.9126153 ], [ -87.6359442, 41.9126159 ], [ -87.6359464, 41.9127803 ], [ -87.6360285, 41.9127797 ] ] ] } },
{ "type": "Feature", "properties": { "@id": "way/206929256", "amenity": null, "building": "residential", "name": null, "shop": null, "GEOID": "17031071500" }, "geometry": { "type": "Polygon", "coordinates": [ [ [ -87.6356501, 41.9127489 ], [ -87.6355742, 41.9127491 ], [ -87.6355737, 41.9126274 ], [ -87.6356495, 41.9126272 ], [ -87.6356501, 41.9127489 ] ] ] } },
{ "type": "Feature", "properties": { "@id": "way/206929257", "amenity": null, "building": "residential", "name": null, "shop": null, "GEOID": "17031071500" }, "geometry": { "type": "Polygon", "coordinates": [ [ [ -87.6361147, 41.912754 ], [ -87.6360413, 41.9127544 ], [ -87.6360401, 41.9126182 ], [ -87.6361134, 41.9126178 ], [ -87.6361147, 41.912754 ] ] ] } },
{ "type": "Feature", "properties": { "@id": "way/206929258", "amenity": null, "building": "residential", "name": null, "shop": null, "GEOID": "17031071500" }, "geometry": { "type": "Polygon", "coordinates": [ [ [ -87.6357514, 41.9127685 ], [ -87.6357474, 41.9125756 ], [ -87.6356635, 41.9125765 ], [ -87.6356675, 41.9127695 ], [ -87.6357514, 41.9127685 ] ] ] } },
{ "type": "Feature", "properties": { "@id": "way/207971159", "amenity": null, "building": "residential", "name": null, "shop": null, "GEOID": "17031071500" }, "geometry": { "type": "Polygon", "coordinates": [ [ [ -87.6365314, 41.9120774 ], [ -87.6363367, 41.9120783 ], [ -87.6363366, 41.9120597 ], [ -87.6363028, 41.9120598 ], [ -87.6363025, 41.9120165 ], [ -87.6365309, 41.9120155 ], [ -87.6365314, 41.9120774 ] ] ] } },
{ "type": "Feature", "properties": { "@id": "way/207971160", "amenity": null, "building": "residential", "name": null, "shop": null, "GEOID": "17031071500" }, "geometry": { "type": "Polygon", "coordinates": [ [ [ -87.6365187, 41.9121545 ], [ -87.6363234, 41.9121558 ], [ -87.6363225, 41.91209 ], [ -87.6365179, 41.9120887 ], [ -87.6365187, 41.9121545 ] ] ] } },
{ "type": "Feature", "properties": { "@id": "way/207971161", "amenity": null, "building": "residential", "name": null, "shop": null, "GEOID": "17031071500" }, "geometry": { "type": "Polygon", "coordinates": [ [ [ -87.6368272, 41.9122506 ], [ -87.636827, 41.9121893 ], [ -87.6369486, 41.9121891 ], [ -87.6369487, 41.9122504 ], [ -87.6368272, 41.9122506 ] ] ] } },
{ "type": "Feature", "properties": { "@id": "way/207971162", "amenity": null, "building": "residential", "name": null, "shop": null, "GEOID": "17031071500" }, "geometry": { "type": "Polygon", "coordinates": [ [ [ -87.6369487, 41.9122504 ], [ -87.6369489, 41.9122975 ], [ -87.6368273, 41.9122977 ], [ -87.6368272, 41.9122506 ], [ -87.6369487, 41.9122504 ] ] ] } },
{ "type": "Feature", "properties": { "@id": "way/207971163", "amenity": null, "building": "residential", "name": null, "shop": null, "GEOID": "17031071500" }, "geometry": { "type": "Polygon", "coordinates": [ [ [ -87.6364482, 41.9122249 ], [ -87.6363196, 41.9122242 ], [ -87.6363201, 41.9121677 ], [ -87.6364487, 41.9121683 ], [ -87.6364482, 41.9122249 ] ] ] } },
{ "type": "Feature", "properties": { "@id": "way/207971164", "amenity": null, "building": "residential", "name": null, "shop": null, "GEOID": "17031071500" }, "geometry": { "type": "Polygon", "coordinates": [ [ [ -87.636974, 41.9123697 ], [ -87.6368141, 41.9123691 ], [ -87.6368145, 41.9123105 ], [ -87.6369744, 41.9123111 ], [ -87.636974, 41.9123697 ] ] ] } },
{ "type": "Feature", "properties": { "@id": "way/207971166", "amenity": null, "building": "residential", "name": null, "shop": null, "GEOID": "17031071500" }, "geometry": { "type": "Polygon", "coordinates": [ [ [ -87.6365629, 41.9123059 ], [ -87.6363944, 41.912307 ], [ -87.6363938, 41.9122527 ], [ -87.6364707, 41.9122523 ], [ -87.6364705, 41.9122337 ], [ -87.6365621, 41.9122331 ], [ -87.6365629, 41.9123059 ] ] ] } },
{ "type": "Feature", "properties": { "@id": "way/207971167", "amenity": null, "building": "residential", "name": null, "shop": null, "GEOID": "17031071500" }, "geometry": { "type": "Polygon", "coordinates": [ [ [ -87.6369776, 41.912436 ], [ -87.6368282, 41.9124373 ], [ -87.6368273, 41.9123776 ], [ -87.6369767, 41.9123762 ], [ -87.6369776, 41.912436 ] ] ] } },
{ "type": "Feature", "properties": { "@id": "way/207971168", "amenity": null, "building": "residential", "name": null, "shop": null, "GEOID": "17031071500" }, "geometry": { "type": "Polygon", "coordinates": [ [ [ -87.6365193, 41.9123797 ], [ -87.6362894, 41.9123799 ], [ -87.6362893, 41.9123158 ], [ -87.6365191, 41.9123155 ], [ -87.6365193, 41.9123797 ] ] ] } },
{ "type": "Feature", "properties": { "@id": "way/207971169", "amenity": null, "building": "residential", "name": null, "shop": null, "GEOID": "17031071500" }, "geometry": { "type": "Polygon", "coordinates": [ [ [ -87.6365313, 41.9124522 ], [ -87.6363417, 41.9124529 ], [ -87.6363413, 41.9123943 ], [ -87.6365309, 41.9123936 ], [ -87.6365313, 41.9124522 ] ] ] } },
{ "type": "Feature", "properties": { "@id": "way/207971170", "amenity": null, "building": "residential", "name": null, "shop": null, "GEOID": "17031071500" }, "geometry": { "type": "Polygon", "coordinates": [ [ [ -87.6365624, 41.9127269 ], [ -87.6361922, 41.9127325 ], [ -87.6361891, 41.91262 ], [ -87.6365593, 41.9126144 ], [ -87.6365624, 41.9127269 ] ] ] } },
{ "type": "Feature", "properties": { "@id": "way/210315600", "amenity": null, "building": "residential", "name": null, "shop": null, "GEOID": "17031832600" }, "geometry": { "type": "Polygon", "coordinates": [ [ [ -87.6530207, 41.9118422 ], [ -87.6530239, 41.911882 ], [ -87.6530203, 41.911882 ], [ -87.6530236, 41.9119122 ], [ -87.6528913, 41.9119127 ], [ -87.6528878, 41.911899 ], [ -87.6528621, 41.9118989 ], [ -87.6528601, 41.9119126 ], [ -87.6527554, 41.9119147 ], [ -87.6527561, 41.9118475 ], [ -87.6528755, 41.9118482 ], [ -87.6528827, 41.9118592 ], [ -87.6528919, 41.9118579 ], [ -87.6528975, 41.9118483 ], [ -87.6529673, 41.9118473 ], [ -87.6529674, 41.9118432 ], [ -87.6530207, 41.9118422 ] ] ] } },
{ "type": "Feature", "properties": { "@id": "way/210315610", "amenity": null, "building": "residential", "name": null, "shop": null, "GEOID": "17031832600" }, "geometry": { "type": "Polygon", "coordinates": [ [ [ -87.6529794, 41.9119188 ], [ -87.6529807, 41.9119709 ], [ -87.6529128, 41.9119719 ], [ -87.6529126, 41.9119911 ], [ -87.6527931, 41.9119931 ], [ -87.6527933, 41.911978 ], [ -87.6527694, 41.9119779 ], [ -87.6527682, 41.9119216 ], [ -87.6529794, 41.9119188 ] ] ] } },
{ "type": "Feature", "properties": { "@id": "way/210315615", "amenity": null, "building": "residential", "name": null, "shop": null, "GEOID": "17031832600" }, "geometry": { "type": "Polygon", "coordinates": [ [ [ -87.6529638, 41.9120092 ], [ -87.6529636, 41.9120271 ], [ -87.6529765, 41.9120271 ], [ -87.6529819, 41.9120299 ], [ -87.6529833, 41.9120779 ], [ -87.652772, 41.9120808 ], [ -87.6527707, 41.9120273 ], [ -87.6527928, 41.9120274 ], [ -87.6527929, 41.912011 ], [ -87.6529638, 41.9120092 ] ] ] } },
{ "type": "Feature", "properties": { "@id": "way/210315638", "amenity": null, "building": "residential", "name": null, "shop": null, "GEOID": "17031832600" }, "geometry": { "type": "Polygon", "coordinates": [ [ [ -87.6529133, 41.9120967 ], [ -87.6529149, 41.9121187 ], [ -87.6529865, 41.9121164 ], [ -87.6529878, 41.9121658 ], [ -87.6527766, 41.91217 ], [ -87.6527753, 41.9121138 ], [ -87.6527955, 41.9121139 ], [ -87.6527957, 41.9120988 ], [ -87.6529133, 41.9120967 ] ] ] } },
{ "type": "Feature", "properties": { "@id": "way/210315649", "amenity": null, "building": "residential", "name": null, "shop": null, "GEOID": "17031832600" }, "geometry": { "type": "Polygon", "coordinates": [ [ [ -87.6527746, 41.9121832 ], [ -87.6529848, 41.9121789 ], [ -87.6529835, 41.9122997 ], [ -87.6527789, 41.9122985 ], [ -87.6527746, 41.9121832 ] ] ] } },
{ "type": "Feature", "properties": { "@id": "way/210315701", "amenity": null, "building": "residential", "name": null, "shop": null, "GEOID": "17031832600" }, "geometry": { "type": "Polygon", "coordinates": [ [ [ -87.6529826, 41.9124841 ], [ -87.6529825, 41.9124992 ], [ -87.652801, 41.9124995 ], [ -87.6528005, 41.9124432 ], [ -87.6530036, 41.9124422 ], [ -87.6530032, 41.9124842 ], [ -87.6529826, 41.9124841 ] ] ] } },
{ "type": "Feature", "properties": { "@id": "way/210315712", "amenity": null, "building": "residential", "name": null, "shop": null, "GEOID": "17031832600" }, "geometry": { "type": "Polygon", "coordinates": [ [ [ -87.6527814, 41.9125109 ], [ -87.6529982, 41.9125089 ], [ -87.6530002, 41.9125632 ], [ -87.6527801, 41.9125638 ], [ -87.6527814, 41.9125109 ] ] ] } },
{ "type": "Feature", "properties": { "@id": "way/210315736", "amenity": null, "building": "residential", "name": null, "shop": null, "GEOID": "17031832600" }, "geometry": { "type": "Polygon", "coordinates": [ [ [ -87.6530319, 41.9125876 ], [ -87.6530316, 41.9127204 ], [ -87.6529078, 41.9127197 ], [ -87.6528465, 41.9126789 ], [ -87.6528102, 41.9127062 ], [ -87.6526814, 41.9126209 ], [ -87.652738, 41.9125828 ], [ -87.6527805, 41.9125918 ], [ -87.6527988, 41.9126007 ], [ -87.6528133, 41.9125871 ], [ -87.6530319, 41.9125876 ] ] ] } },
{ "type": "Feature", "properties": { "@id": "way/210315752", "amenity": null, "building": "residential", "name": null, "shop": null, "GEOID": "17031832600" }, "geometry": { "type": "Polygon", "coordinates": [ [ [ -87.6528569, 41.9127303 ], [ -87.6530516, 41.9127315 ], [ -87.653051, 41.912796 ], [ -87.6529242, 41.9127966 ], [ -87.6528569, 41.9127303 ] ] ] } },
{ "type": "Feature", "properties": { "@id": "way/210315939", "amenity": null, "building": "residential", "name": null, "shop": null, "GEOID": "17031071800" }, "geometry": { "type": "Polygon", "coordinates": [ [ [ -87.648247, 41.9149142 ], [ -87.6480376, 41.9149167 ], [ -87.6479858, 41.9149174 ], [ -87.6479862, 41.9149355 ], [ -87.6479463, 41.9149361 ], [ -87.6479475, 41.9149855 ], [ -87.6478031, 41.9149876 ], [ -87.6478014, 41.9149228 ], [ -87.6478114, 41.9149227 ], [ -87.6478088, 41.9148105 ], [ -87.6477947, 41.9148107 ], [ -87.6477933, 41.914746 ], [ -87.6479359, 41.9147444 ], [ -87.6479366, 41.9147763 ], [ -87.6479865, 41.9147757 ], [ -87.6479884, 41.9148734 ], [ -87.6480278, 41.914873 ], [ -87.6480276, 41.9148593 ], [ -87.648118, 41.9148583 ], [ -87.6481148, 41.9146911 ], [ -87.6481265, 41.914691 ], [ -87.6481255, 41.9146415 ], [ -87.6482385, 41.9146403 ], [ -87.6482398, 41.9147066 ], [ -87.6482503, 41.9147065 ], [ -87.6482532, 41.9148492 ], [ -87.6482456, 41.9148493 ], [ -87.648247, 41.9149142 ] ] ] } },
{ "type": "Feature", "properties": { "@id": "way/210321197", "amenity": null, "building": "residential", "name": "Courtside Apartments", "shop": null, "GEOID": "17031071000" }, "geometry": { "type": "Polygon", "coordinates": [ [ [ -87.6537823, 41.9238527 ], [ -87.6538044, 41.9238528 ], [ -87.6538208, 41.9238639 ], [ -87.653909, 41.923863 ], [ -87.6539091, 41.9238589 ], [ -87.6539403, 41.9238577 ], [ -87.6539415, 41.9239222 ], [ -87.6537118, 41.923925 ], [ -87.6537121, 41.9238962 ], [ -87.653701, 41.9238961 ], [ -87.6537014, 41.9238659 ], [ -87.6537694, 41.9238649 ], [ -87.6537823, 41.9238527 ] ] ] } },
{ "type": "Feature", "properties": { "@id": "way/210326525", "amenity": null, "building": "residential", "name": "Daniel O. Hill House", "shop": null, "GEOID": "17031063200" }, "geometry": { "type": "Polygon", "coordinates": [ [ [ -87.6414737, 41.9378515 ], [ -87.6414818, 41.9381164 ], [ -87.6414322, 41.9381175 ], [ -87.641344, 41.9381183 ], [ -87.6413429, 41.9380511 ], [ -87.6413171, 41.9380523 ], [ -87.6413119, 41.9378547 ], [ -87.6414351, 41.9378527 ], [ -87.6414737, 41.9378515 ] ] ] } },
{ "type": "Feature", "properties": { "@id": "way/210326543", "amenity": null, "building": "residential", "name": null, "shop": null, "GEOID": "17031063301" }, "geometry": { "type": "Polygon", "coordinates": [ [ [ -87.6421287, 41.9362474 ], [ -87.6421344, 41.9364011 ], [ -87.6419726, 41.9364028 ], [ -87.6419685, 41.9362766 ], [ -87.6419722, 41.9362752 ], [ -87.6419725, 41.9362492 ], [ -87.6421287, 41.9362474 ] ] ] } },
{ "type": "Feature", "properties": { "@id": "way/210326558", "amenity": null, "building": "residential", "name": null, "shop": null, "GEOID": "17031063301" }, "geometry": { "type": "Polygon", "coordinates": [ [ [ -87.6423236, 41.9362403 ], [ -87.6423274, 41.9363967 ], [ -87.6421638, 41.9363999 ], [ -87.6421615, 41.9362736 ], [ -87.6422111, 41.9362725 ], [ -87.6422114, 41.9362424 ], [ -87.6423236, 41.9362403 ] ] ] } },
{ "type": "Feature", "properties": { "@id": "way/210326815", "amenity": null, "building": "residential", "name": "721 W Belmont Ave", "shop": null, "GEOID": "17031063100" }, "geometry": { "type": "Polygon", "coordinates": [ [ [ -87.6478957, 41.93957 ], [ -87.6478975, 41.9396312 ], [ -87.6478832, 41.9396314 ], [ -87.6478839, 41.9396541 ], [ -87.64785, 41.9396546 ], [ -87.6478543, 41.939806 ], [ -87.6479129, 41.9398051 ], [ -87.6479156, 41.9398993 ], [ -87.6476419, 41.9399036 ], [ -87.6476392, 41.9398088 ], [ -87.6477017, 41.9398078 ], [ -87.6476976, 41.9396599 ], [ -87.6476558, 41.9396605 ], [ -87.6476551, 41.9396352 ], [ -87.647638, 41.9396355 ], [ -87.6476363, 41.9395741 ], [ -87.6478957, 41.93957 ] ] ] } },
{ "type": "Feature", "properties": { "@id": "way/210331171", "amenity": null, "building": "residential", "name": "Netterström House", "shop": null, "GEOID": "17031062100" }, "geometry": { "type": "Polygon", "coordinates": [ [ [ -87.6507063, 41.9414729 ], [ -87.6507119, 41.9416307 ], [ -87.6506182, 41.9416315 ], [ -87.6506125, 41.9414737 ], [ -87.6507063, 41.9414729 ] ] ] } },
{ "type": "Feature", "properties": { "@id": "way/210331208", "amenity": null, "building": "residential", "name": null, "shop": null, "GEOID": "17031062100" }, "geometry": { "type": "Polygon", "coordinates": [ [ [ -87.6532112, 41.9449331 ], [ -87.6532137, 41.9450402 ], [ -87.6532266, 41.9450402 ], [ -87.6532278, 41.9450965 ], [ -87.6532333, 41.9450965 ], [ -87.6532331, 41.9451199 ], [ -87.6532312, 41.9451198 ], [ -87.6532337, 41.9452324 ], [ -87.6532374, 41.9452338 ], [ -87.6532371, 41.9452571 ], [ -87.6532353, 41.9452571 ], [ -87.6532369, 41.9452818 ], [ -87.6532516, 41.9452819 ], [ -87.653253, 41.945323 ], [ -87.6531151, 41.945325 ], [ -87.6531137, 41.9452852 ], [ -87.6531046, 41.9452796 ], [ -87.6531029, 41.9452645 ], [ -87.6531085, 41.9452577 ], [ -87.6531158, 41.9452577 ], [ -87.6531145, 41.9452138 ], [ -87.6530997, 41.9452151 ], [ -87.6530987, 41.9451396 ], [ -87.6531116, 41.9451397 ], [ -87.6531104, 41.9450807 ], [ -87.6530976, 41.945071 ], [ -87.6530978, 41.9450491 ], [ -87.6530832, 41.945038 ], [ -87.6530835, 41.9450161 ], [ -87.6530909, 41.9450092 ], [ -87.6530946, 41.9450093 ], [ -87.6530947, 41.9449955 ], [ -87.652955, 41.9449975 ], [ -87.6529549, 41.9450084 ], [ -87.6529677, 41.9450181 ], [ -87.6529674, 41.9450401 ], [ -87.6529582, 41.9450469 ], [ -87.6529579, 41.9450729 ], [ -87.6529431, 41.9450825 ], [ -87.6529443, 41.9451428 ], [ -87.652959, 41.9451416 ], [ -87.65296, 41.9452184 ], [ -87.6529472, 41.9452183 ], [ -87.6529486, 41.9452568 ], [ -87.6529577, 41.9452623 ], [ -87.6529613, 41.9452705 ], [ -87.6529612, 41.9452788 ], [ -87.6529538, 41.9452856 ], [ -87.6529533, 41.9453281 ], [ -87.6527144, 41.9453308 ], [ -87.6527147, 41.9452979 ], [ -87.6527019, 41.945291 ], [ -87.6527004, 41.9452676 ], [ -87.6527078, 41.9452608 ], [ -87.6527114, 41.9452608 ], [ -87.6527117, 41.9452416 ], [ -87.652708, 41.9452416 ], [ -87.6527064, 41.9452183 ], [ -87.6527119, 41.9452183 ], [ -87.6527102, 41.9452018 ], [ -87.6526975, 41.9451921 ], [ -87.6526977, 41.9451743 ], [ -87.6527051, 41.9451634 ], [ -87.6527056, 41.9451195 ], [ -87.6526928, 41.9451112 ], [ -87.6526912, 41.9450906 ], [ -87.6527024, 41.9450783 ], [ -87.652706, 41.9450783 ], [ -87.6527047, 41.9450358 ], [ -87.6526844, 41.945037 ], [ -87.6526845, 41.9450329 ], [ -87.6525944, 41.9450337 ], [ -87.6525944, 41.9450365 ], [ -87.652576, 41.9450378 ], [ -87.6525755, 41.9450789 ], [ -87.6525811, 41.9450789 ], [ -87.652592, 41.9450886 ], [ -87.6525936, 41.9451078 ], [ -87.6525806, 41.9451215 ], [ -87.6525783, 41.9451626 ], [ -87.6525892, 41.9451737 ], [ -87.6525909, 41.9451915 ], [ -87.6525779, 41.9452052 ], [ -87.6525796, 41.9452203 ], [ -87.6525851, 41.9452189 ], [ -87.6525866, 41.945245 ], [ -87.6525811, 41.945245 ], [ -87.652581, 41.9452601 ], [ -87.6525919, 41.9452697 ], [ -87.6525935, 41.9452903 ], [ -87.6525861, 41.9452971 ], [ -87.6525806, 41.9452971 ], [ -87.652582, 41.9453328 ], [ -87.6523817, 41.9453357 ], [ -87.6523801, 41.9453069 ], [ -87.6523674, 41.9452972 ], [ -87.6523658, 41.9452766 ], [ -87.6523787, 41.9452657 ], [ -87.6523791, 41.9452287 ], [ -87.6523664, 41.9452149 ], [ -87.6523648, 41.9451957 ], [ -87.6523778, 41.9451834 ], [ -87.6523782, 41.9451477 ], [ -87.6523726, 41.9451477 ], [ -87.652358, 41.945138 ], [ -87.6523546, 41.9451188 ], [ -87.6523675, 41.9451079 ], [ -87.6523731, 41.9451079 ], [ -87.6523735, 41.9450695 ], [ -87.652368, 41.9450694 ], [ -87.6523666, 41.9450283 ], [ -87.6523261, 41.945028 ], [ -87.6523261, 41.9450349 ], [ -87.6522893, 41.945036 ], [ -87.6522894, 41.9450292 ], [ -87.6522507, 41.9450303 ], [ -87.6522521, 41.9450715 ], [ -87.6522448, 41.9450715 ], [ -87.6522462, 41.9451099 ], [ -87.6522499, 41.9451099 ], [ -87.6522663, 41.9451196 ], [ -87.6522662, 41.9451374 ], [ -87.6522532, 41.9451497 ], [ -87.6522476, 41.9451497 ], [ -87.6522491, 41.9451881 ], [ -87.6522509, 41.9451881 ], [ -87.6522618, 41.9451978 ], [ -87.6522635, 41.9452184 ], [ -87.6522486, 41.9452293 ], [ -87.6522486, 41.9452348 ], [ -87.6522522, 41.9452362 ], [ -87.652252, 41.9452609 ], [ -87.6522501, 41.9452608 ], [ -87.65225, 41.9452691 ], [ -87.6522537, 41.9452691 ], [ -87.6522629, 41.9452746 ], [ -87.6522644, 41.9452993 ], [ -87.6522588, 41.9453062 ], [ -87.6522515, 41.9453061 ], [ -87.6522511, 41.9453391 ], [ -87.652003, 41.9453417 ], [ -87.6520031, 41.945328 ], [ -87.6519866, 41.9453279 ], [ -87.6519757, 41.9453168 ], [ -87.6519758, 41.9453045 ], [ -87.6519851, 41.9452936 ], [ -87.6520035, 41.9452937 ], [ -87.6520022, 41.9452415 ], [ -87.6519857, 41.9452414 ], [ -87.6519747, 41.9452331 ], [ -87.651973, 41.9452194 ], [ -87.6519823, 41.9452099 ], [ -87.6520007, 41.94521 ], [ -87.652001, 41.9451866 ], [ -87.6519826, 41.9451865 ], [ -87.6519735, 41.9451782 ], [ -87.6519718, 41.9451631 ], [ -87.6519811, 41.9451536 ], [ -87.6519995, 41.9451537 ], [ -87.6519982, 41.9451029 ], [ -87.6519891, 41.9450946 ], [ -87.6519893, 41.9450699 ], [ -87.6519766, 41.9450603 ], [ -87.651975, 41.9450369 ], [ -87.6519861, 41.9450274 ], [ -87.6519863, 41.945015 ], [ -87.6519642, 41.9450163 ], [ -87.6519641, 41.9450218 ], [ -87.6518851, 41.9450227 ], [ -87.6518851, 41.9450199 ], [ -87.6518594, 41.9450198 ], [ -87.6518593, 41.9450308 ], [ -87.6518702, 41.9450404 ], [ -87.6518718, 41.9450624 ], [ -87.6518607, 41.9450706 ], [ -87.6518604, 41.9450966 ], [ -87.6518511, 41.9451048 ], [ -87.6518524, 41.9451542 ], [ -87.651869, 41.9451543 ], [ -87.6518799, 41.9451612 ], [ -87.6518816, 41.9451791 ], [ -87.6518723, 41.9451886 ], [ -87.6518576, 41.9451899 ], [ -87.6518574, 41.9452091 ], [ -87.6518721, 41.9452092 ], [ -87.6518848, 41.9452203 ], [ -87.6518846, 41.9452367 ], [ -87.6518717, 41.9452435 ], [ -87.6518607, 41.9452448 ], [ -87.6518619, 41.945297 ], [ -87.6518748, 41.9452957 ], [ -87.6518839, 41.9453039 ], [ -87.6518856, 41.9453218 ], [ -87.6518744, 41.9453313 ], [ -87.6518579, 41.9453312 ], [ -87.6518578, 41.945345 ], [ -87.6516115, 41.9453476 ], [ -87.6516099, 41.9453188 ], [ -87.6515971, 41.9453119 ], [ -87.6515956, 41.9452858 ], [ -87.6515993, 41.9452817 ], [ -87.6516067, 41.945279 ], [ -87.6516067, 41.9452721 ], [ -87.6516031, 41.9452721 ], [ -87.6516033, 41.9452474 ], [ -87.651607, 41.9452447 ], [ -87.6516053, 41.9452392 ], [ -87.6515943, 41.9452323 ], [ -87.6515927, 41.9452103 ], [ -87.6516075, 41.945198 ], [ -87.6516043, 41.9451596 ], [ -87.6515878, 41.9451485 ], [ -87.6515862, 41.9451334 ], [ -87.6515991, 41.9451225 ], [ -87.6516065, 41.9451226 ], [ -87.6516051, 41.9450814 ], [ -87.6515959, 41.9450813 ], [ -87.6515963, 41.9450402 ], [ -87.6515541, 41.9450413 ], [ -87.651554, 41.9450468 ], [ -87.6515191, 41.9450466 ], [ -87.6515191, 41.9450411 ], [ -87.651475, 41.9450422 ], [ -87.6514764, 41.945082 ], [ -87.6514728, 41.945082 ], [ -87.6514741, 41.9451245 ], [ -87.6514778, 41.9451245 ], [ -87.6514906, 41.9451328 ], [ -87.6514941, 41.945148 ], [ -87.6514811, 41.9451602 ], [ -87.6514774, 41.9451602 ], [ -87.6514789, 41.9452 ], [ -87.651488, 41.9452083 ], [ -87.6514914, 41.945233 ], [ -87.6514784, 41.9452398 ], [ -87.6514784, 41.9452467 ], [ -87.651482, 41.9452467 ], [ -87.6514817, 41.9452741 ], [ -87.6514799, 41.9452741 ], [ -87.6514798, 41.9452796 ], [ -87.6514908, 41.9452879 ], [ -87.6514924, 41.9453126 ], [ -87.6514794, 41.9453194 ], [ -87.6514791, 41.9453509 ], [ -87.6512806, 41.9453539 ], [ -87.651279, 41.9453237 ], [ -87.6512681, 41.9453168 ], [ -87.6512647, 41.9452934 ], [ -87.6512758, 41.9452839 ], [ -87.6512759, 41.9452743 ], [ -87.6512741, 41.9452743 ], [ -87.6512743, 41.9452523 ], [ -87.651278, 41.9452523 ], [ -87.6512781, 41.9452414 ], [ -87.6512653, 41.9452344 ], [ -87.6512637, 41.9452138 ], [ -87.6512748, 41.9452043 ], [ -87.6512752, 41.9451659 ], [ -87.6512569, 41.9451575 ], [ -87.6512534, 41.9451397 ], [ -87.6512719, 41.9451274 ], [ -87.6512724, 41.9450876 ], [ -87.651265, 41.9450849 ], [ -87.6512655, 41.9450464 ], [ -87.651225, 41.9450462 ], [ -87.6512268, 41.9450517 ], [ -87.6511882, 41.9450528 ], [ -87.6511883, 41.9450474 ], [ -87.6511478, 41.9450471 ], [ -87.6511474, 41.9450883 ], [ -87.6511437, 41.9450882 ], [ -87.6511451, 41.945128 ], [ -87.6511634, 41.9451391 ], [ -87.651165, 41.9451556 ], [ -87.6511502, 41.9451665 ], [ -87.6511447, 41.9451665 ], [ -87.6511443, 41.9452049 ], [ -87.6511589, 41.9452132 ], [ -87.6511587, 41.9452352 ], [ -87.6511457, 41.9452447 ], [ -87.6511456, 41.9452515 ], [ -87.6511512, 41.9452516 ], [ -87.6511527, 41.9452777 ], [ -87.6511472, 41.9452776 ], [ -87.651149, 41.9452859 ], [ -87.6511618, 41.9452914 ], [ -87.6511615, 41.9453175 ], [ -87.6511485, 41.9453257 ], [ -87.6511482, 41.9453558 ], [ -87.6510508, 41.9453566 ], [ -87.6510479, 41.9452839 ], [ -87.6510626, 41.945284 ], [ -87.651055, 41.9449656 ], [ -87.6513472, 41.9449619 ], [ -87.6513487, 41.9449989 ], [ -87.6513579, 41.944999 ], [ -87.6513641, 41.9452789 ], [ -87.6513935, 41.9452777 ], [ -87.6513858, 41.9449635 ], [ -87.6516854, 41.9449597 ], [ -87.6516931, 41.9452713 ], [ -87.651706, 41.9452713 ], [ -87.6517059, 41.9452851 ], [ -87.6517279, 41.9452838 ], [ -87.6517254, 41.9451795 ], [ -87.6517217, 41.9451795 ], [ -87.6517191, 41.9450752 ], [ -87.6517338, 41.9450739 ], [ -87.6517314, 41.9449573 ], [ -87.6521082, 41.9449526 ], [ -87.6521107, 41.9450679 ], [ -87.6521309, 41.945068 ], [ -87.6521317, 41.9451641 ], [ -87.6521297, 41.9451805 ], [ -87.6521305, 41.945278 ], [ -87.6521544, 41.9452781 ], [ -87.6521545, 41.9452685 ], [ -87.6521655, 41.9452686 ], [ -87.6521579, 41.9449502 ], [ -87.6524538, 41.9449465 ], [ -87.6524537, 41.9449588 ], [ -87.6524592, 41.9449575 ], [ -87.6524617, 41.9450673 ], [ -87.6524599, 41.9450672 ], [ -87.6524651, 41.9452635 ], [ -87.652478, 41.9452622 ], [ -87.6524797, 41.94528 ], [ -87.6524962, 41.9452801 ], [ -87.6524882, 41.9449988 ], [ -87.6525066, 41.9449989 ], [ -87.6525053, 41.9449468 ], [ -87.6527645, 41.9449428 ], [ -87.6527657, 41.944995 ], [ -87.6527878, 41.9449951 ], [ -87.6527893, 41.9450225 ], [ -87.6527856, 41.9450239 ], [ -87.652791, 41.9452133 ], [ -87.6527947, 41.9452133 ], [ -87.6527962, 41.9452435 ], [ -87.6527943, 41.9452435 ], [ -87.652794, 41.9452778 ], [ -87.6528068, 41.9452779 ], [ -87.6528086, 41.9452875 ], [ -87.6528288, 41.9452876 ], [ -87.6528291, 41.9452629 ], [ -87.652825, 41.9451284 ], [ -87.6528222, 41.9450447 ], [ -87.652835, 41.9450448 ], [ -87.6528338, 41.9449885 ], [ -87.6528375, 41.9449885 ], [ -87.6528362, 41.9449378 ], [ -87.6532112, 41.9449331 ] ] ] } },
{ "type": "Feature", "properties": { "@id": "way/210331419", "amenity": null, "building": "residential", "name": "The Vautravers Building", "shop": null, "GEOID": "17031062100" }, "geometry": { "type": "Polygon", "coordinates": [ [ [ -87.653818, 41.9442336 ], [ -87.6538179, 41.9442473 ], [ -87.6538896, 41.9442464 ], [ -87.6538924, 41.9443205 ], [ -87.6539052, 41.9443302 ], [ -87.6539067, 41.9443658 ], [ -87.6537669, 41.9443691 ], [ -87.6537595, 41.9443759 ], [ -87.6537321, 41.9443648 ], [ -87.6537377, 41.9443525 ], [ -87.6536452, 41.9442381 ], [ -87.6537445, 41.9442345 ], [ -87.6537462, 41.9442469 ], [ -87.6537683, 41.9442456 ], [ -87.6537665, 41.9442347 ], [ -87.653818, 41.9442336 ] ] ] } },
{ "type": "Feature", "properties": { "@id": "way/210684366", "amenity": null, "building": "residential", "name": "Concord Lane", "shop": null, "GEOID": "17031071500" }, "geometry": { "type": "Polygon", "coordinates": [ [ [ -87.6365034, 41.9117897 ], [ -87.6365048, 41.9118469 ], [ -87.6349321, 41.9118681 ], [ -87.6349307, 41.9118111 ], [ -87.635797, 41.9117991 ], [ -87.6365034, 41.9117897 ] ] ] } },
{ "type": "Feature", "properties": { "@id": "way/210684367", "amenity": null, "building": "residential", "name": "Concord Lane", "shop": null, "GEOID": "17031071500" }, "geometry": { "type": "Polygon", "coordinates": [ [ [ -87.6353083, 41.912025 ], [ -87.635306, 41.9119648 ], [ -87.6358757, 41.9119529 ], [ -87.6365115, 41.9119396 ], [ -87.6365121, 41.9119557 ], [ -87.6365491, 41.9119549 ], [ -87.6365507, 41.911999 ], [ -87.6353083, 41.912025 ] ] ] } },
{ "type": "Feature", "properties": { "@id": "way/210686858", "amenity": null, "building": "residential", "name": "The Brighton Condos of Lincoln Park West", "shop": null, "GEOID": "17031071400" }, "geometry": { "type": "Polygon", "coordinates": [ [ [ -87.6373041, 41.9244839 ], [ -87.6373085, 41.924757 ], [ -87.6367315, 41.9247617 ], [ -87.6367305, 41.9246876 ], [ -87.6367435, 41.9246754 ], [ -87.636839, 41.9246746 ], [ -87.6368391, 41.9246705 ], [ -87.6369052, 41.9246695 ], [ -87.6369145, 41.9246654 ], [ -87.6369255, 41.9246614 ], [ -87.6369347, 41.9246614 ], [ -87.6369475, 41.9246643 ], [ -87.6369549, 41.924667 ], [ -87.6369603, 41.9246698 ], [ -87.6370247, 41.9246688 ], [ -87.6370358, 41.924662 ], [ -87.637056, 41.9246594 ], [ -87.637067, 41.9246622 ], [ -87.6370743, 41.9246664 ], [ -87.6370798, 41.9246692 ], [ -87.6371404, 41.9246682 ], [ -87.6371405, 41.9246613 ], [ -87.6371809, 41.9246616 ], [ -87.6371799, 41.9245888 ], [ -87.6371358, 41.9245886 ], [ -87.637134, 41.9245817 ], [ -87.6370752, 41.9245827 ], [ -87.637066, 41.9245881 ], [ -87.6370531, 41.9245922 ], [ -87.6370384, 41.9245907 ], [ -87.6370292, 41.9245865 ], [ -87.6370238, 41.9245838 ], [ -87.6370219, 41.9245824 ], [ -87.6369558, 41.9245833 ], [ -87.6369465, 41.9245915 ], [ -87.6369336, 41.9245928 ], [ -87.6369226, 41.9245914 ], [ -87.6369135, 41.9245886 ], [ -87.6369025, 41.9245844 ], [ -87.6368492, 41.9245854 ], [ -87.6368364, 41.9245799 ], [ -87.6368347, 41.9245703 ], [ -87.6367391, 41.9245724 ], [ -87.6367282, 41.9245628 ], [ -87.6367271, 41.92449 ], [ -87.6373041, 41.9244839 ] ] ] } },
{ "type": "Feature", "properties": { "@id": "way/335922963", "amenity": null, "building": "residential", "name": null, "shop": null, "GEOID": "17031062900" }, "geometry": { "type": "Polygon", "coordinates": [ [ [ -87.6568937, 41.9397786 ], [ -87.6566671, 41.9397811 ], [ -87.6566641, 41.9396304 ], [ -87.6566893, 41.9396302 ], [ -87.6566888, 41.9396085 ], [ -87.6566668, 41.9396087 ], [ -87.6566644, 41.9394898 ], [ -87.6568877, 41.9394873 ], [ -87.6568901, 41.9396017 ], [ -87.6569108, 41.9396015 ], [ -87.6569114, 41.9396291 ], [ -87.6568907, 41.9396293 ], [ -87.6568937, 41.9397786 ] ] ] } },
{ "type": "Feature", "properties": { "@id": "way/338246202", "amenity": null, "building": "residential", "name": null, "shop": null, "GEOID": "17031070300" }, "geometry": { "type": "Polygon", "coordinates": [ [ [ -87.649113, 41.931951 ], [ -87.6492569, 41.9319491 ], [ -87.6492566, 41.9319373 ], [ -87.6493022, 41.9319367 ], [ -87.6493025, 41.9319497 ], [ -87.6495637, 41.9319463 ], [ -87.6495604, 41.9318058 ], [ -87.6492932, 41.9318092 ], [ -87.6492935, 41.9318241 ], [ -87.6492496, 41.9318246 ], [ -87.6492493, 41.9318114 ], [ -87.6491099, 41.9318132 ], [ -87.649113, 41.931951 ] ] ] } },
{ "type": "Feature", "properties": { "@id": "way/411429545", "amenity": null, "building": "residential", "name": null, "shop": null, "GEOID": "17031832600" }, "geometry": { "type": "Polygon", "coordinates": [ [ [ -87.6530028, 41.9124273 ], [ -87.6529967, 41.9123259 ], [ -87.6527812, 41.9123289 ], [ -87.6527812, 41.9124303 ], [ -87.6530028, 41.9124273 ] ] ] } },
{ "type": "Feature", "properties": { "@id": "way/515705755", "amenity": null, "building": "residential", "name": null, "shop": null, "GEOID": "17031070101" }, "geometry": { "type": "Polygon", "coordinates": [ [ [ -87.640364, 41.9296694 ], [ -87.6403367, 41.9296236 ], [ -87.640252, 41.9294816 ], [ -87.6402491, 41.9294682 ], [ -87.639895, 41.9295851 ], [ -87.6399449, 41.9296686 ], [ -87.6400142, 41.9297849 ], [ -87.640364, 41.9296694 ] ] ] } },
{ "type": "Feature", "properties": { "@id": "way/525955040", "amenity": null, "building": "residential", "name": "The Bel", "shop": null, "GEOID": "17031063000" }, "geometry": { "type": "Polygon", "coordinates": [ [ [ -87.6529741, 41.9398417 ], [ -87.6531487, 41.9398387 ], [ -87.653148, 41.939818 ], [ -87.6531441, 41.9397091 ], [ -87.6531154, 41.9397096 ], [ -87.6531106, 41.939587 ], [ -87.6531398, 41.9395874 ], [ -87.6531346, 41.939441 ], [ -87.6529606, 41.939444 ], [ -87.6529741, 41.9398417 ] ] ] } }
]
}
