{
"type": "FeatureCollection",
"name": "university_location_data",
"crs": { "type": "name", "properties": { "name": "urn:ogc:def:crs:EPSG::4269" } },
"features": [
{ "type": "Feature", "properties": { "@id": "way/26150291", "amenity": null, "building": "university", "name": "Ray Meyer Fitness and Recreation Center", "GEOID": "17031071100" }, "geometry": { "type": "Polygon", "coordinates": [ [ [ -87.65339, 41.92224 ], [ -87.6534202, 41.9230752 ], [ -87.6529688, 41.9230842 ], [ -87.6529415, 41.9222473 ], [ -87.65339, 41.92224 ] ] ] } },
{ "type": "Feature", "properties": { "@id": "way/28010765", "amenity": "library", "building": "university", "name": "John T. Richardson Library", "GEOID": "17031071000" }, "geometry": { "type": "Polygon", "coordinates": [ [ [ -87.6559034, 41.9247908 ], [ -87.6559041, 41.9248295 ], [ -87.655911, 41.9252239 ], [ -87.6549807, 41.9252343 ], [ -87.6549661, 41.9248118 ], [ -87.6549574, 41.9244392 ], [ -87.6551921, 41.9244365 ], [ -87.6551951, 41.9245288 ], [ -87.655204, 41.9248045 ], [ -87.6554874, 41.9247987 ], [ -87.6558635, 41.9247913 ], [ -87.6559034, 41.9247908 ] ] ] } },
{ "type": "Feature", "properties": { "@id": "way/28010798", "amenity": null, "building": "university", "name": "Sullivan Athletic Center", "GEOID": "17031071100" }, "geometry": { "type": "Polygon", "coordinates": [ [ [ -87.6534294, 41.9236852 ], [ -87.6534577, 41.9243258 ], [ -87.6534505, 41.9243255 ], [ -87.6530005, 41.9243333 ], [ -87.6529827, 41.9243332 ], [ -87.652978, 41.9241666 ], [ -87.6529588, 41.9241663 ], [ -87.6529457, 41.9241371 ], [ -87.6529332, 41.9236652 ], [ -87.6533415, 41.9236603 ], [ -87.6533414, 41.9236874 ], [ -87.6534294, 41.9236852 ] ] ] } },
{ "type": "Feature", "properties": { "@id": "way/28010808", "amenity": null, "building": "university", "name": "Student Center", "GEOID": "17031071000" }, "geometry": { "type": "Polygon", "coordinates": [ [ [ -87.6538086, 41.9234497 ], [ -87.6537915, 41.9233859 ], [ -87.6537228, 41.9233667 ], [ -87.6536799, 41.9233028 ], [ -87.6536627, 41.9229388 ], [ -87.6537142, 41.9229388 ], [ -87.6537142, 41.9229133 ], [ -87.6546069, 41.9228941 ], [ -87.6546255, 41.9233156 ], [ -87.6545691, 41.9233157 ], [ -87.6545478, 41.9233508 ], [ -87.6545189, 41.9233702 ], [ -87.654505, 41.9234366 ], [ -87.6538086, 41.9234497 ] ] ] } },
{ "type": "Feature", "properties": { "@id": "way/28010812", "amenity": null, "building": "university", "name": "Faculty Hall", "GEOID": "17031071000" }, "geometry": { "type": "Polygon", "coordinates": [ [ [ -87.6545559, 41.9225092 ], [ -87.6545591, 41.9227047 ], [ -87.6543787, 41.9227064 ], [ -87.654378, 41.9226637 ], [ -87.6542126, 41.9226652 ], [ -87.6542101, 41.9225124 ], [ -87.6543611, 41.922511 ], [ -87.6545559, 41.9225092 ] ] ] } },
{ "type": "Feature", "properties": { "@id": "way/28010816", "amenity": null, "building": "university", "name": "Arthur J. Schmitt Academic Center (SAC)", "GEOID": "17031071000" }, "geometry": { "type": "Polygon", "coordinates": [ [ [ -87.6552603, 41.9236727 ], [ -87.6556313, 41.9236705 ], [ -87.6557165, 41.9237304 ], [ -87.6557202, 41.9240398 ], [ -87.6557223, 41.9242117 ], [ -87.6557251, 41.9244403 ], [ -87.6558971, 41.9244371 ], [ -87.6558986, 41.9245198 ], [ -87.6558521, 41.9245205 ], [ -87.6556771, 41.9245232 ], [ -87.6554758, 41.9245264 ], [ -87.6551951, 41.9245288 ], [ -87.6551921, 41.9244365 ], [ -87.6551857, 41.9243689 ], [ -87.6551588, 41.9239216 ], [ -87.6551842, 41.9239246 ], [ -87.6551767, 41.9237409 ], [ -87.6552603, 41.9236727 ] ] ] } },
{ "type": "Feature", "properties": { "@id": "way/28010818", "amenity": null, "building": "university", "name": "Michael J. O'Connell Hall", "GEOID": "17031071000" }, "geometry": { "type": "Polygon", "coordinates": [ [ [ -87.6549124, 41.9239274 ], [ -87.6551588, 41.9239216 ], [ -87.655146, 41.9236199 ], [ -87.6548997, 41.9236256 ], [ -87.6549124, 41.9239274 ] ] ] } },
{ "type": "Feature", "properties": { "@id": "way/28010820", "amenity": null, "building": "university", "name": "Thomas P. Levan Center", "GEOID": "17031071000" }, "geometry": { "type": "Polygon", "coordinates": [ [ [ -87.6549317, 41.9243766 ], [ -87.6549124, 41.9239274 ], [ -87.6551588, 41.9239216 ], [ -87.6551857, 41.9243689 ], [ -87.6549317, 41.9243766 ] ] ] } },
{ "type": "Feature", "properties": { "@id": "way/28010830", "amenity": null, "building": "university", "name": "William G. McGowan Biological & Environmental Sciences Center", "GEOID": "17031071000" }, "geometry": { "type": "Polygon", "coordinates": [ [ [ -87.6570238, 41.9243537 ], [ -87.6570158, 41.9240583 ], [ -87.6564188, 41.9240672 ], [ -87.6564185, 41.9240564 ], [ -87.6563175, 41.9240579 ], [ -87.6561855, 41.9240845 ], [ -87.6561871, 41.9241379 ], [ -87.6561751, 41.9241381 ], [ -87.6561799, 41.9242999 ], [ -87.6561989, 41.9242996 ], [ -87.6562008, 41.9243632 ], [ -87.6563193, 41.9243613 ], [ -87.6563199, 41.9243801 ], [ -87.6564283, 41.9243784 ], [ -87.6564278, 41.9243625 ], [ -87.6567969, 41.9243571 ], [ -87.6570238, 41.9243537 ] ] ] } },
{ "type": "Feature", "properties": { "@id": "way/28100481", "amenity": null, "building": "university", "name": "John R. Cortelyou Commons", "GEOID": "17031071100" }, "geometry": { "type": "Polygon", "coordinates": [ [ [ -87.6514113, 41.9243204 ], [ -87.6513734, 41.9243207 ], [ -87.6513722, 41.9242506 ], [ -87.6512401, 41.9242518 ], [ -87.6512413, 41.9243217 ], [ -87.6512049, 41.9243221 ], [ -87.6512063, 41.9244064 ], [ -87.6512301, 41.9244061 ], [ -87.6512337, 41.9246209 ], [ -87.6512144, 41.9246211 ], [ -87.6512162, 41.9247295 ], [ -87.6512417, 41.9247292 ], [ -87.6512423, 41.9247626 ], [ -87.6513869, 41.9247612 ], [ -87.6513857, 41.9246943 ], [ -87.651419, 41.924694 ], [ -87.6514177, 41.9246178 ], [ -87.6513773, 41.9246182 ], [ -87.6513736, 41.9243979 ], [ -87.6514126, 41.9243975 ], [ -87.6514113, 41.9243204 ] ] ] } },
{ "type": "Feature", "properties": { "@id": "way/37615612", "amenity": null, "building": "university", "name": "Byrne Hall", "GEOID": "17031071000" }, "geometry": { "type": "Polygon", "coordinates": [ [ [ -87.6541722, 41.9222329 ], [ -87.6542451, 41.9222315 ], [ -87.6543221, 41.9222301 ], [ -87.6543229, 41.9222527 ], [ -87.6543351, 41.9222525 ], [ -87.6543245, 41.9219265 ], [ -87.6545862, 41.9219217 ], [ -87.6546022, 41.9224149 ], [ -87.6543591, 41.9224193 ], [ -87.6543616, 41.9224954 ], [ -87.6541571, 41.922499 ], [ -87.6541553, 41.9224446 ], [ -87.6541536, 41.9223926 ], [ -87.6541611, 41.9223925 ], [ -87.6541617, 41.922327 ], [ -87.6541604, 41.9222547 ], [ -87.654173, 41.9222574 ], [ -87.6541722, 41.9222329 ] ] ] } },
{ "type": "Feature", "properties": { "@id": "way/132047194", "amenity": null, "building": "university", "name": "Centennial Hall", "GEOID": "17031071100" }, "geometry": { "type": "Polygon", "coordinates": [ [ [ -87.6534861, 41.9252496 ], [ -87.6534473, 41.9252838 ], [ -87.6530267, 41.9252916 ], [ -87.6530252, 41.9252254 ], [ -87.6530195, 41.9249696 ], [ -87.6534732, 41.924962 ], [ -87.6534861, 41.9252496 ] ] ] } },
{ "type": "Feature", "properties": { "@id": "way/207256165", "amenity": null, "building": "university", "name": "DePaul University Welcome Center", "GEOID": "17031070400" }, "geometry": { "type": "Polygon", "coordinates": [ [ [ -87.6545733, 41.9258681 ], [ -87.6553246, 41.925854 ], [ -87.6554298, 41.9257687 ], [ -87.655429, 41.9257434 ], [ -87.6552806, 41.9257461 ], [ -87.6552705, 41.9254378 ], [ -87.6545591, 41.9254508 ], [ -87.6545652, 41.9256361 ], [ -87.654525, 41.9256368 ], [ -87.6545264, 41.9256809 ], [ -87.654567, 41.9256802 ], [ -87.6545733, 41.9258681 ] ] ] } },
{ "type": "Feature", "properties": { "@id": "way/207256181", "amenity": null, "building": "university", "name": "McGowan South", "GEOID": "17031071000" }, "geometry": { "type": "Polygon", "coordinates": [ [ [ -87.6569999, 41.9236404 ], [ -87.6561785, 41.9236463 ], [ -87.656191, 41.9240133 ], [ -87.6570083, 41.9240044 ], [ -87.6569999, 41.9236404 ] ] ] } },
{ "type": "Feature", "properties": { "@id": "way/207256188", "amenity": null, "building": "university", "name": "Arts and Letters Hall", "GEOID": "17031071000" }, "geometry": { "type": "Polygon", "coordinates": [ [ [ -87.6546487, 41.9244419 ], [ -87.6542272, 41.9244488 ], [ -87.6542041, 41.923668 ], [ -87.6544372, 41.9236642 ], [ -87.6544611, 41.9236415 ], [ -87.6544909, 41.9236395 ], [ -87.6545221, 41.9236649 ], [ -87.6545182, 41.9236849 ], [ -87.6544955, 41.9237004 ], [ -87.6544795, 41.9237007 ], [ -87.6544918, 41.9240123 ], [ -87.6545838, 41.9240103 ], [ -87.6545831, 41.9239912 ], [ -87.6546019, 41.9239724 ], [ -87.654636, 41.9239682 ], [ -87.6546686, 41.9239918 ], [ -87.6546632, 41.924018 ], [ -87.6546367, 41.9240323 ], [ -87.6546487, 41.9244419 ] ] ] } },
{ "type": "Feature", "properties": { "@id": "way/210314883", "amenity": null, "building": "university", "name": null, "GEOID": "17031071000" }, "geometry": { "type": "Polygon", "coordinates": [ [ [ -87.6541282, 41.9236407 ], [ -87.6541326, 41.9237463 ], [ -87.6541142, 41.9237476 ], [ -87.6541189, 41.9238258 ], [ -87.6540362, 41.9238267 ], [ -87.6540379, 41.9238391 ], [ -87.6539368, 41.9238412 ], [ -87.653937, 41.9238248 ], [ -87.6538506, 41.923827 ], [ -87.6538493, 41.9237749 ], [ -87.6538162, 41.9237747 ], [ -87.6538192, 41.9238433 ], [ -87.653685, 41.9238466 ], [ -87.6536779, 41.923649 ], [ -87.6539371, 41.9236436 ], [ -87.6539415, 41.9237493 ], [ -87.654026, 41.9237471 ], [ -87.6540216, 41.9236428 ], [ -87.6541282, 41.9236407 ] ] ] } },
{ "type": "Feature", "properties": { "@id": "way/210318477", "amenity": null, "building": "university", "name": "DePaul University College of Education", "GEOID": "17031071200" }, "geometry": { "type": "Polygon", "coordinates": [ [ [ -87.6484929, 41.9231558 ], [ -87.6485093, 41.9231682 ], [ -87.6485222, 41.9235072 ], [ -87.6484926, 41.9235249 ], [ -87.6481489, 41.9235324 ], [ -87.6481364, 41.9231619 ], [ -87.6484929, 41.9231558 ] ] ] } },
{ "type": "Feature", "properties": { "@id": "way/210320780", "amenity": "arts_centre", "building": "university", "name": "Sasha and Eugene Jarvis Opera Hall", "GEOID": "17031071100" }, "geometry": { "type": "Polygon", "coordinates": [ [ [ -87.6492644, 41.9238588 ], [ -87.6492659, 41.9238862 ], [ -87.6493652, 41.9238827 ], [ -87.6493711, 41.9240158 ], [ -87.6492682, 41.924018 ], [ -87.6492698, 41.9240427 ], [ -87.6489371, 41.9240517 ], [ -87.6489356, 41.9240228 ], [ -87.6489025, 41.924024 ], [ -87.6488965, 41.9238936 ], [ -87.6489333, 41.9238925 ], [ -87.6489317, 41.9238678 ], [ -87.6492644, 41.9238588 ] ] ] } },
{ "type": "Feature", "properties": { "@id": "way/210320857", "amenity": null, "building": "university", "name": null, "GEOID": "17031070400" }, "geometry": { "type": "Polygon", "coordinates": [ [ [ -87.6559135, 41.9254254 ], [ -87.6559257, 41.9258371 ], [ -87.65556, 41.9258431 ], [ -87.6555586, 41.9257978 ], [ -87.655498, 41.9258002 ], [ -87.6554912, 41.9255765 ], [ -87.65555, 41.9255755 ], [ -87.655546, 41.9254328 ], [ -87.6559135, 41.9254254 ] ] ] } },
{ "type": "Feature", "properties": { "@id": "way/210323136", "amenity": null, "building": "university", "name": "990 West Fullerton Building", "GEOID": "17031070300" }, "geometry": { "type": "Polygon", "coordinates": [ [ [ -87.6534919, 41.9254792 ], [ -87.6535051, 41.9258868 ], [ -87.6530023, 41.9258935 ], [ -87.6529916, 41.9256512 ], [ -87.652989, 41.9255745 ], [ -87.652988, 41.9255215 ], [ -87.652985, 41.9255217 ], [ -87.6529831, 41.9254837 ], [ -87.6534919, 41.9254792 ] ] ] } },
{ "type": "Feature", "properties": { "@id": "way/210323163", "amenity": null, "building": "university", "name": "1150 West Fullerton", "GEOID": "17031070400" }, "geometry": { "type": "Polygon", "coordinates": [ [ [ -87.6583319, 41.925391 ], [ -87.6583441, 41.9258027 ], [ -87.6579619, 41.9258087 ], [ -87.6579539, 41.9255177 ], [ -87.6579061, 41.9255188 ], [ -87.6579047, 41.925479 ], [ -87.6579033, 41.9254392 ], [ -87.6579511, 41.9254395 ], [ -87.6579497, 41.9253983 ], [ -87.6583319, 41.925391 ] ] ] } },
{ "type": "Feature", "properties": { "@id": "way/361635923", "amenity": null, "building": "university", "name": "DePaul Art Museum", "GEOID": "17031071100" }, "geometry": { "type": "Polygon", "coordinates": [ [ [ -87.652608, 41.925278 ], [ -87.6525981, 41.9249995 ], [ -87.6524355, 41.9250003 ], [ -87.6524391, 41.9251567 ], [ -87.6523955, 41.9251583 ], [ -87.6523975, 41.9251884 ], [ -87.6524412, 41.9251884 ], [ -87.6524435, 41.925278 ], [ -87.652608, 41.925278 ] ] ] } },
{ "type": "Feature", "properties": { "@id": "way/561571930", "amenity": "arts_centre", "building": "university", "name": "Holtschneider Performance Center", "GEOID": "17031071100" }, "geometry": { "type": "Polygon", "coordinates": [ [ [ -87.64892, 41.9240838 ], [ -87.6494321, 41.9240725 ], [ -87.6494314, 41.9240576 ], [ -87.6496135, 41.9240553 ], [ -87.6496167, 41.9242562 ], [ -87.6497528, 41.9242534 ], [ -87.6497566, 41.9245661 ], [ -87.6497905, 41.9245656 ], [ -87.6497915, 41.9246055 ], [ -87.6497928, 41.9246539 ], [ -87.6497437, 41.9246546 ], [ -87.6497501, 41.9248936 ], [ -87.6494116, 41.924902 ], [ -87.6494088, 41.9246675 ], [ -87.649388, 41.9246679 ], [ -87.6490598, 41.9246748 ], [ -87.6490586, 41.924624 ], [ -87.6490573, 41.9245741 ], [ -87.6490515, 41.9243372 ], [ -87.6490284, 41.9243377 ], [ -87.6489894, 41.9243385 ], [ -87.6489336, 41.9243397 ], [ -87.6489233, 41.9243399 ], [ -87.64892, 41.9240838 ] ] ] } },
{ "type": "Feature", "properties": { "@id": "way/561571931", "amenity": null, "building": "university", "name": "DePaul University School of Music", "GEOID": "17031071100" }, "geometry": { "type": "Polygon", "coordinates": [ [ [ -87.6490976, 41.9249442 ], [ -87.6492689, 41.9249405 ], [ -87.6492732, 41.9250904 ], [ -87.6495056, 41.9250879 ], [ -87.6498427, 41.9250811 ], [ -87.6498499, 41.9252731 ], [ -87.6491077, 41.9252862 ], [ -87.6490976, 41.9249442 ] ] ] } }
]
}
