{
"type": "FeatureCollection",
"name": "RAW_census_tract_data",
"crs": { "type": "name", "properties": { "name": "urn:ogc:def:crs:EPSG::4269" } },
"features": [
{ "type": "Feature", "properties": { "GEOID": "17031062900" }, "geometry": { "type": "Polygon", "coordinates": [ [ [ -87.658969, 41.939838 ], [ -87.656537, 41.939874 ], [ -87.654106, 41.939912 ], [ -87.653983, 41.936271 ], [ -87.653951, 41.935358 ], [ -87.653859, 41.932638 ], [ -87.65871, 41.932556 ], [ -87.658776, 41.934376 ], [ -87.658807, 41.935279 ], [ -87.658969, 41.939838 ] ] ] } },
{ "type": "Feature", "properties": { "GEOID": "17031063400" }, "geometry": { "type": "Polygon", "coordinates": [ [ [ -87.649141, 41.936379 ], [ -87.644279, 41.936513 ], [ -87.644224, 41.934875 ], [ -87.644265, 41.934252 ], [ -87.644886, 41.932801 ], [ -87.646581, 41.932768 ], [ -87.649012, 41.93272 ], [ -87.649108, 41.935458 ], [ -87.649117, 41.935563 ], [ -87.649141, 41.936379 ] ] ] } },
{ "type": "Feature", "properties": { "GEOID": "17031070400" }, "geometry": { "type": "Polygon", "coordinates": [ [ [ -87.65871, 41.932556 ], [ -87.653859, 41.932638 ], [ -87.653703, 41.928101 ], [ -87.653613, 41.925376 ], [ -87.658453, 41.925292 ], [ -87.658516, 41.927108 ], [ -87.658532, 41.927767 ], [ -87.65871, 41.932556 ] ] ] } },
{ "type": "Feature", "properties": { "GEOID": "17031071300" }, "geometry": { "type": "Polygon", "coordinates": [ [ [ -87.643927, 41.925532 ], [ -87.641502, 41.925569 ], [ -87.640479, 41.925585 ], [ -87.639779, 41.924455 ], [ -87.639366, 41.92377 ], [ -87.638838, 41.922893 ], [ -87.639058, 41.92288 ], [ -87.638937, 41.921961 ], [ -87.638816, 41.918322 ], [ -87.641246, 41.918286 ], [ -87.643667, 41.918253 ], [ -87.643728, 41.920072 ], [ -87.643787, 41.921888 ], [ -87.643927, 41.925532 ] ] ] } },
{ "type": "Feature", "properties": { "GEOID": "17031832000" }, "geometry": { "type": "Polygon", "coordinates": [ [ [ -87.659168, 41.947149 ], [ -87.65433, 41.947245 ], [ -87.649486, 41.947315 ], [ -87.64943, 41.945461 ], [ -87.654272, 41.945396 ], [ -87.654245, 41.944466 ], [ -87.65523, 41.945605 ], [ -87.656699, 41.945351 ], [ -87.659122, 41.945316 ], [ -87.659168, 41.947149 ] ] ] } },
{ "type": "Feature", "properties": { "GEOID": "17031062000" }, "geometry": { "type": "Polygon", "coordinates": [ [ [ -87.64943, 41.945461 ], [ -87.649219, 41.94544 ], [ -87.646148, 41.945502 ], [ -87.64552, 41.944482 ], [ -87.645036, 41.943684 ], [ -87.644814, 41.943321 ], [ -87.644455, 41.941777 ], [ -87.6444, 41.940045 ], [ -87.649267, 41.939981 ], [ -87.649358, 41.942709 ], [ -87.649375, 41.943616 ], [ -87.649404, 41.944529 ], [ -87.64943, 41.945461 ] ] ] } },
{ "type": "Feature", "properties": { "GEOID": "17031070103" }, "geometry": { "type": "Polygon", "coordinates": [ [ [ -87.644217, 41.92805 ], [ -87.642232, 41.928533 ], [ -87.641807, 41.927813 ], [ -87.641336, 41.92701 ], [ -87.640479, 41.925585 ], [ -87.641502, 41.925569 ], [ -87.643927, 41.925532 ], [ -87.643992, 41.926727 ], [ -87.644026, 41.927326 ], [ -87.644217, 41.92805 ] ] ] } },
{ "type": "Feature", "properties": { "GEOID": "17031070300" }, "geometry": { "type": "Polygon", "coordinates": [ [ [ -87.653859, 41.932638 ], [ -87.649012, 41.93272 ], [ -87.648889, 41.929084 ], [ -87.648873, 41.928659 ], [ -87.648761, 41.925454 ], [ -87.65286, 41.925389 ], [ -87.653613, 41.925376 ], [ -87.653703, 41.928101 ], [ -87.653859, 41.932638 ] ] ] } },
{ "type": "Feature", "properties": { "GEOID": "17031071000" }, "geometry": { "type": "Polygon", "coordinates": [ [ [ -87.658453, 41.925292 ], [ -87.653613, 41.925376 ], [ -87.653488, 41.921738 ], [ -87.653428, 41.919923 ], [ -87.653367, 41.918105 ], [ -87.658219, 41.918034 ], [ -87.658279, 41.919847 ], [ -87.658335, 41.921661 ], [ -87.658453, 41.925292 ] ] ] } },
{ "type": "Feature", "properties": { "GEOID": "17031071100" }, "geometry": { "type": "Polygon", "coordinates": [ [ [ -87.653613, 41.925376 ], [ -87.65286, 41.925389 ], [ -87.648761, 41.925454 ], [ -87.648697, 41.92363 ], [ -87.648633, 41.921817 ], [ -87.648575, 41.919994 ], [ -87.648509, 41.91818 ], [ -87.649129, 41.918171 ], [ -87.650939, 41.918143 ], [ -87.653367, 41.918105 ], [ -87.653428, 41.919923 ], [ -87.653488, 41.921738 ], [ -87.653613, 41.925376 ] ] ] } },
{ "type": "Feature", "properties": { "GEOID": "17031071500" }, "geometry": { "type": "Polygon", "coordinates": [ [ [ -87.638816, 41.918322 ], [ -87.637221, 41.918351 ], [ -87.636117, 41.918473 ], [ -87.630747, 41.918539 ], [ -87.627525393723587, 41.9187776707452 ], [ -87.627495857257202, 41.918653976210301 ], [ -87.627115, 41.917059 ], [ -87.621435991999491, 41.913666242734301 ], [ -87.620679, 41.913214 ], [ -87.624038286760495, 41.911319177136697 ], [ -87.624475040057888, 41.911072824207601 ], [ -87.626587, 41.91118 ], [ -87.628886, 41.911223 ], [ -87.631682, 41.911181 ], [ -87.633076, 41.911161 ], [ -87.63323, 41.911164 ], [ -87.634711, 41.91116 ], [ -87.635701, 41.91115 ], [ -87.636663, 41.91114 ], [ -87.637624, 41.911131 ], [ -87.638592, 41.911115 ], [ -87.63864, 41.91282 ], [ -87.638704, 41.914676 ], [ -87.638762, 41.91651 ], [ -87.638816, 41.918322 ] ] ] } },
{ "type": "Feature", "properties": { "GEOID": "17031071600" }, "geometry": { "type": "Polygon", "coordinates": [ [ [ -87.643667, 41.918253 ], [ -87.641246, 41.918286 ], [ -87.638816, 41.918322 ], [ -87.638762, 41.91651 ], [ -87.638704, 41.914676 ], [ -87.639945, 41.914711 ], [ -87.641135, 41.914661 ], [ -87.641744, 41.914653 ], [ -87.642937, 41.914634 ], [ -87.64355, 41.914625 ], [ -87.643667, 41.918253 ] ] ] } },
{ "type": "Feature", "properties": { "GEOID": "17031071800" }, "geometry": { "type": "Polygon", "coordinates": [ [ [ -87.648509, 41.91818 ], [ -87.647312, 41.918194 ], [ -87.64489, 41.918235 ], [ -87.643667, 41.918253 ], [ -87.64355, 41.914625 ], [ -87.643525, 41.913898 ], [ -87.64349, 41.91281 ], [ -87.643431, 41.911018 ], [ -87.647076, 41.910937 ], [ -87.648272, 41.91092 ], [ -87.648284, 41.911386 ], [ -87.648361, 41.913827 ], [ -87.648509, 41.91818 ] ] ] } },
{ "type": "Feature", "properties": { "GEOID": "17031832600" }, "geometry": { "type": "Polygon", "coordinates": [ [ [ -87.664214, 41.916968 ], [ -87.65828, 41.917194 ], [ -87.658219, 41.918034 ], [ -87.653367, 41.918105 ], [ -87.650939, 41.918143 ], [ -87.649129, 41.918171 ], [ -87.648509, 41.91818 ], [ -87.648361, 41.913827 ], [ -87.648284, 41.911386 ], [ -87.648272, 41.91092 ], [ -87.649501, 41.9109 ], [ -87.651106, 41.910874 ], [ -87.653107, 41.91084 ], [ -87.656873, 41.910785 ], [ -87.658445, 41.914465 ], [ -87.66086, 41.915966 ], [ -87.6636, 41.91559 ], [ -87.664214, 41.916968 ] ] ] } },
{ "type": "Feature", "properties": { "GEOID": "17031061902" }, "geometry": { "type": "Polygon", "coordinates": [ [ [ -87.643017, 41.945313 ], [ -87.641577, 41.945765 ], [ -87.641385, 41.945824 ], [ -87.641592, 41.946202 ], [ -87.641797, 41.94616 ], [ -87.642207, 41.946872 ], [ -87.640986, 41.94737 ], [ -87.637418987275595, 41.948733054716797 ], [ -87.637224009270085, 41.948432397007295 ], [ -87.633828707369688, 41.943196813178901 ], [ -87.633299, 41.94238 ], [ -87.633276905033796, 41.942292901003 ], [ -87.638118, 41.940553 ], [ -87.639554, 41.940138 ], [ -87.641385, 41.940089 ], [ -87.641799, 41.941173 ], [ -87.642755, 41.941719 ], [ -87.641805, 41.941719 ], [ -87.641911, 41.943354 ], [ -87.64137, 41.94336 ], [ -87.641786, 41.944734 ], [ -87.643017, 41.945313 ] ] ] } },
{ "type": "Feature", "properties": { "GEOID": "17031063100" }, "geometry": { "type": "Polygon", "coordinates": [ [ [ -87.649267, 41.939981 ], [ -87.6444, 41.940045 ], [ -87.644369, 41.939146 ], [ -87.644353, 41.93869 ], [ -87.644279, 41.936513 ], [ -87.649141, 41.936379 ], [ -87.649216, 41.938485 ], [ -87.649267, 41.939981 ] ] ] } },
{ "type": "Feature", "properties": { "GEOID": "17031063301" }, "geometry": { "type": "Polygon", "coordinates": [ [ [ -87.644265, 41.934252 ], [ -87.644224, 41.934875 ], [ -87.644279, 41.936513 ], [ -87.641858, 41.936554 ], [ -87.641803, 41.934982 ], [ -87.641388, 41.934305 ], [ -87.641374, 41.933389 ], [ -87.641343, 41.93287 ], [ -87.644886, 41.932801 ], [ -87.644265, 41.934252 ] ] ] } },
{ "type": "Feature", "properties": { "GEOID": "17031070101" }, "geometry": { "type": "Polygon", "coordinates": [ [ [ -87.641807, 41.927813 ], [ -87.639228, 41.928665 ], [ -87.639265, 41.929696 ], [ -87.640634, 41.929242 ], [ -87.641467, 41.930661 ], [ -87.640869, 41.930856 ], [ -87.641786, 41.93236 ], [ -87.641343, 41.93287 ], [ -87.639327, 41.93292 ], [ -87.637955, 41.932932 ], [ -87.632102, 41.932727 ], [ -87.630924733914796, 41.933013625641493 ], [ -87.629380744938601, 41.926547618655299 ], [ -87.633632, 41.925751 ], [ -87.636064, 41.92567 ], [ -87.636569, 41.925658 ], [ -87.639116, 41.925612 ], [ -87.640479, 41.925585 ], [ -87.641336, 41.92701 ], [ -87.641807, 41.927813 ] ] ] } },
{ "type": "Feature", "properties": { "GEOID": "17031070102" }, "geometry": { "type": "Polygon", "coordinates": [ [ [ -87.644886, 41.932801 ], [ -87.641343, 41.93287 ], [ -87.641786, 41.93236 ], [ -87.640869, 41.930856 ], [ -87.641467, 41.930661 ], [ -87.640634, 41.929242 ], [ -87.639265, 41.929696 ], [ -87.639228, 41.928665 ], [ -87.641807, 41.927813 ], [ -87.642232, 41.928533 ], [ -87.642924, 41.929662 ], [ -87.643898, 41.930703 ], [ -87.644274, 41.931338 ], [ -87.644886, 41.932801 ] ] ] } },
{ "type": "Feature", "properties": { "GEOID": "17031070200" }, "geometry": { "type": "Polygon", "coordinates": [ [ [ -87.649012, 41.93272 ], [ -87.646581, 41.932768 ], [ -87.644886, 41.932801 ], [ -87.644274, 41.931338 ], [ -87.643898, 41.930703 ], [ -87.642924, 41.929662 ], [ -87.642232, 41.928533 ], [ -87.644217, 41.92805 ], [ -87.644026, 41.927326 ], [ -87.643992, 41.926727 ], [ -87.643927, 41.925532 ], [ -87.648761, 41.925454 ], [ -87.648873, 41.928659 ], [ -87.648889, 41.929084 ], [ -87.649012, 41.93272 ] ] ] } },
{ "type": "Feature", "properties": { "GEOID": "17031061800" }, "geometry": { "type": "Polygon", "coordinates": [ [ [ -87.649486, 41.947315 ], [ -87.64738, 41.947325 ], [ -87.645549, 41.947929 ], [ -87.644426, 41.946081 ], [ -87.646148, 41.945502 ], [ -87.649219, 41.94544 ], [ -87.64943, 41.945461 ], [ -87.649486, 41.947315 ] ] ] } },
{ "type": "Feature", "properties": { "GEOID": "17031061901" }, "geometry": { "type": "Polygon", "coordinates": [ [ [ -87.646148, 41.945502 ], [ -87.644426, 41.946081 ], [ -87.642379, 41.946775 ], [ -87.642207, 41.946872 ], [ -87.641797, 41.94616 ], [ -87.641592, 41.946202 ], [ -87.641385, 41.945824 ], [ -87.641577, 41.945765 ], [ -87.643017, 41.945313 ], [ -87.641786, 41.944734 ], [ -87.64137, 41.94336 ], [ -87.641911, 41.943354 ], [ -87.641805, 41.941719 ], [ -87.642755, 41.941719 ], [ -87.641799, 41.941173 ], [ -87.641385, 41.940089 ], [ -87.6444, 41.940045 ], [ -87.644455, 41.941777 ], [ -87.644814, 41.943321 ], [ -87.645036, 41.943684 ], [ -87.64552, 41.944482 ], [ -87.646148, 41.945502 ] ] ] } },
{ "type": "Feature", "properties": { "GEOID": "17031062200" }, "geometry": { "type": "Polygon", "coordinates": [ [ [ -87.659122, 41.945316 ], [ -87.656699, 41.945351 ], [ -87.65523, 41.945605 ], [ -87.654245, 41.944466 ], [ -87.65422, 41.943571 ], [ -87.654106, 41.939912 ], [ -87.656537, 41.939874 ], [ -87.658969, 41.939838 ], [ -87.659073, 41.943493 ], [ -87.659122, 41.945316 ] ] ] } },
{ "type": "Feature", "properties": { "GEOID": "17031063000" }, "geometry": { "type": "Polygon", "coordinates": [ [ [ -87.654106, 41.939912 ], [ -87.649267, 41.939981 ], [ -87.649216, 41.938485 ], [ -87.649141, 41.936379 ], [ -87.649117, 41.935563 ], [ -87.649108, 41.935458 ], [ -87.649012, 41.93272 ], [ -87.653859, 41.932638 ], [ -87.653951, 41.935358 ], [ -87.653983, 41.936271 ], [ -87.654106, 41.939912 ] ] ] } },
{ "type": "Feature", "properties": { "GEOID": "17031063200" }, "geometry": { "type": "Polygon", "coordinates": [ [ [ -87.6444, 41.940045 ], [ -87.641385, 41.940089 ], [ -87.639554, 41.940138 ], [ -87.638118, 41.940553 ], [ -87.633276905033796, 41.942292901003 ], [ -87.631915470480592, 41.936926086532502 ], [ -87.633784, 41.93682 ], [ -87.636851, 41.936618 ], [ -87.638702, 41.936592 ], [ -87.639434, 41.936587 ], [ -87.641858, 41.936554 ], [ -87.644279, 41.936513 ], [ -87.644353, 41.93869 ], [ -87.644369, 41.939146 ], [ -87.6444, 41.940045 ] ] ] } },
{ "type": "Feature", "properties": { "GEOID": "17031060900" }, "geometry": { "type": "Polygon", "coordinates": [ [ [ -87.64962, 41.951198 ], [ -87.647849, 41.951642 ], [ -87.645032, 41.952352 ], [ -87.644352, 41.952727 ], [ -87.640738, 41.953851 ], [ -87.637418987275595, 41.948733054716797 ], [ -87.640986, 41.94737 ], [ -87.642207, 41.946872 ], [ -87.642379, 41.946775 ], [ -87.644426, 41.946081 ], [ -87.645549, 41.947929 ], [ -87.64738, 41.947325 ], [ -87.649486, 41.947315 ], [ -87.64962, 41.951198 ] ] ] } },
{ "type": "Feature", "properties": { "GEOID": "17031063303" }, "geometry": { "type": "Polygon", "coordinates": [ [ [ -87.638702, 41.936592 ], [ -87.636851, 41.936618 ], [ -87.633784, 41.93682 ], [ -87.631915470480592, 41.936926086532502 ], [ -87.631898243496693, 41.936858177262501 ], [ -87.630953, 41.933132 ], [ -87.630924733914796, 41.933013625641493 ], [ -87.632102, 41.932727 ], [ -87.637955, 41.932932 ], [ -87.638003, 41.934372 ], [ -87.637834, 41.936105 ], [ -87.638702, 41.936592 ] ] ] } },
{ "type": "Feature", "properties": { "GEOID": "17031071400" }, "geometry": { "type": "Polygon", "coordinates": [ [ [ -87.640479, 41.925585 ], [ -87.639116, 41.925612 ], [ -87.636569, 41.925658 ], [ -87.636064, 41.92567 ], [ -87.633632, 41.925751 ], [ -87.629380744938601, 41.926547618655299 ], [ -87.627525393723587, 41.9187776707452 ], [ -87.630747, 41.918539 ], [ -87.636117, 41.918473 ], [ -87.637221, 41.918351 ], [ -87.638816, 41.918322 ], [ -87.638937, 41.921961 ], [ -87.639058, 41.92288 ], [ -87.638838, 41.922893 ], [ -87.639366, 41.92377 ], [ -87.639779, 41.924455 ], [ -87.640479, 41.925585 ] ] ] } },
{ "type": "Feature", "properties": { "GEOID": "17031062100" }, "geometry": { "type": "Polygon", "coordinates": [ [ [ -87.654272, 41.945396 ], [ -87.64943, 41.945461 ], [ -87.649404, 41.944529 ], [ -87.649375, 41.943616 ], [ -87.649358, 41.942709 ], [ -87.649267, 41.939981 ], [ -87.654106, 41.939912 ], [ -87.65422, 41.943571 ], [ -87.654245, 41.944466 ], [ -87.654272, 41.945396 ] ] ] } },
{ "type": "Feature", "properties": { "GEOID": "17031063302" }, "geometry": { "type": "Polygon", "coordinates": [ [ [ -87.641858, 41.936554 ], [ -87.639434, 41.936587 ], [ -87.638702, 41.936592 ], [ -87.637834, 41.936105 ], [ -87.638003, 41.934372 ], [ -87.637955, 41.932932 ], [ -87.639327, 41.93292 ], [ -87.641343, 41.93287 ], [ -87.641374, 41.933389 ], [ -87.641388, 41.934305 ], [ -87.641803, 41.934982 ], [ -87.641858, 41.936554 ] ] ] } },
{ "type": "Feature", "properties": { "GEOID": "17031071200" }, "geometry": { "type": "Polygon", "coordinates": [ [ [ -87.648761, 41.925454 ], [ -87.643927, 41.925532 ], [ -87.643787, 41.921888 ], [ -87.643728, 41.920072 ], [ -87.643667, 41.918253 ], [ -87.64489, 41.918235 ], [ -87.647312, 41.918194 ], [ -87.648509, 41.91818 ], [ -87.648575, 41.919994 ], [ -87.648633, 41.921817 ], [ -87.648697, 41.92363 ], [ -87.648761, 41.925454 ] ] ] } }
]
}
