{
"type": "FeatureCollection",
"name": "hotspot_data",
"crs": { "type": "name", "properties": { "name": "urn:ogc:def:crs:OGC:1.3:CRS84" } },
"features": [
{ "type": "Feature", "properties": { "GEOID": "17031070300", "locations": 32 }, "geometry": { "type": "Point", "coordinates": [ -87.650670654515423, 41.928553585450018 ] } },
{ "type": "Feature", "properties": { "GEOID": "17031832600", "locations": 48 }, "geometry": { "type": "Point", "coordinates": [ -87.651935658753317, 41.914169648225275 ] } },
{ "type": "Feature", "properties": { "GEOID": "17031071000", "locations": 23 }, "geometry": { "type": "Point", "coordinates": [ -87.655494283803606, 41.923283056370543 ] } },
{ "type": "Feature", "properties": { "GEOID": "17031071100", "locations": 25 }, "geometry": { "type": "Point", "coordinates": [ -87.650589900330317, 41.921634000303847 ] } },
{ "type": "Feature", "properties": { "GEOID": "17031071200", "locations": 36 }, "geometry": { "type": "Point", "coordinates": [ -87.646719728433638, 41.9223316944299 ] } },
{ "type": "Feature", "properties": { "GEOID": "17031063000", "locations": 39 }, "geometry": { "type": "Point", "coordinates": [ -87.65154867452253, 41.936684012617498 ] } },
{ "type": "Feature", "properties": { "GEOID": "17031063100", "locations": 25 }, "geometry": { "type": "Point", "coordinates": [ -87.646769295990168, 41.939414029985784 ] } },
{ "type": "Feature", "properties": { "GEOID": "17031832000", "locations": 17 }, "geometry": { "type": "Point", "coordinates": [ -87.652620503106888, 41.945921067469911 ] } },
{ "type": "Feature", "properties": { "GEOID": "17031063303", "locations": 7 }, "geometry": { "type": "Point", "coordinates": [ -87.637061384267028, 41.934438072051364 ] } },
{ "type": "Feature", "properties": { "GEOID": "17031071400", "locations": 25 }, "geometry": { "type": "Point", "coordinates": [ -87.637185580935821, 41.922409913919239 ] } },
{ "type": "Feature", "properties": { "GEOID": "17031070200", "locations": 17 }, "geometry": { "type": "Point", "coordinates": [ -87.646695473556917, 41.930361479313071 ] } },
{ "type": "Feature", "properties": { "GEOID": "17031060900", "locations": 27 }, "geometry": { "type": "Point", "coordinates": [ -87.644924548516173, 41.948191162459224 ] } },
{ "type": "Feature", "properties": { "GEOID": "17031070400", "locations": 12 }, "geometry": { "type": "Point", "coordinates": [ -87.656462372500883, 41.928711394805191 ] } },
{ "type": "Feature", "properties": { "GEOID": "17031070102", "locations": 15 }, "geometry": { "type": "Point", "coordinates": [ -87.642530432858265, 41.930963482805737 ] } },
{ "type": "Feature", "properties": { "GEOID": "17031061800", "locations": 5 }, "geometry": { "type": "Point", "coordinates": [ -87.646808742600498, 41.946621869746338 ] } },
{ "type": "Feature", "properties": { "GEOID": "17031071500", "locations": 91 }, "geometry": { "type": "Point", "coordinates": [ -87.636220283426908, 41.913681160187735 ] } },
{ "type": "Feature", "properties": { "GEOID": "17031071300", "locations": 9 }, "geometry": { "type": "Point", "coordinates": [ -87.642072764482933, 41.921289778767999 ] } },
{ "type": "Feature", "properties": { "GEOID": "17031071800", "locations": 7 }, "geometry": { "type": "Point", "coordinates": [ -87.646492993775496, 41.915765042653057 ] } },
{ "type": "Feature", "properties": { "GEOID": "17031071600", "locations": 12 }, "geometry": { "type": "Point", "coordinates": [ -87.641555669372295, 41.916716568580171 ] } },
{ "type": "Feature", "properties": { "GEOID": "17031070103", "locations": 2 }, "geometry": { "type": "Point", "coordinates": [ -87.641584325595232, 41.926631007142859 ] } },
{ "type": "Feature", "properties": { "GEOID": "17031070101", "locations": 14 }, "geometry": { "type": "Point", "coordinates": [ -87.639915645949898, 41.928831047867348 ] } },
{ "type": "Feature", "properties": { "GEOID": "17031061901", "locations": 17 }, "geometry": { "type": "Point", "coordinates": [ -87.642877229519513, 41.943483692778976 ] } },
{ "type": "Feature", "properties": { "GEOID": "17031062200", "locations": 20 }, "geometry": { "type": "Point", "coordinates": [ -87.656455589437385, 41.942660409560794 ] } },
{ "type": "Feature", "properties": { "GEOID": "17031062900", "locations": 26 }, "geometry": { "type": "Point", "coordinates": [ -87.65617459032751, 41.93809443137954 ] } },
{ "type": "Feature", "properties": { "GEOID": "17031063400", "locations": 39 }, "geometry": { "type": "Point", "coordinates": [ -87.646791453846532, 41.935487640161071 ] } },
{ "type": "Feature", "properties": { "GEOID": "17031063301", "locations": 42 }, "geometry": { "type": "Point", "coordinates": [ -87.642683400959527, 41.935087661632942 ] } },
{ "type": "Feature", "properties": { "GEOID": "17031063302", "locations": 74 }, "geometry": { "type": "Point", "coordinates": [ -87.640269634292679, 41.93497690068827 ] } },
{ "type": "Feature", "properties": { "GEOID": "17031063200", "locations": 62 }, "geometry": { "type": "Point", "coordinates": [ -87.6409013546224, 41.937537761531445 ] } },
{ "type": "Feature", "properties": { "GEOID": "17031062000", "locations": 101 }, "geometry": { "type": "Point", "coordinates": [ -87.646988295246047, 41.941572761077559 ] } },
{ "type": "Feature", "properties": { "GEOID": "17031062100", "locations": 58 }, "geometry": { "type": "Point", "coordinates": [ -87.651703645675781, 41.941861713990669 ] } },
{ "type": "Feature", "properties": { "GEOID": "17031061902", "locations": 16 }, "geometry": { "type": "Point", "coordinates": [ -87.640870642961417, 41.9426095814528 ] } }
]
}
